{"type":"FeatureCollection","source":"Astana municipal open geoportal","source_url":"https://gis.esaulet.kz/server/rest/services/dop_sloi_geoportal_otkr/MapServer/18","metadata":{"sourceId":"astana-municipal-buildings","source":"https://gis.esaulet.kz/server/rest/services/dop_sloi_geoportal_otkr/MapServer/18","retrievedAt":"2026-09-23T11:44:36.492584+00:00","publicationDate":null,"geometryStatus":"sourced","status":"unverified","license":null,"reuseTerms":"Not stated by public source service.","outputCrs":"EPSG:4326","coordinateDimensions":"Source Z discarded; longitude and latitude retained.","queryBbox":[71.220936,50.999912,71.728067,51.301212],"bboxClipped":false,"sourceFeatureCount":125832,"featureCount":88,"completeWithinQuery":false,"renderSampleCap":null,"selection":"Tile subset of complete city coverage; full features assigned once by bbox center.","generalizationToleranceDegrees":9e-06,"invalidGeneralizedFeaturesReplacedByRaw":0,"fields":"OBJECTID,NAME,NAME_OBJECT,NUMBER_STOREYS,FUNCTIONAL,PURPOSE","query":{"where":"1=1","geometry":"71.220936,50.999912,71.728067,51.301212","geometryType":"esriGeometryEnvelope","inSR":4326,"spatialRel":"esriSpatialRelIntersects","outFields":"OBJECTID,NAME,NAME_OBJECT,NUMBER_STOREYS,FUNCTIONAL,PURPOSE","outSR":4326,"f":"geojson","returnGeometry":"true","returnZ":"false","returnM":"false","geometryPrecision":7,"maxAllowableOffset":9e-06,"orderByFields":"OBJECTID","resultRecordCount":2000},"generator":"build_building_tiles.py","sourceMetadataFile":"buildings-source.json","schemaVersion":1,"coverageChecks":{"method":"Feature bboxes intersecting a 400m by400m WGS84-local rectangle centered on user-supplied anchor. No features generated from anchors.","featuresByAnchor":{"astana_1_station":61,"nurly_zhol_station":23,"astana_airport":1,"baiterek":29}},"tileId":"r0-c2","tileBbox":[71.4742894,51.0241736,71.4950366,51.0752505],"gridBbox":[71.4745015,50.999912,71.60128424999999,51.075237],"completeCollectionWithinQuery":true},"features":[{"type":"Feature","id":"municipal-buildings-14","geometry":{"type":"Polygon","coordinates":[[[71.4893195,51.0441515],[71.4892739,51.0441792],[71.4893581,51.0442337],[71.4892235,51.0443163],[71.4891393,51.0442618],[71.4892482,51.0441949],[71.4891178,51.0441098],[71.4892017,51.0440588],[71.4893317,51.0441438],[71.4894531,51.0440678],[71.4895386,51.0441221],[71.4894053,51.0442055],[71.4893195,51.0441515]]]},"properties":{"name":" ","storeys":"1","functional":"Известные по назначению","purpose":"Сооружение","levels":1.0}},{"type":"Feature","id":"municipal-buildings-15","geometry":{"type":"Polygon","coordinates":[[[71.4890628,51.0437577],[71.4891209,51.0437953],[71.4889518,51.0438984],[71.4888196,51.0438128],[71.4889679,51.0437103],[71.4889886,51.0437097],[71.4890628,51.0437577]]]},"properties":{"name":" ","storeys":"1","functional":"Известные по назначению","purpose":"Сооружение","levels":1.0}},{"type":"Feature","id":"municipal-buildings-16","geometry":{"type":"Polygon","coordinates":[[[71.4902697,51.0472811],[71.4900684,51.0474091],[71.4898938,51.0472999],[71.4900951,51.047172],[71.4902697,51.0472811]]]},"properties":{"name":" ","storeys":"1","functional":"Известные по назначению","purpose":"Сооружение","levels":1.0}},{"type":"Feature","id":"municipal-buildings-33","geometry":{"type":"Polygon","coordinates":[[[71.4757793,51.036317],[71.4755649,51.0364514],[71.4750158,51.0361032],[71.4752302,51.0359688],[71.4757793,51.036317]]]},"properties":{"name":" ","storeys":"1","functional":"Административные сооружения","purpose":"Административное здание","levels":1.0}},{"type":"Feature","id":"municipal-buildings-34","geometry":{"type":"Polygon","coordinates":[[[71.4749166,51.0362131],[71.4748647,51.0362455],[71.4748288,51.0362225],[71.4748805,51.0361901],[71.4749166,51.0362131]]]},"properties":{"name":" ","storeys":"1","functional":"Известные по назначению","purpose":"Сооружение","levels":1.0}},{"type":"Feature","id":"municipal-buildings-35","geometry":{"type":"Polygon","coordinates":[[[71.47866,51.0363994],[71.4785876,51.0364461],[71.4785119,51.0363995],[71.4785843,51.0363528],[71.47866,51.0363994]]]},"properties":{"name":" ","storeys":"3","functional":"Административные сооружения","purpose":"Административное здание","levels":3.0}},{"type":"Feature","id":"municipal-buildings-36","geometry":{"type":"Polygon","coordinates":[[[71.4785531,51.036477],[71.478459,51.0365353],[71.4784806,51.0365532],[71.4784679,51.0365761],[71.4784356,51.0365812],[71.4784076,51.0365672],[71.4782214,51.0366827],[71.4780729,51.0365875],[71.4783765,51.0363993],[71.4780323,51.0361782],[71.4781848,51.0360838],[71.4785711,51.036332],[71.4784964,51.0363447],[71.4784623,51.0364216],[71.4785531,51.036477]]]},"properties":{"name":" ","storeys":"3","functional":"Административные сооружения","purpose":"Административное здание","levels":3.0}},{"type":"Feature","id":"municipal-buildings-37","geometry":{"type":"Polygon","coordinates":[[[71.4772023,51.0373273],[71.4771401,51.037364],[71.4764394,51.0369093],[71.4771678,51.036457],[71.4778942,51.036922],[71.4778319,51.0369596],[71.4777853,51.0369388],[71.4777189,51.0369718],[71.4771965,51.0366389],[71.4767178,51.0369376],[71.4772368,51.037275],[71.4771831,51.0373169],[71.4772023,51.0373273]]]},"properties":{"name":" ","storeys":"2","functional":"Известные по назначению","purpose":"Хозяйственный корпус","levels":2.0}},{"type":"Feature","id":"municipal-buildings-38","geometry":{"type":"Polygon","coordinates":[[[71.477831,51.0369592],[71.4772984,51.0372841],[71.4773091,51.037291],[71.4772257,51.0373424],[71.4771831,51.0373169],[71.4772368,51.037275],[71.4767178,51.0369376],[71.4771965,51.0366389],[71.4777189,51.0369718],[71.4777853,51.0369388],[71.477831,51.0369592]]]},"properties":{"name":" ","storeys":"2","functional":"Известные по назначению","purpose":"Хозяйственный корпус","levels":2.0}},{"type":"Feature","id":"municipal-buildings-39","geometry":{"type":"Polygon","coordinates":[[[71.4770586,51.0362774],[71.477025,51.0362981],[71.4769964,51.0362796],[71.4770301,51.0362589],[71.4770586,51.0362774]]]},"properties":{"name":" ","storeys":"1","functional":"Известные по назначению","purpose":"Сооружение","levels":1.0}},{"type":"Feature","id":"municipal-buildings-40","geometry":{"type":"Polygon","coordinates":[[[71.4765392,51.0362334],[71.4766853,51.0361425],[71.4769321,51.0362996],[71.4767833,51.0363891],[71.4765392,51.0362334]]]},"properties":{"name":" ","storeys":"1","functional":"Известные по назначению","purpose":"Хозяйственный корпус","levels":1.0}},{"type":"Feature","id":"municipal-buildings-41","geometry":{"type":"Polygon","coordinates":[[[71.476716,51.0376715],[71.4763844,51.0378737],[71.4756854,51.037425],[71.4760024,51.0372263],[71.4766579,51.0376471],[71.476723,51.0376074],[71.4767704,51.0376383],[71.476716,51.0376715]]]},"properties":{"name":" ","storeys":"2","functional":"Известные по назначению","purpose":"Хозяйственный корпус","levels":2.0}},{"type":"Feature","id":"municipal-buildings-42","geometry":{"type":"Polygon","coordinates":[[[71.476303,51.0379235],[71.4759702,51.0381266],[71.4752711,51.0376778],[71.4755881,51.0374792],[71.4762436,51.0379],[71.4763088,51.0378603],[71.4763561,51.0378911],[71.476303,51.0379235]]]},"properties":{"name":" ","storeys":"2","functional":"Известные по назначению","purpose":"Хозяйственный корпус","levels":2.0}},{"type":"Feature","id":"municipal-buildings-43","geometry":{"type":"Polygon","coordinates":[[[71.475884,51.0381885],[71.4755627,51.0383844],[71.4748637,51.0379357],[71.4751807,51.0377371],[71.4758362,51.0381578],[71.4759013,51.0381181],[71.4759487,51.038149],[71.475884,51.0381885]]]},"properties":{"name":" ","storeys":"1","functional":"Известные по назначению","purpose":"Хозяйственный корпус","levels":1.0}},{"type":"Feature","id":"municipal-buildings-45","geometry":{"type":"Polygon","coordinates":[[[71.4753426,51.0347106],[71.4760018,51.0351404],[71.4757849,51.0352726],[71.4750811,51.0348137],[71.4752979,51.0346815],[71.4753426,51.0347106]]]},"properties":{"name":"VIP-терминал аэропорта г. Астана","storeys":"2","functional":"Административные сооружения","purpose":"VIP-терминал аэропорта г. Астана","levels":2.0}},{"type":"Feature","id":"municipal-buildings-47","geometry":{"type":"Polygon","coordinates":[[[71.4760941,51.0366643],[71.476225,51.0367494],[71.4760315,51.0368677],[71.4758913,51.0367766],[71.4760848,51.0366582],[71.4760941,51.0366643]]]},"properties":{"name":" ","storeys":"1","functional":"Известные по назначению","purpose":"Хозяйственный корпус","levels":1.0}},{"type":"Feature","id":"municipal-buildings-48","geometry":{"type":"Polygon","coordinates":[[[71.4761529,51.0369331],[71.4760869,51.036974],[71.4760238,51.0369335],[71.4760898,51.0368926],[71.4761529,51.0369331]]]},"properties":{"name":" ","storeys":"1","functional":"Известные по назначению","purpose":"Хозяйственный корпус","levels":1.0}},{"type":"Feature","id":"municipal-buildings-49","geometry":{"type":"Polygon","coordinates":[[[71.4760602,51.0369902],[71.4759948,51.0370313],[71.475931,51.0369909],[71.4759964,51.0369498],[71.4760602,51.0369902]]]},"properties":{"name":" ","storeys":"1","functional":"Известные по назначению","purpose":"Хозяйственный корпус","levels":1.0}},{"type":"Feature","id":"municipal-buildings-50","geometry":{"type":"Polygon","coordinates":[[[71.4759398,51.0370643],[71.4758718,51.0371044],[71.47581,51.0370628],[71.4758781,51.0370226],[71.4759398,51.0370643]]]},"properties":{"name":" ","storeys":"1","functional":"Известные по назначению","purpose":"Хозяйственный корпус","levels":1.0}},{"type":"Feature","id":"municipal-buildings-51","geometry":{"type":"Polygon","coordinates":[[[71.4758512,51.0371196],[71.4757848,51.0371614],[71.4757203,51.0371207],[71.4757867,51.0370789],[71.4758512,51.0371196]]]},"properties":{"name":" ","storeys":"1","functional":"Известные по назначению","purpose":"Хозяйственный корпус","levels":1.0}},{"type":"Feature","id":"municipal-buildings-52","geometry":{"type":"Polygon","coordinates":[[[71.4757293,51.0371936],[71.4756609,51.0372352],[71.4755985,51.0371944],[71.4756668,51.0371528],[71.4757293,51.0371936]]]},"properties":{"name":" ","storeys":"1","functional":"Известные по назначению","purpose":"Хозяйственный корпус","levels":1.0}},{"type":"Feature","id":"municipal-buildings-53","geometry":{"type":"Polygon","coordinates":[[[71.4755809,51.0372864],[71.4755143,51.0373272],[71.4754514,51.0372864],[71.475518,51.0372456],[71.4755809,51.0372864]]]},"properties":{"name":" ","storeys":"1","functional":"Известные по назначению","purpose":"Хозяйственный корпус","levels":1.0}},{"type":"Feature","id":"municipal-buildings-54","geometry":{"type":"Polygon","coordinates":[[[71.4754017,51.0371981],[71.4753229,51.0372453],[71.4752335,51.0371861],[71.4753123,51.0371388],[71.4754017,51.0371981]]]},"properties":{"name":" ","storeys":"1","functional":"Известные по назначению","purpose":"Хозяйственный корпус","levels":1.0}},{"type":"Feature","id":"municipal-buildings-55","geometry":{"type":"Polygon","coordinates":[[[71.4752243,51.0370567],[71.4751563,51.037095],[71.4750436,51.0370154],[71.4751116,51.0369771],[71.4752243,51.0370567]]]},"properties":{"name":" ","storeys":"1","functional":"Известные по назначению","purpose":"Хозяйственный корпус","levels":1.0}},{"type":"Feature","id":"municipal-buildings-56","geometry":{"type":"Polygon","coordinates":[[[71.474565,51.0374439],[71.4745063,51.037407],[71.4744861,51.0374197],[71.4744137,51.0373743],[71.4744343,51.0373613],[71.4743722,51.0373222],[71.474653,51.0371505],[71.4748415,51.0372689],[71.474565,51.0374439]]]},"properties":{"name":" ","storeys":"1","functional":"Известные по назначению","purpose":"Хозяйственный корпус","levels":1.0}},{"type":"Feature","id":"municipal-buildings-67","geometry":{"type":"Polygon","coordinates":[[[71.4848676,51.0382283],[71.4848206,51.0382442],[71.4847954,51.0382147],[71.4848425,51.0381988],[71.4848676,51.0382283]]]},"properties":{"name":" ","storeys":"1","functional":"Известные по назначению","purpose":"Сооружение","levels":1.0}},{"type":"Feature","id":"municipal-buildings-73","geometry":{"type":"Polygon","coordinates":[[[71.4751648,51.0407105],[71.474662,51.0410216],[71.4742894,51.0407816],[71.4747927,51.0404709],[71.4751648,51.0407105]]]},"properties":{"name":" ","storeys":"1","functional":"Известные по назначению","purpose":"Хозяйственный корпус","levels":1.0}},{"type":"Feature","id":"municipal-buildings-75","geometry":{"type":"Polygon","coordinates":[[[71.4774216,51.0430698],[71.4774033,51.0430894],[71.4773758,51.0430792],[71.4773941,51.0430596],[71.4774216,51.0430698]]]},"properties":{"name":" ","storeys":"1","functional":"Известные по назначению","purpose":"Сооружение","levels":1.0}},{"type":"Feature","id":"municipal-buildings-76","geometry":{"type":"Polygon","coordinates":[[[71.4769152,51.0429082],[71.4768909,51.0429336],[71.4768593,51.0429217],[71.4768836,51.0428962],[71.4769152,51.0429082]]]},"properties":{"name":" ","storeys":"1","functional":"Известные по назначению","purpose":"Сооружение","levels":1.0}},{"type":"Feature","id":"municipal-buildings-77","geometry":{"type":"Polygon","coordinates":[[[71.4782997,51.0427793],[71.478264,51.0428183],[71.4782043,51.0427965],[71.47824,51.0427575],[71.4782997,51.0427793]]]},"properties":{"name":" ","storeys":"1","functional":"Известные по назначению","purpose":"Сооружение","levels":1.0}},{"type":"Feature","id":"municipal-buildings-78","geometry":{"type":"Polygon","coordinates":[[[71.4780557,51.0426629],[71.4780992,51.0426792],[71.4780371,51.0427451],[71.4779837,51.0427252],[71.4780457,51.0426592],[71.4780557,51.0426629]]]},"properties":{"name":" ","storeys":"1","functional":"Известные по назначению","purpose":"Сооружение","levels":1.0}},{"type":"Feature","id":"municipal-buildings-79","geometry":{"type":"Polygon","coordinates":[[[71.4782192,51.0425346],[71.4781427,51.0426175],[71.478054,51.042585],[71.4781306,51.0425021],[71.4782192,51.0425346]]]},"properties":{"name":" ","storeys":"1","functional":"Известные по назначению","purpose":"Сооружение","levels":1.0}},{"type":"Feature","id":"municipal-buildings-80","geometry":{"type":"Polygon","coordinates":[[[71.4782268,51.0422411],[71.4781607,51.0423119],[71.4780613,51.042275],[71.4781274,51.0422042],[71.4782268,51.0422411]]]},"properties":{"name":" ","storeys":"1","functional":"Известные по назначению","purpose":"Сооружение","levels":1.0}},{"type":"Feature","id":"municipal-buildings-81","geometry":{"type":"Polygon","coordinates":[[[71.4786408,51.0420924],[71.4786032,51.0421331],[71.4784419,51.042074],[71.4784795,51.0420332],[71.4786408,51.0420924]]]},"properties":{"name":" ","storeys":"1","functional":"Известные по назначению","purpose":"Сооружение","levels":1.0}},{"type":"Feature","id":"municipal-buildings-82","geometry":{"type":"Polygon","coordinates":[[[71.4808482,51.0430781],[71.4809971,51.0431328],[71.4807018,51.0434504],[71.4805134,51.0433843],[71.4808094,51.0430639],[71.4808482,51.0430781]]]},"properties":{"name":" ","storeys":"1","functional":"Известные по назначению","purpose":"Сооружение","levels":1.0}},{"type":"Feature","id":"municipal-buildings-83","geometry":{"type":"Polygon","coordinates":[[[71.4798674,51.0427634],[71.479686,51.0429602],[71.4790556,51.0427301],[71.4792821,51.0424878],[71.4799083,51.0427195],[71.4798674,51.0427634]]]},"properties":{"name":" ","storeys":"3","functional":"Административные сооружения","purpose":"Административное здание","levels":3.0}},{"type":"Feature","id":"municipal-buildings-84","geometry":{"type":"Polygon","coordinates":[[[71.4798674,51.0427634],[71.4800744,51.0428402],[71.4798437,51.0430955],[71.4796332,51.0430175],[71.4798674,51.0427634]]]},"properties":{"name":" ","storeys":"3","functional":"Административные сооружения","purpose":"Административное здание","levels":3.0}},{"type":"Feature","id":"municipal-buildings-85","geometry":{"type":"Polygon","coordinates":[[[71.4796332,51.0430175],[71.4796051,51.0430437],[71.4794409,51.0429827],[71.4794668,51.0429559],[71.4790053,51.0427851],[71.47898,51.0428073],[71.4786543,51.042691],[71.4789421,51.0423731],[71.478858,51.0423438],[71.4789408,51.0422548],[71.4791932,51.0423452],[71.4791205,51.0424259],[71.4792848,51.0424848],[71.4790556,51.0427301],[71.479686,51.0429602],[71.4796332,51.0430175]]]},"properties":{"name":" ","storeys":"3","functional":"Административные сооружения","purpose":"Административное здание","levels":3.0}},{"type":"Feature","id":"municipal-buildings-86","geometry":{"type":"Polygon","coordinates":[[[71.4804083,51.0428381],[71.4803332,51.0429171],[71.4802519,51.0428865],[71.4803227,51.0428058],[71.4804083,51.0428381]]]},"properties":{"name":" ","storeys":"1","functional":"Известные по назначению","purpose":"Сооружение","levels":1.0}},{"type":"Feature","id":"municipal-buildings-90","geometry":{"type":"Polygon","coordinates":[[[71.4815984,51.0404928],[71.4816465,51.0405229],[71.481575,51.0405682],[71.4815015,51.0405221],[71.481573,51.0404768],[71.4815984,51.0404928]]]},"properties":{"name":" ","storeys":"1","functional":"Известные по назначению","purpose":"Сооружение","levels":1.0}},{"type":"Feature","id":"municipal-buildings-91","geometry":{"type":"Polygon","coordinates":[[[71.4838371,51.0401545],[71.4838074,51.040173],[71.4837221,51.0401185],[71.4837519,51.0401],[71.4838371,51.0401545]]]},"properties":{"name":" ","storeys":"1","functional":"Известные по назначению","purpose":"Сооружение","levels":1.0}},{"type":"Feature","id":"municipal-buildings-92","geometry":{"type":"Polygon","coordinates":[[[71.4835242,51.0403974],[71.483433,51.040454],[71.4833778,51.0404187],[71.4833486,51.0404369],[71.483299,51.0404052],[71.4834193,51.0403303],[71.4835242,51.0403974]]]},"properties":{"name":" ","storeys":"1","functional":"Известные по назначению","purpose":"Сооружение","levels":1.0}},{"type":"Feature","id":"municipal-buildings-93","geometry":{"type":"Polygon","coordinates":[[[71.483433,51.040454],[71.4829983,51.0407243],[71.4828098,51.0406031],[71.4835539,51.0401404],[71.4837436,51.0402609],[71.4835242,51.0403974],[71.4834193,51.0403303],[71.483299,51.0404052],[71.4833486,51.0404369],[71.4833778,51.0404187],[71.483433,51.040454]]]},"properties":{"name":" ","storeys":"1","functional":"Известные по назначению","purpose":"Сооружение","levels":1.0}},{"type":"Feature","id":"municipal-buildings-94","geometry":{"type":"Polygon","coordinates":[[[71.483833,51.0406525],[71.4837595,51.0406972],[71.4837196,51.0406712],[71.4837931,51.0406264],[71.483833,51.0406525]]]},"properties":{"name":" ","storeys":"1","functional":"Известные по назначению","purpose":"Сооружение","levels":1.0}},{"type":"Feature","id":"municipal-buildings-95","geometry":{"type":"Polygon","coordinates":[[[71.4841795,51.0403384],[71.4845648,51.0405852],[71.4844028,51.0406848],[71.483978,51.0404141],[71.4841376,51.0403138],[71.4841795,51.0403384]]]},"properties":{"name":" ","storeys":"1","functional":"Известные по назначению","purpose":"Сооружение","levels":1.0}},{"type":"Feature","id":"municipal-buildings-96","geometry":{"type":"Polygon","coordinates":[[[71.4847011,51.0394791],[71.4840755,51.0398625],[71.4834953,51.039497],[71.4841351,51.0391013],[71.4847122,51.0394722],[71.4847011,51.0394791]]]},"properties":{"name":" ","storeys":"3","functional":"Административные сооружения","purpose":"Административное здание","levels":3.0}},{"type":"Feature","id":"municipal-buildings-97","geometry":{"type":"Polygon","coordinates":[[[71.4847011,51.0394791],[71.4848584,51.0395779],[71.4840774,51.0400604],[71.4831894,51.0394915],[71.4839698,51.0390078],[71.4841221,51.0391094],[71.4834953,51.039497],[71.4840755,51.0398625],[71.4847011,51.0394791]]]},"properties":{"name":" ","storeys":"3","functional":"Административные сооружения","purpose":"Административное здание","levels":3.0}},{"type":"Feature","id":"municipal-buildings-98","geometry":{"type":"Polygon","coordinates":[[[71.4853496,51.0398942],[71.4852713,51.0399382],[71.4852316,51.0399224],[71.4851984,51.0399491],[71.4852584,51.0399797],[71.4851742,51.0400269],[71.4851114,51.0399929],[71.4850481,51.0400225],[71.4847789,51.039851],[71.4850334,51.0396924],[71.4853496,51.0398942]]]},"properties":{"name":" ","storeys":"3","functional":"Административные сооружения","purpose":"Административное здание","levels":3.0}},{"type":"Feature","id":"municipal-buildings-99","geometry":{"type":"Polygon","coordinates":[[[71.4854253,51.0399425],[71.4850752,51.0401574],[71.4849533,51.0400796],[71.4851114,51.0399929],[71.4851742,51.0400269],[71.4852584,51.0399797],[71.4851984,51.0399491],[71.4852316,51.0399224],[71.4852713,51.0399382],[71.4853496,51.0398942],[71.4854253,51.0399425]]]},"properties":{"name":" ","storeys":"3","functional":"Административные сооружения","purpose":"Административное здание","levels":3.0}},{"type":"Feature","id":"municipal-buildings-100","geometry":{"type":"Polygon","coordinates":[[[71.4854253,51.0399425],[71.4857622,51.0401575],[71.4854146,51.040374],[71.4850752,51.0401574],[71.4854253,51.0399425]]]},"properties":{"name":" ","storeys":"3","functional":"Административные сооружения","purpose":"Административное здание","levels":3.0}},{"type":"Feature","id":"municipal-buildings-101","geometry":{"type":"Polygon","coordinates":[[[71.4841085,51.0413639],[71.4840479,51.0414347],[71.4839607,51.041405],[71.4840214,51.0413342],[71.4841085,51.0413639]]]},"properties":{"name":" ","storeys":"1","functional":"Известные по назначению","purpose":"Сооружение","levels":1.0}},{"type":"Feature","id":"municipal-buildings-117","geometry":{"type":"Polygon","coordinates":[[[71.4749168,51.0344723],[71.4748854,51.0344916],[71.4748714,51.0344813],[71.4747731,51.0345427],[71.4745222,51.0343805],[71.4746513,51.0343024],[71.4749168,51.0344723]]]},"properties":{"name":" ","storeys":"1","functional":"Известные по назначению","purpose":"Хозяйственный корпус","levels":1.0}},{"type":"Feature","id":"municipal-buildings-118","geometry":{"type":"Polygon","coordinates":[[[71.4749799,51.034406],[71.4749338,51.0344353],[71.4749546,51.0344483],[71.4749168,51.0344723],[71.4747678,51.0343785],[71.474851,51.0343255],[71.4749799,51.034406]]]},"properties":{"name":" ","storeys":"1","functional":"Известные по назначению","purpose":"Хозяйственный корпус","levels":1.0}},{"type":"Feature","id":"municipal-buildings-119","geometry":{"type":"Polygon","coordinates":[[[71.474851,51.0343255],[71.4749288,51.0342665],[71.4750833,51.0343631],[71.4749981,51.0344174],[71.474851,51.0343255]]]},"properties":{"name":" ","storeys":"3","functional":"Известные по назначению","purpose":"Хозяйственный корпус","levels":3.0}},{"type":"Feature","id":"municipal-buildings-129","geometry":{"type":"Polygon","coordinates":[[[71.4782978,51.0346715],[71.4782767,51.0346844],[71.4784045,51.0347672],[71.4782802,51.0348476],[71.4780142,51.0346842],[71.4781624,51.0345883],[71.4782978,51.0346715]]]},"properties":{"name":" ","storeys":"1","functional":"Известные по назначению","purpose":"Хозяйственный корпус","levels":1.0}},{"type":"Feature","id":"municipal-buildings-207","geometry":{"type":"Polygon","coordinates":[[[71.4888262,51.0397025],[71.4887232,51.0397658],[71.4886191,51.0396988],[71.4887217,51.0396347],[71.4888262,51.0397025]]]},"properties":{"name":" ","storeys":"1","functional":"Известные по назначению","purpose":"Сооружение","levels":1.0}},{"type":"Feature","id":"municipal-buildings-211","geometry":{"type":"Polygon","coordinates":[[[71.4817182,51.0308075],[71.4816831,51.0308294],[71.4816243,51.0307918],[71.4816594,51.0307699],[71.4817182,51.0308075]]]},"properties":{"name":" ","storeys":"1","functional":"Известные по назначению","purpose":"Сооружение","levels":1.0}},{"type":"Feature","id":"municipal-buildings-212","geometry":{"type":"Polygon","coordinates":[[[71.4863644,51.046681],[71.4864805,51.0467555],[71.4864087,51.0467999],[71.4862739,51.0467133],[71.4863456,51.0466689],[71.4863644,51.046681]]]},"properties":{"name":" ","storeys":"1","functional":"Известные по назначению","purpose":"Сооружение","levels":1.0}},{"type":"Feature","id":"municipal-buildings-213","geometry":{"type":"Polygon","coordinates":[[[71.4860506,51.0466852],[71.4860036,51.046738],[71.4858811,51.0466947],[71.4859281,51.0466419],[71.4860506,51.0466852]]]},"properties":{"name":" ","storeys":"1","functional":"Известные по назначению","purpose":"Сооружение","levels":1.0}},{"type":"Feature","id":"municipal-buildings-215","geometry":{"type":"Polygon","coordinates":[[[71.4823737,51.0302547],[71.4822408,51.0303378],[71.4821105,51.030255],[71.4822434,51.0301718],[71.4823737,51.0302547]]]},"properties":{"name":" ","storeys":"1","functional":"Известные по назначению","purpose":"Сооружение","levels":1.0}},{"type":"Feature","id":"municipal-buildings-216","geometry":{"type":"Polygon","coordinates":[[[71.4948971,51.0403714],[71.4948816,51.0403807],[71.4948409,51.0403538],[71.4948564,51.0403445],[71.4948971,51.0403714]]]},"properties":{"name":" ","storeys":"1","functional":"Известные по назначению","purpose":"Сооружение","levels":1.0}},{"type":"Feature","id":"municipal-buildings-217","geometry":{"type":"Polygon","coordinates":[[[71.4947993,51.0403038],[71.4947839,51.0403134],[71.4947651,51.0403014],[71.4947806,51.0402918],[71.4947993,51.0403038]]]},"properties":{"name":" ","storeys":"1","functional":"Известные по назначению","purpose":"Сооружение","levels":1.0}},{"type":"Feature","id":"municipal-buildings-218","geometry":{"type":"Polygon","coordinates":[[[71.4946547,51.0406768],[71.4945856,51.0407207],[71.4944212,51.0406177],[71.4944903,51.0405738],[71.4946547,51.0406768]]]},"properties":{"name":" ","storeys":"1","functional":"Известные по назначению","purpose":"Сооружение","levels":1.0}},{"type":"Feature","id":"municipal-buildings-219","geometry":{"type":"Polygon","coordinates":[[[71.4950366,51.0411157],[71.4950049,51.0411358],[71.4949646,51.0411105],[71.4949964,51.0410904],[71.4950366,51.0411157]]]},"properties":{"name":" ","storeys":"1","functional":"Известные по назначению","purpose":"Сооружение","levels":1.0}},{"type":"Feature","id":"municipal-buildings-220","geometry":{"type":"Polygon","coordinates":[[[71.4930442,51.0425501],[71.4930219,51.0425635],[71.4930049,51.0425523],[71.4930272,51.0425389],[71.4930442,51.0425501]]]},"properties":{"name":" ","storeys":"1","functional":"Известные по назначению","purpose":"Сооружение","levels":1.0}},{"type":"Feature","id":"municipal-buildings-223","geometry":{"type":"Polygon","coordinates":[[[71.4777882,51.0243505],[71.4777053,51.0243998],[71.4776363,51.0243537],[71.4777193,51.0243044],[71.4777882,51.0243505]]]},"properties":{"name":" ","storeys":"1","functional":"Известные по назначению","purpose":"Сооружение","levels":1.0}},{"type":"Feature","id":"municipal-buildings-224","geometry":{"type":"Polygon","coordinates":[[[71.4774603,51.0242488],[71.4773588,51.024285],[71.4772914,51.0242097],[71.4773929,51.0241736],[71.4774603,51.0242488]]]},"properties":{"name":" ","storeys":"1","functional":"Известные по назначению","purpose":"Сооружение","levels":1.0}},{"type":"Feature","id":"municipal-buildings-225","geometry":{"type":"Polygon","coordinates":[[[71.477098,51.0244072],[71.477015,51.0244427],[71.4769716,51.0244024],[71.4770546,51.0243668],[71.477098,51.0244072]]]},"properties":{"name":" ","storeys":"1","functional":"Известные по назначению","purpose":"Сооружение","levels":1.0}},{"type":"Feature","id":"municipal-buildings-233","geometry":{"type":"Polygon","coordinates":[[[71.487717,51.0448314],[71.4875904,51.0449107],[71.4874911,51.0448478],[71.4876176,51.0447684],[71.487717,51.0448314]]]},"properties":{"name":" ","storeys":"1","functional":"Известные по назначению","purpose":"Сооружение","levels":1.0}},{"type":"Feature","id":"municipal-buildings-234","geometry":{"type":"Polygon","coordinates":[[[71.4874728,51.04502],[71.4874035,51.0450636],[71.4872244,51.0449506],[71.4872937,51.044907],[71.4874728,51.04502]]]},"properties":{"name":" ","storeys":"1","functional":"Известные по назначению","purpose":"Сооружение","levels":1.0}},{"type":"Feature","id":"municipal-buildings-240","geometry":{"type":"Polygon","coordinates":[[[71.4785711,51.036332],[71.4786223,51.0363238],[71.4787092,51.0363773],[71.478676,51.0364556],[71.4785531,51.036477],[71.4784623,51.0364216],[71.4784964,51.0363447],[71.4785711,51.036332]],[[71.47866,51.0363994],[71.4785843,51.0363528],[71.4785119,51.0363995],[71.4785876,51.0364461],[71.47866,51.0363994]]]},"properties":{"name":" ","storeys":"3","functional":"Административные сооружения","purpose":"Административное здание","levels":3.0}},{"type":"Feature","id":"municipal-buildings-246","geometry":{"type":"Polygon","coordinates":[[[71.4878511,51.0460153],[71.4877695,51.0459522],[71.487742,51.0459693],[71.4875562,51.0458504],[71.4875854,51.0458323],[71.4874838,51.0457803],[71.4877432,51.0456192],[71.4878039,51.045658],[71.4878231,51.0456461],[71.4878522,51.0456647],[71.4878933,51.0456391],[71.4880806,51.0457589],[71.4880203,51.0457964],[71.4881105,51.0458541],[71.4878511,51.0460153]],[[71.4878315,51.0459102],[71.4880147,51.0457989],[71.4878307,51.0456785],[71.4876475,51.0457898],[71.4878315,51.0459102]]]},"properties":{"storeys":"1","functional":"Известные по назначению","purpose":"Производственный корпус","levels":1.0}},{"type":"Feature","id":"municipal-buildings-247","geometry":{"type":"Polygon","coordinates":[[[71.4876475,51.0457898],[71.4878307,51.0456785],[71.4880147,51.0457989],[71.4878315,51.0459102],[71.4876475,51.0457898]]]},"properties":{"storeys":"1","functional":"Известные по назначению","purpose":"Производственный корпус","levels":1.0}},{"type":"Feature","id":"municipal-buildings-248","geometry":{"type":"Polygon","coordinates":[[[71.4905735,51.045569],[71.4910261,51.0458583],[71.4900416,51.0464704],[71.4895609,51.0461621],[71.4905447,51.0455506],[71.4905735,51.045569]]]},"properties":{"storeys":"1","functional":"Известные по назначению","purpose":"Производственный корпус","levels":1.0}},{"type":"Feature","id":"municipal-buildings-249","geometry":{"type":"Polygon","coordinates":[[[71.4900419,51.0465748],[71.4895118,51.046235],[71.489593,51.0461836],[71.4900416,51.0464704],[71.4910261,51.0458583],[71.4905778,51.0455718],[71.4906572,51.0455225],[71.4911928,51.0458629],[71.4900419,51.0465748]]]},"properties":{"storeys":"1","functional":"Известные по назначению","purpose":"Производственный корпус","levels":1.0}},{"type":"Feature","id":"municipal-buildings-250","geometry":{"type":"Polygon","coordinates":[[[71.4871494,51.0469099],[71.4872725,51.0468333],[71.4871815,51.0467752],[71.4881737,51.0461575],[71.4884234,51.0463168],[71.4873082,51.0470112],[71.4871494,51.0469099]]]},"properties":{"storeys":"1","functional":"Известные по назначению","purpose":"Производственный корпус","levels":1.0}},{"type":"Feature","id":"municipal-buildings-251","geometry":{"type":"Polygon","coordinates":[[[71.4895086,51.0470386],[71.4898658,51.0468158],[71.489992,51.0468961],[71.4896348,51.047119],[71.4895086,51.0470386]]]},"properties":{"storeys":"1","functional":"Известные по назначению","purpose":"Производственный корпус","levels":1.0}},{"type":"Feature","id":"municipal-buildings-252","geometry":{"type":"Polygon","coordinates":[[[71.4906288,51.0470921],[71.4905594,51.0470481],[71.4907417,51.0469338],[71.4908111,51.0469777],[71.4906288,51.0470921]]]},"properties":{"storeys":"1","functional":"Известные по назначению","purpose":"Сооружение","levels":1.0}},{"type":"Feature","id":"municipal-buildings-253","geometry":{"type":"Polygon","coordinates":[[[71.4920982,51.0483648],[71.4920153,51.0483107],[71.4920895,51.0482655],[71.4921724,51.0483197],[71.4920982,51.0483648]]]},"properties":{"storeys":"1","functional":"Известные по назначению","purpose":"Сооружение","levels":1.0}},{"type":"Feature","id":"municipal-buildings-14605","geometry":{"type":"Polygon","coordinates":[[[71.4760624,51.0738413],[71.476059,51.0738668],[71.4759273,51.0738598],[71.4759307,51.0738342],[71.4760624,51.0738413]]]},"properties":{"name":" ","storeys":"1","functional":"Административные сооружения","purpose":"Хозяйственный корпус","levels":1.0}},{"type":"Feature","id":"municipal-buildings-14632","geometry":{"type":"Polygon","coordinates":[[[71.4747664,51.0736886],[71.4744402,51.0736731],[71.4744288,51.0735576],[71.4744605,51.0735355],[71.4745108,51.0735353],[71.4745431,51.0735577],[71.4746748,51.0735483],[71.474673,51.0735726],[71.4747708,51.0735721],[71.4747664,51.0736886]]]},"properties":{"name":" ","storeys":"1","functional":"Административные сооружения","purpose":"Хозяйственный корпус","levels":1.0}},{"type":"Feature","id":"municipal-buildings-14633","geometry":{"type":"Polygon","coordinates":[[[71.4747092,51.0738316],[71.4745699,51.0738107],[71.474587,51.0737647],[71.4746724,51.0737769],[71.4746821,51.0737551],[71.4747378,51.0737641],[71.4747092,51.0738316]]]},"properties":{"name":" ","storeys":"1","functional":"Административные сооружения","purpose":"Хозяйственный корпус","levels":1.0}},{"type":"Feature","id":"municipal-buildings-14709","geometry":{"type":"Polygon","coordinates":[[[71.4747153,51.0742905],[71.4743421,51.0742025],[71.4743782,51.0741418],[71.4744831,51.0741666],[71.4745323,51.0740838],[71.4746803,51.0741061],[71.4748057,51.0741442],[71.4747757,51.0741947],[71.4747937,51.0741989],[71.4747706,51.0742379],[71.4747514,51.0742333],[71.4747153,51.0742905]]]},"properties":{"storeys":"1","functional":"Административные сооружения","purpose":"Хозяйственный корпус","levels":1.0}},{"type":"Feature","id":"municipal-buildings-14710","geometry":{"type":"Polygon","coordinates":[[[71.4760373,51.0741946],[71.4758844,51.0741913],[71.4758855,51.0741732],[71.475803,51.0741713],[71.4758046,51.0741434],[71.4757821,51.0741429],[71.4757847,51.0740981],[71.4758063,51.0740985],[71.4758093,51.0740445],[71.4760456,51.0740498],[71.4760373,51.0741946]]]},"properties":{"storeys":"1","functional":"Административные сооружения","purpose":"Хозяйственный корпус","levels":1.0}},{"type":"Feature","id":"municipal-buildings-14718","geometry":{"type":"Polygon","coordinates":[[[71.4772057,51.0730223],[71.4772123,51.0729611],[71.4773034,51.072965],[71.4772968,51.0730262],[71.4772057,51.0730223]]]},"properties":{"storeys":"1","functional":"Административные сооружения","purpose":"Хозяйственный корпус","levels":1.0}},{"type":"Feature","id":"municipal-buildings-14719","geometry":{"type":"Polygon","coordinates":[[[71.477333,51.0729748],[71.4773709,51.0729763],[71.4773663,51.0730211],[71.4773284,51.0730195],[71.477333,51.0729748]]]},"properties":{"storeys":"1","functional":"Административные сооружения","purpose":"Хозяйственный корпус","levels":1.0}},{"type":"Feature","id":"municipal-buildings-14720","geometry":{"type":"Polygon","coordinates":[[[71.477818,51.075103],[71.477738,51.075081],[71.477805,51.0749841],[71.4779307,51.0750186],[71.4779004,51.0750624],[71.4778547,51.0750499],[71.477818,51.075103]]]},"properties":{"storeys":"1","functional":"Административные сооружения","purpose":"Хозяйственный корпус","levels":1.0}},{"type":"Feature","id":"municipal-buildings-14721","geometry":{"type":"Polygon","coordinates":[[[71.4778608,51.075057],[71.4780858,51.0751192],[71.4780478,51.0751873],[71.4780249,51.0752046],[71.4779822,51.0751927],[71.4779416,51.0752505],[71.4778048,51.0752123],[71.4778455,51.0751544],[71.477801,51.075142],[71.4778608,51.075057]]]},"properties":{"storeys":"1","functional":"Административные сооружения","purpose":"Хозяйственный корпус","levels":1.0}}]}
