{"type":"FeatureCollection","source":"Astana municipal open geoportal","source_url":"https://gis.esaulet.kz/server/rest/services/dop_sloi_geoportal_otkr/MapServer/18","metadata":{"sourceId":"astana-municipal-buildings","source":"https://gis.esaulet.kz/server/rest/services/dop_sloi_geoportal_otkr/MapServer/18","retrievedAt":"2026-09-23T11:44:36.492584+00:00","publicationDate":null,"geometryStatus":"sourced","status":"unverified","license":null,"reuseTerms":"Not stated by public source service.","outputCrs":"EPSG:4326","coordinateDimensions":"Source Z discarded; longitude and latitude retained.","queryBbox":[71.220936,50.999912,71.728067,51.301212],"bboxClipped":false,"sourceFeatureCount":125832,"featureCount":11,"completeWithinQuery":false,"renderSampleCap":null,"selection":"Tile subset of complete city coverage; full features assigned once by bbox center.","generalizationToleranceDegrees":9e-06,"invalidGeneralizedFeaturesReplacedByRaw":0,"fields":"OBJECTID,NAME,NAME_OBJECT,NUMBER_STOREYS,FUNCTIONAL,PURPOSE","query":{"where":"1=1","geometry":"71.220936,50.999912,71.728067,51.301212","geometryType":"esriGeometryEnvelope","inSR":4326,"spatialRel":"esriSpatialRelIntersects","outFields":"OBJECTID,NAME,NAME_OBJECT,NUMBER_STOREYS,FUNCTIONAL,PURPOSE","outSR":4326,"f":"geojson","returnGeometry":"true","returnZ":"false","returnM":"false","geometryPrecision":7,"maxAllowableOffset":9e-06,"orderByFields":"OBJECTID","resultRecordCount":2000},"generator":"build_building_tiles.py","sourceMetadataFile":"buildings-source.json","schemaVersion":1,"coverageChecks":{"method":"Feature bboxes intersecting a 400m by400m WGS84-local rectangle centered on user-supplied anchor. No features generated from anchors.","featuresByAnchor":{"astana_1_station":61,"nurly_zhol_station":23,"astana_airport":1,"baiterek":29}},"tileId":"r0-c0","tileBbox":[71.3231414,51.0230763,71.3459331,51.0541802],"gridBbox":[71.220936,50.999912,71.34771875,51.075237],"completeCollectionWithinQuery":true},"features":[{"type":"Feature","id":"municipal-buildings-45886","geometry":{"type":"Polygon","coordinates":[[[71.3303282,51.0239785],[71.3302214,51.0239689],[71.3302405,51.0238845],[71.3301989,51.0238807],[71.3302041,51.0238576],[71.3301776,51.0238552],[71.3301958,51.0237747],[71.3302223,51.0237771],[71.3302255,51.0237629],[71.330285,51.0237682],[71.3302889,51.0237512],[71.3303534,51.023757],[71.3303496,51.023774],[71.3304089,51.0237891],[71.3303984,51.0238352],[71.3303613,51.0238319],[71.3303282,51.0239785]]]},"properties":{"name":" ","functional":" ","purpose":"Здание"}},{"type":"Feature","id":"municipal-buildings-45887","geometry":{"type":"Polygon","coordinates":[[[71.3303411,51.024132],[71.3303362,51.0241907],[71.3302403,51.0241879],[71.3302456,51.0241289],[71.3303411,51.024132]]]},"properties":{"name":" ","functional":" ","purpose":"Здание"}},{"type":"Feature","id":"municipal-buildings-45888","geometry":{"type":"Polygon","coordinates":[[[71.3301959,51.0241013],[71.3301865,51.0241922],[71.3301261,51.0241898],[71.3301354,51.0240988],[71.3301959,51.0241013]]]},"properties":{"name":" ","functional":" ","purpose":"Здание"}},{"type":"Feature","id":"municipal-buildings-45889","geometry":{"type":"Polygon","coordinates":[[[71.3300356,51.0241467],[71.3300338,51.0241753],[71.3298533,51.0241708],[71.3298551,51.0241422],[71.3300356,51.0241467]]]},"properties":{"name":" ","functional":" ","purpose":"Здание"}},{"type":"Feature","id":"municipal-buildings-45890","geometry":{"type":"Polygon","coordinates":[[[71.3297519,51.024102],[71.3297479,51.0241641],[71.3294141,51.0241556],[71.3294181,51.0240935],[71.3297519,51.024102]]]},"properties":{"name":" ","functional":" ","purpose":"Здание"}},{"type":"Feature","id":"municipal-buildings-45891","geometry":{"type":"Polygon","coordinates":[[[71.3307106,51.0240156],[71.3306933,51.0241273],[71.3306511,51.0241247],[71.3306684,51.024013],[71.3307106,51.0240156]]]},"properties":{"name":" ","functional":" ","purpose":"Здание"}},{"type":"Feature","id":"municipal-buildings-45892","geometry":{"type":"Polygon","coordinates":[[[71.3309779,51.0243329],[71.330896,51.0243367],[71.3308966,51.024297],[71.3309796,51.0242937],[71.3309779,51.0243329]]]},"properties":{"name":" ","functional":" ","purpose":"Здание"}},{"type":"Feature","id":"municipal-buildings-45893","geometry":{"type":"Polygon","coordinates":[[[71.3308139,51.0230791],[71.3308032,51.023188],[71.3307308,51.0231852],[71.3307414,51.0230763],[71.3308139,51.0230791]]]},"properties":{"name":" ","functional":" ","purpose":"Здание"}},{"type":"Feature","id":"municipal-buildings-45894","geometry":{"type":"Polygon","coordinates":[[[71.3236002,51.0541105],[71.3235648,51.0541802],[71.3231414,51.0540947],[71.3231768,51.054025],[71.3236002,51.0541105]]]},"properties":{"name":" ","functional":" ","purpose":"Здание"}},{"type":"Feature","id":"municipal-buildings-45895","geometry":{"type":"Polygon","coordinates":[[[71.3234496,51.0538904],[71.3234155,51.0539504],[71.323343,51.0539341],[71.323377,51.053874],[71.3234496,51.0538904]]]},"properties":{"name":" ","functional":" ","purpose":"Здание"}},{"type":"Feature","id":"municipal-buildings-45897","geometry":{"type":"Polygon","coordinates":[[[71.3459331,51.027656],[71.3459221,51.0276874],[71.3458401,51.027676],[71.3458511,51.0276446],[71.3459331,51.027656]]]},"properties":{"name":" ","functional":" ","purpose":"Здание"}}]}
