{"type":"FeatureCollection","source":"Astana municipal open geoportal","source_url":"https://gis.esaulet.kz/server/rest/services/dop_sloi_geoportal_otkr/MapServer/18","metadata":{"sourceId":"astana-municipal-buildings","source":"https://gis.esaulet.kz/server/rest/services/dop_sloi_geoportal_otkr/MapServer/18","retrievedAt":"2026-09-23T11:44:36.492584+00:00","publicationDate":null,"geometryStatus":"sourced","status":"unverified","license":null,"reuseTerms":"Not stated by public source service.","outputCrs":"EPSG:4326","coordinateDimensions":"Source Z discarded; longitude and latitude retained.","queryBbox":[71.220936,50.999912,71.728067,51.301212],"bboxClipped":false,"sourceFeatureCount":125832,"featureCount":54,"completeWithinQuery":false,"renderSampleCap":null,"selection":"Tile subset of complete city coverage; full features assigned once by bbox center.","generalizationToleranceDegrees":9e-06,"invalidGeneralizedFeaturesReplacedByRaw":0,"fields":"OBJECTID,NAME,NAME_OBJECT,NUMBER_STOREYS,FUNCTIONAL,PURPOSE","query":{"where":"1=1","geometry":"71.220936,50.999912,71.728067,51.301212","geometryType":"esriGeometryEnvelope","inSR":4326,"spatialRel":"esriSpatialRelIntersects","outFields":"OBJECTID,NAME,NAME_OBJECT,NUMBER_STOREYS,FUNCTIONAL,PURPOSE","outSR":4326,"f":"geojson","returnGeometry":"true","returnZ":"false","returnM":"false","geometryPrecision":7,"maxAllowableOffset":9e-06,"orderByFields":"OBJECTID","resultRecordCount":2000},"generator":"build_building_tiles.py","sourceMetadataFile":"buildings-source.json","schemaVersion":1,"coverageChecks":{"method":"Feature bboxes intersecting a 400m by400m WGS84-local rectangle centered on user-supplied anchor. No features generated from anchors.","featuresByAnchor":{"astana_1_station":61,"nurly_zhol_station":23,"astana_airport":1,"baiterek":29}},"tileId":"r2-c3","tileBbox":[71.6042429,51.1591066,71.6192545,51.1731288],"gridBbox":[71.60128424999999,51.150562,71.728067,51.225887],"completeCollectionWithinQuery":true},"features":[{"type":"Feature","id":"municipal-buildings-46116","geometry":{"type":"Polygon","coordinates":[[[71.6192545,51.1729465],[71.619211,51.1731288],[71.6189422,51.1731035],[71.6189857,51.1729212],[71.6192545,51.1729465]]]},"properties":{"name":" ","functional":" ","purpose":"Кафе, бар"}},{"type":"Feature","id":"municipal-buildings-94706","geometry":{"type":"Polygon","coordinates":[[[71.6050315,51.1601362],[71.6050125,51.1601877],[71.6049681,51.1601812],[71.6049871,51.1601297],[71.6050315,51.1601362]]]},"properties":{"name":" ","functional":" ","purpose":"Здание"}},{"type":"Feature","id":"municipal-buildings-94738","geometry":{"type":"Polygon","coordinates":[[[71.6068092,51.1619341],[71.606803,51.1619514],[71.6067762,51.1619476],[71.6067825,51.1619303],[71.6068092,51.1619341]]]},"properties":{"name":" ","functional":" ","purpose":"Здание"}},{"type":"Feature","id":"municipal-buildings-94782","geometry":{"type":"Polygon","coordinates":[[[71.6090546,51.1640734],[71.6090271,51.1640931],[71.6089622,51.1640575],[71.6089897,51.1640377],[71.6090546,51.1640734]]]},"properties":{"name":" ","functional":" ","purpose":"Здание"}},{"type":"Feature","id":"municipal-buildings-94789","geometry":{"type":"Polygon","coordinates":[[[71.6099943,51.1643581],[71.6099091,51.1644222],[71.6098375,51.1643845],[71.6099228,51.1643204],[71.6099943,51.1643581]]]},"properties":{"name":" ","functional":" ","purpose":"Здание"}},{"type":"Feature","id":"municipal-buildings-94793","geometry":{"type":"Polygon","coordinates":[[[71.6075017,51.1650272],[71.6074733,51.1650488],[71.607457,51.1650404],[71.6074854,51.1650188],[71.6075017,51.1650272]]]},"properties":{"name":" ","functional":" ","purpose":"Здание"}},{"type":"Feature","id":"municipal-buildings-94799","geometry":{"type":"Polygon","coordinates":[[[71.608502,51.1660063],[71.6084828,51.1660218],[71.608443,51.1660022],[71.6084622,51.1659867],[71.608502,51.1660063]]]},"properties":{"name":" ","functional":" ","purpose":"Здание"}},{"type":"Feature","id":"municipal-buildings-105883","geometry":{"type":"Polygon","coordinates":[[[71.6046497,51.1610713],[71.6046944,51.1610778],[71.6046715,51.1611407],[71.6045714,51.1611262],[71.6045943,51.1610634],[71.6046497,51.1610713]]]},"properties":{"name":" ","functional":"Известный по назначению","purpose":"Сооружение"}},{"type":"Feature","id":"municipal-buildings-105884","geometry":{"type":"Polygon","coordinates":[[[71.6045501,51.1613634],[71.6045267,51.1614237],[71.6044355,51.1614096],[71.604459,51.1613494],[71.6045501,51.1613634]]]},"properties":{"name":" ","functional":"Известный по назначению","purpose":"Сооружение"}},{"type":"Feature","id":"municipal-buildings-105885","geometry":{"type":"Polygon","coordinates":[[[71.605262,51.1614174],[71.6052361,51.1614823],[71.6050975,51.1614604],[71.6051234,51.1613955],[71.605262,51.1614174]]]},"properties":{"name":" ","functional":"Известный по назначению","purpose":"Сооружение"}},{"type":"Feature","id":"municipal-buildings-105886","geometry":{"type":"Polygon","coordinates":[[[71.6065449,51.161665],[71.6065316,51.1616993],[71.6060676,51.1616285],[71.6061928,51.1613042],[71.6066568,51.161375],[71.6065449,51.161665]]]},"properties":{"name":" ","functional":"Административные сооружения","purpose":"Административное здание"}},{"type":"Feature","id":"municipal-buildings-105887","geometry":{"type":"Polygon","coordinates":[[[71.6066007,51.1601346],[71.6065965,51.1601456],[71.6062094,51.160087],[71.6062626,51.159948],[71.6063053,51.1599545],[71.6063678,51.1597972],[71.6065329,51.1598231],[71.6065431,51.1597973],[71.606847,51.1598445],[71.606793,51.1599817],[71.6067525,51.1599754],[71.6066899,51.1601328],[71.6066064,51.1601196],[71.6066007,51.1601346]]]},"properties":{"name":" ","functional":"Административные сооружения","purpose":"Административное здание"}},{"type":"Feature","id":"municipal-buildings-105888","geometry":{"type":"Polygon","coordinates":[[[71.6066636,51.1605411],[71.6066752,51.1605429],[71.6066355,51.1606452],[71.6058563,51.160535],[71.6058597,51.1605259],[71.605757,51.1605107],[71.6057665,51.1604852],[71.6049098,51.1603437],[71.6049678,51.1602],[71.6057842,51.1603106],[71.605799,51.1602736],[71.6059509,51.1602976],[71.6059541,51.1602889],[71.6060116,51.1602972],[71.6060015,51.1603249],[71.6062253,51.1603593],[71.6062051,51.1604114],[71.6064765,51.160454],[71.6065275,51.1604563],[71.6065566,51.160382],[71.6067162,51.1604067],[71.6066636,51.1605411]]]},"properties":{"name":" ","functional":"Медицинское учереждение","purpose":"Медицинское учереждение"}},{"type":"Feature","id":"municipal-buildings-105889","geometry":{"type":"Polygon","coordinates":[[[71.6084496,51.1608899],[71.607786,51.1607927],[71.6077671,51.1608407],[71.6075335,51.1608043],[71.6075425,51.1607814],[71.6068892,51.1606801],[71.6069037,51.1606432],[71.6068734,51.1606383],[71.6068811,51.1606192],[71.6069112,51.160624],[71.6069505,51.1605238],[71.6074631,51.1606033],[71.6074832,51.1605521],[71.6077019,51.1605787],[71.6078469,51.1606085],[71.6078395,51.1606274],[71.6085085,51.1607385],[71.6084496,51.1608899]]]},"properties":{"name":" ","functional":"Медицинское учереждение","purpose":"Медицинское учереждение"}},{"type":"Feature","id":"municipal-buildings-105890","geometry":{"type":"Polygon","coordinates":[[[71.6054422,51.1609125],[71.6054633,51.1608574],[71.6047225,51.1607435],[71.604785,51.1605829],[71.6048229,51.1605817],[71.6062917,51.1608077],[71.6062243,51.1609809],[71.6058737,51.1609208],[71.6058529,51.160975],[71.6054422,51.1609125]]]},"properties":{"name":" ","functional":"Медицинское учереждение","purpose":"Медицинское учереждение"}},{"type":"Feature","id":"municipal-buildings-105891","geometry":{"type":"Polygon","coordinates":[[[71.6077523,51.1643681],[71.6073412,51.16467],[71.6071963,51.1645919],[71.6075321,51.1643453],[71.6074317,51.1642912],[71.6070946,51.1645388],[71.6069482,51.1644599],[71.6077304,51.1638855],[71.6078768,51.1639643],[71.6075405,51.1642113],[71.6076409,51.1642654],[71.6079773,51.1640184],[71.6081222,51.1640964],[71.6077523,51.1643681]]]},"properties":{"name":"Городской Инфекционный Центр, больница","functional":"Административные сооружения","purpose":"Административное здание"}},{"type":"Feature","id":"municipal-buildings-105892","geometry":{"type":"Polygon","coordinates":[[[71.6042726,51.1617121],[71.604266,51.1617273],[71.6042429,51.1617233],[71.6042495,51.1617081],[71.6042726,51.1617121]]]},"properties":{"name":" ","functional":"Известный по назначению","purpose":"Проходная, КПП"}},{"type":"Feature","id":"municipal-buildings-105893","geometry":{"type":"Polygon","coordinates":[[[71.6069024,51.1593577],[71.6068922,51.1593838],[71.6069777,51.159397],[71.6069168,51.1595531],[71.6069591,51.1595598],[71.6069043,51.1596987],[71.6066022,51.1596516],[71.6066126,51.1596253],[71.606446,51.1595996],[71.6065072,51.1594427],[71.6064644,51.1594361],[71.6065188,51.159298],[71.6069024,51.1593577]]]},"properties":{"name":" ","functional":"Административные сооружения","purpose":"Административное здание"}},{"type":"Feature","id":"municipal-buildings-105894","geometry":{"type":"Polygon","coordinates":[[[71.6086054,51.1639588],[71.6085421,51.1640043],[71.608419,51.1639366],[71.6084824,51.1638911],[71.6086054,51.1639588]]]},"properties":{"name":" ","functional":"Известный по назначению","purpose":"Сооружение"}},{"type":"Feature","id":"municipal-buildings-105895","geometry":{"type":"Polygon","coordinates":[[[71.6073033,51.1597839],[71.6073124,51.1597853],[71.6072573,51.1599208],[71.6070337,51.1598848],[71.6070889,51.1597493],[71.6073033,51.1597839]]]},"properties":{"name":" ","functional":"Известный по назначению","purpose":"Хозяйственный корпус"}},{"type":"Feature","id":"municipal-buildings-105896","geometry":{"type":"Polygon","coordinates":[[[71.607861,51.1597581],[71.60779,51.1599495],[71.6076039,51.1599212],[71.6076773,51.1597302],[71.607861,51.1597581]]]},"properties":{"name":" ","functional":"Известный по назначению","purpose":"Хозяйственный корпус"}},{"type":"Feature","id":"municipal-buildings-105897","geometry":{"type":"Polygon","coordinates":[[[71.6079957,51.1595297],[71.6079621,51.1596142],[71.6071927,51.1594934],[71.6072262,51.1594088],[71.6079957,51.1595297]]]},"properties":{"name":" ","functional":"Известный по назначению","purpose":"Гараж"}},{"type":"Feature","id":"municipal-buildings-105898","geometry":{"type":"Polygon","coordinates":[[[71.6084106,51.1613908],[71.6081987,51.1613584],[71.6082233,51.1612948],[71.6077636,51.1612312],[71.6077295,51.1613195],[71.6075158,51.1612869],[71.6075405,51.1612228],[71.6073412,51.1611916],[71.6073547,51.1611576],[71.6068936,51.1610866],[71.6069549,51.1609294],[71.6074678,51.1610084],[71.6074722,51.1609973],[71.6086289,51.1611849],[71.6085648,51.1613477],[71.6084321,51.1613351],[71.6084106,51.1613908]]]},"properties":{"name":" ","functional":"Медицинское учереждение","purpose":"Медицинское учереждение"}},{"type":"Feature","id":"municipal-buildings-105899","geometry":{"type":"Polygon","coordinates":[[[71.6054876,51.1599759],[71.6050963,51.1599149],[71.6051519,51.1597745],[71.6051944,51.1597811],[71.6052565,51.1596234],[71.6054232,51.1596494],[71.6054333,51.1596234],[71.6057392,51.1596706],[71.6056843,51.1598113],[71.6056419,51.1598047],[71.6055825,51.1599623],[71.6054979,51.1599496],[71.6054876,51.1599759]]]},"properties":{"name":" ","functional":"Административные сооружения","purpose":"Административное здание"}},{"type":"Feature","id":"municipal-buildings-105900","geometry":{"type":"Polygon","coordinates":[[[71.6077572,51.1600567],[71.60771,51.1601753],[71.6075218,51.1601456],[71.6075691,51.1600271],[71.6077572,51.1600567]]]},"properties":{"name":" ","functional":"Известный по назначению","purpose":"Хозяйственный корпус"}},{"type":"Feature","id":"municipal-buildings-106928","geometry":{"type":"Polygon","coordinates":[[[71.6056543,51.1609456],[71.6055459,51.1612201],[71.6053007,51.1611818],[71.6054091,51.1609073],[71.6056543,51.1609456]]]},"properties":{"name":" ","functional":"Медицинское учереждение","purpose":"Медицинское учереждение"}},{"type":"Feature","id":"municipal-buildings-106929","geometry":{"type":"Polygon","coordinates":[[[71.6052929,51.1599566],[71.6052851,51.1599768],[71.6052475,51.1599711],[71.6052553,51.1599509],[71.6052929,51.1599566]]]},"properties":{"name":" ","functional":" ","purpose":"Административное здание"}},{"type":"Feature","id":"municipal-buildings-106930","geometry":{"type":"Polygon","coordinates":[[[71.6063053,51.1601079],[71.6062976,51.1601291],[71.6062568,51.1601233],[71.6062645,51.1601021],[71.6063053,51.1601079]]]},"properties":{"name":" ","functional":" ","purpose":"Административное здание"}},{"type":"Feature","id":"municipal-buildings-106931","geometry":{"type":"Polygon","coordinates":[[[71.6051169,51.1604014],[71.6051113,51.1604166],[71.605087,51.160413],[71.6050927,51.1603978],[71.6051169,51.1604014]]]},"properties":{"name":" ","functional":" ","purpose":"Медицинское учреждение"}},{"type":"Feature","id":"municipal-buildings-106932","geometry":{"type":"Polygon","coordinates":[[[71.6052088,51.1608222],[71.6052019,51.1608391],[71.6051762,51.1608349],[71.6051831,51.1608181],[71.6052088,51.1608222]]]},"properties":{"name":" ","functional":" ","purpose":"Медицинское учреждение"}},{"type":"Feature","id":"municipal-buildings-106933","geometry":{"type":"Polygon","coordinates":[[[71.6077993,51.1608241],[71.607794,51.1608366],[71.6077726,51.160833],[71.607778,51.1608205],[71.6077993,51.1608241]]]},"properties":{"name":" ","functional":" ","purpose":"Здание"}},{"type":"Feature","id":"municipal-buildings-106934","geometry":{"type":"Polygon","coordinates":[[[71.60851,51.1608427],[71.6085023,51.1608634],[71.6084679,51.1608583],[71.6084757,51.1608376],[71.60851,51.1608427]]]},"properties":{"name":" ","functional":" ","purpose":"Здание"}},{"type":"Feature","id":"municipal-buildings-106935","geometry":{"type":"Polygon","coordinates":[[[71.6074758,51.161218],[71.6074701,51.1612323],[71.6074486,51.161229],[71.6074543,51.1612147],[71.6074758,51.161218]]]},"properties":{"name":" ","functional":" ","purpose":"Медицинское учреждение"}},{"type":"Feature","id":"municipal-buildings-106936","geometry":{"type":"Polygon","coordinates":[[[71.6078615,51.1612532],[71.6078554,51.1612691],[71.6078292,51.1612651],[71.6078354,51.1612492],[71.6078615,51.1612532]]]},"properties":{"name":" ","functional":" ","purpose":"Производственный корпус"}},{"type":"Feature","id":"municipal-buildings-106937","geometry":{"type":"Polygon","coordinates":[[[71.6061572,51.1613617],[71.6061498,51.1613803],[71.6061196,51.1613755],[71.606127,51.1613569],[71.6061572,51.1613617]]]},"properties":{"name":" ","functional":" ","purpose":"Административное здание"}},{"type":"Feature","id":"municipal-buildings-106938","geometry":{"type":"Polygon","coordinates":[[[71.6085358,51.161348],[71.6085292,51.1613645],[71.6085052,51.1613608],[71.6085117,51.1613442],[71.6085358,51.161348]]]},"properties":{"name":" ","functional":" ","purpose":"Здание"}},{"type":"Feature","id":"municipal-buildings-106939","geometry":{"type":"Polygon","coordinates":[[[71.6082704,51.1613791],[71.608262,51.1614015],[71.6082256,51.1613961],[71.6082339,51.1613738],[71.6082704,51.1613791]]]},"properties":{"name":" ","functional":" ","purpose":"Здание"}},{"type":"Feature","id":"municipal-buildings-106940","geometry":{"type":"Polygon","coordinates":[[[71.6083421,51.1617692],[71.6083695,51.1617732],[71.6083474,51.1618331],[71.6082529,51.1618194],[71.608275,51.1617595],[71.6083421,51.1617692]]]},"properties":{"name":" ","functional":" ","purpose":"Здание"}},{"type":"Feature","id":"municipal-buildings-106941","geometry":{"type":"Polygon","coordinates":[[[71.6091934,51.164024],[71.6091624,51.1640477],[71.6090539,51.1639917],[71.6090848,51.163968],[71.6091934,51.164024]]]},"properties":{"name":" ","functional":" ","purpose":"Здание"}},{"type":"Feature","id":"municipal-buildings-106942","geometry":{"type":"Polygon","coordinates":[[[71.6057667,51.1643156],[71.6058626,51.1643666],[71.6058383,51.1643847],[71.6057386,51.1643317],[71.6057667,51.1643156]]]},"properties":{"name":" ","functional":" ","purpose":"Здание"}},{"type":"Feature","id":"municipal-buildings-106943","geometry":{"type":"Polygon","coordinates":[[[71.6086508,51.1607989],[71.60863,51.160849],[71.6085858,51.1608417],[71.6086066,51.1607917],[71.6086508,51.1607989]]]},"properties":{"name":" ","functional":" ","purpose":"Здание"}},{"type":"Feature","id":"municipal-buildings-106944","geometry":{"type":"Polygon","coordinates":[[[71.6087536,51.1609928],[71.6087294,51.1610516],[71.6086353,51.1610363],[71.6086595,51.1609775],[71.6087536,51.1609928]]]},"properties":{"name":" ","functional":" ","purpose":"Здание"}},{"type":"Feature","id":"municipal-buildings-106945","geometry":{"type":"Polygon","coordinates":[[[71.6047412,51.1611555],[71.6047803,51.1611624],[71.6047573,51.1612143],[71.6047139,51.1612067],[71.6047412,51.1611555]]]},"properties":{"name":" ","functional":" ","purpose":"Здание"}},{"type":"Feature","id":"municipal-buildings-106946","geometry":{"type":"Polygon","coordinates":[[[71.6056291,51.1612649],[71.6056104,51.1613176],[71.6055645,51.1613111],[71.6055833,51.1612585],[71.6056291,51.1612649]]]},"properties":{"name":" ","functional":" ","purpose":"Здание"}},{"type":"Feature","id":"municipal-buildings-106947","geometry":{"type":"Polygon","coordinates":[[[71.6074164,51.1614678],[71.6073952,51.1615198],[71.6073504,51.1615126],[71.6073717,51.1614605],[71.6074164,51.1614678]]]},"properties":{"name":" ","functional":" ","purpose":"Здание"}},{"type":"Feature","id":"municipal-buildings-106948","geometry":{"type":"Polygon","coordinates":[[[71.6070051,51.1615562],[71.606985,51.1616081],[71.6069408,51.1616013],[71.606961,51.1615494],[71.6070051,51.1615562]]]},"properties":{"name":" ","functional":" ","purpose":"Здание"}},{"type":"Feature","id":"municipal-buildings-106949","geometry":{"type":"Polygon","coordinates":[[[71.6072725,51.164094],[71.6068468,51.1644068],[71.6067007,51.1643282],[71.6070382,51.1640802],[71.606935,51.1640249],[71.6065995,51.1642722],[71.6064544,51.1641944],[71.6072353,51.1636188],[71.6073804,51.1636966],[71.6070437,51.1639448],[71.607147,51.1640002],[71.6074835,51.1637529],[71.6076297,51.1638315],[71.6072725,51.164094]]]},"properties":{"name":" ","functional":" ","purpose":"Частный дом"}},{"type":"Feature","id":"municipal-buildings-106950","geometry":{"type":"Polygon","coordinates":[[[71.6062432,51.1639522],[71.6063206,51.1639933],[71.606218,51.1640697],[71.6061322,51.1640241],[71.6062432,51.1639522]]]},"properties":{"name":" ","functional":" ","purpose":"Здание"}},{"type":"Feature","id":"municipal-buildings-106951","geometry":{"type":"Polygon","coordinates":[[[71.6090165,51.1641037],[71.6089042,51.1641868],[71.6088363,51.1641506],[71.6089485,51.1640674],[71.6090165,51.1641037]]]},"properties":{"name":" ","functional":" ","purpose":"Здание"}},{"type":"Feature","id":"municipal-buildings-106952","geometry":{"type":"Polygon","coordinates":[[[71.6073929,51.165081],[71.6073622,51.1651046],[71.607293,51.1650688],[71.6073237,51.1650452],[71.6073929,51.165081]]]},"properties":{"name":" ","functional":" ","purpose":"Здание"}},{"type":"Feature","id":"municipal-buildings-106953","geometry":{"type":"Polygon","coordinates":[[[71.6061743,51.1595892],[71.6061149,51.1597396],[71.6059639,51.1597161],[71.6060233,51.1595656],[71.6061743,51.1595892]]]},"properties":{"name":" ","functional":" ","purpose":"Здание"}},{"type":"Feature","id":"municipal-buildings-106954","geometry":{"type":"Polygon","coordinates":[[[71.6084154,51.1646576],[71.6079194,51.1650195],[71.6077016,51.1649015],[71.6080714,51.1646317],[71.6079439,51.1645637],[71.6076126,51.1648064],[71.6074501,51.1647187],[71.608225,51.1641509],[71.60837,51.1642291],[71.6080319,51.1644768],[71.6081776,51.1645542],[71.6084922,51.1643246],[71.6087099,51.1644426],[71.6084154,51.1646576]]]},"properties":{"name":" ","functional":" ","purpose":"Административное здание"}},{"type":"Feature","id":"municipal-buildings-106955","geometry":{"type":"Polygon","coordinates":[[[71.6052962,51.1591159],[71.6052845,51.1591453],[71.6052249,51.159136],[71.6052366,51.1591066],[71.6052962,51.1591159]]]},"properties":{"name":" ","functional":" ","purpose":"Здание"}},{"type":"Feature","id":"municipal-buildings-106956","geometry":{"type":"Polygon","coordinates":[[[71.6061454,51.1642661],[71.6061852,51.1642876],[71.6060904,51.1643569],[71.606024,51.164321],[71.6061187,51.1642517],[71.6061454,51.1642661]]]},"properties":{"name":" ","functional":" ","purpose":"Здание"}}]}
