{"type":"FeatureCollection","source":"Astana municipal open geoportal","source_url":"https://gis.esaulet.kz/server/rest/services/dop_sloi_geoportal_otkr/MapServer/18","metadata":{"sourceId":"astana-municipal-buildings","source":"https://gis.esaulet.kz/server/rest/services/dop_sloi_geoportal_otkr/MapServer/18","retrievedAt":"2026-09-23T11:44:36.492584+00:00","publicationDate":null,"geometryStatus":"sourced","status":"unverified","license":null,"reuseTerms":"Not stated by public source service.","outputCrs":"EPSG:4326","coordinateDimensions":"Source Z discarded; longitude and latitude retained.","queryBbox":[71.220936,50.999912,71.728067,51.301212],"bboxClipped":false,"sourceFeatureCount":125832,"featureCount":16,"completeWithinQuery":false,"renderSampleCap":null,"selection":"Tile subset of complete city coverage; full features assigned once by bbox center.","generalizationToleranceDegrees":9e-06,"invalidGeneralizedFeaturesReplacedByRaw":0,"fields":"OBJECTID,NAME,NAME_OBJECT,NUMBER_STOREYS,FUNCTIONAL,PURPOSE","query":{"where":"1=1","geometry":"71.220936,50.999912,71.728067,51.301212","geometryType":"esriGeometryEnvelope","inSR":4326,"spatialRel":"esriSpatialRelIntersects","outFields":"OBJECTID,NAME,NAME_OBJECT,NUMBER_STOREYS,FUNCTIONAL,PURPOSE","outSR":4326,"f":"geojson","returnGeometry":"true","returnZ":"false","returnM":"false","geometryPrecision":7,"maxAllowableOffset":9e-06,"orderByFields":"OBJECTID","resultRecordCount":2000},"generator":"build_building_tiles.py","sourceMetadataFile":"buildings-source.json","schemaVersion":1,"coverageChecks":{"method":"Feature bboxes intersecting a 400m by400m WGS84-local rectangle centered on user-supplied anchor. No features generated from anchors.","featuresByAnchor":{"astana_1_station":61,"nurly_zhol_station":23,"astana_airport":1,"baiterek":29}},"tileId":"r3-c0","tileBbox":[71.3027814,51.2715895,71.330908,51.2861913],"gridBbox":[71.220936,51.225887,71.34771875,51.301212],"completeCollectionWithinQuery":true},"features":[{"type":"Feature","id":"municipal-buildings-16817","geometry":{"type":"Polygon","coordinates":[[[71.3303037,51.2719356],[71.3301343,51.2718306],[71.3305163,51.2715895],[71.3306786,51.27169],[71.330707,51.271672],[71.330908,51.2717965],[71.3308004,51.2718648],[71.3306055,51.271744],[71.3303037,51.2719356]]]},"properties":{"storeys":"1","functional":"Известный по назначению","purpose":"Сооружение","levels":1.0}},{"type":"Feature","id":"municipal-buildings-46006","geometry":{"type":"Polygon","coordinates":[[[71.306886,51.2769113],[71.3068416,51.2769992],[71.3067884,51.2769887],[71.3068328,51.2769007],[71.306886,51.2769113]]]},"properties":{"name":" ","functional":" ","purpose":"Здание"}},{"type":"Feature","id":"municipal-buildings-46007","geometry":{"type":"Polygon","coordinates":[[[71.302876,51.2769185],[71.3028608,51.2769496],[71.3027814,51.2769343],[71.3027966,51.2769032],[71.302876,51.2769185]]]},"properties":{"name":" ","functional":" ","purpose":"Здание"}},{"type":"Feature","id":"municipal-buildings-46008","geometry":{"type":"Polygon","coordinates":[[[71.3053609,51.2776503],[71.3053477,51.2776729],[71.3052627,51.2776534],[71.3052759,51.2776308],[71.3053609,51.2776503]]]},"properties":{"name":" ","functional":" ","purpose":"Здание"}},{"type":"Feature","id":"municipal-buildings-46009","geometry":{"type":"Polygon","coordinates":[[[71.3064559,51.277768],[71.306443,51.2777949],[71.3063705,51.277774],[71.3063809,51.2777586],[71.3064559,51.277768]]]},"properties":{"name":" ","functional":" ","purpose":"Здание"}},{"type":"Feature","id":"municipal-buildings-46010","geometry":{"type":"Polygon","coordinates":[[[71.3094599,51.2792488],[71.3094069,51.2793552],[71.3092441,51.2793195],[71.3093028,51.2792143],[71.3093745,51.27923],[71.3093902,51.2791999],[71.3094762,51.2792177],[71.3094599,51.2792488]]]},"properties":{"name":" ","functional":" ","purpose":"Здание"}},{"type":"Feature","id":"municipal-buildings-46011","geometry":{"type":"Polygon","coordinates":[[[71.3068508,51.282716],[71.3068185,51.2827866],[71.3067169,51.2827682],[71.3067492,51.2826977],[71.3068508,51.282716]]]},"properties":{"name":" ","functional":" ","purpose":"Здание"}},{"type":"Feature","id":"municipal-buildings-46012","geometry":{"type":"Polygon","coordinates":[[[71.3074482,51.2827411],[71.3072704,51.2827043],[71.307293,51.2826623],[71.3074256,51.2826903],[71.3074361,51.2826685],[71.3074791,51.2826765],[71.3074482,51.2827411]]]},"properties":{"name":" ","functional":" ","purpose":"Здание"}},{"type":"Feature","id":"municipal-buildings-46013","geometry":{"type":"Polygon","coordinates":[[[71.3081193,51.2831921],[71.3080527,51.2833315],[71.307876,51.2832983],[71.3079426,51.2831589],[71.3081193,51.2831921]]]},"properties":{"name":" ","functional":" ","purpose":"Здание"}},{"type":"Feature","id":"municipal-buildings-46014","geometry":{"type":"Polygon","coordinates":[[[71.3081915,51.2832743],[71.3081709,51.2833188],[71.3081185,51.2833092],[71.3081391,51.2832648],[71.3081915,51.2832743]]]},"properties":{"name":" ","functional":" ","purpose":"Здание"}},{"type":"Feature","id":"municipal-buildings-46015","geometry":{"type":"Polygon","coordinates":[[[71.3080968,51.283646],[71.3080701,51.283699],[71.3081021,51.2837045],[71.3080775,51.2837606],[71.3078885,51.2837241],[71.3079433,51.2836156],[71.3080968,51.283646]]]},"properties":{"name":" ","functional":" ","purpose":"Здание"}},{"type":"Feature","id":"municipal-buildings-46016","geometry":{"type":"Polygon","coordinates":[[[71.3062517,51.285035],[71.3062294,51.2850706],[71.3061941,51.2850619],[71.3062165,51.2850263],[71.3062517,51.285035]]]},"properties":{"name":" ","functional":" ","purpose":"Здание"}},{"type":"Feature","id":"municipal-buildings-46017","geometry":{"type":"Polygon","coordinates":[[[71.3062146,51.2847695],[71.3062001,51.2847955],[71.3060829,51.2847699],[71.3060975,51.2847438],[71.3062146,51.2847695]]]},"properties":{"name":" ","functional":" ","purpose":"Здание"}},{"type":"Feature","id":"municipal-buildings-46018","geometry":{"type":"Polygon","coordinates":[[[71.3055263,51.2856044],[71.3055025,51.2856387],[71.3054179,51.2856156],[71.3054417,51.2855813],[71.3055263,51.2856044]]]},"properties":{"name":" ","functional":" ","purpose":"Здание"}},{"type":"Feature","id":"municipal-buildings-46019","geometry":{"type":"Polygon","coordinates":[[[71.3062157,51.2857584],[71.3061826,51.2858124],[71.3061466,51.2858037],[71.3061797,51.2857498],[71.3062157,51.2857584]]]},"properties":{"name":" ","functional":" ","purpose":"Здание"}},{"type":"Feature","id":"municipal-buildings-46020","geometry":{"type":"Polygon","coordinates":[[[71.3063852,51.286141],[71.3063561,51.2861913],[71.3062087,51.2861577],[71.3062378,51.2861074],[71.3063852,51.286141]]]},"properties":{"name":" ","functional":" ","purpose":"Здание"}}]}
