{"type":"FeatureCollection","source":"Astana municipal open geoportal","source_url":"https://gis.esaulet.kz/server/rest/services/dop_sloi_geoportal_otkr/MapServer/18","metadata":{"sourceId":"astana-municipal-buildings","source":"https://gis.esaulet.kz/server/rest/services/dop_sloi_geoportal_otkr/MapServer/18","retrievedAt":"2026-09-23T11:44:36.492584+00:00","publicationDate":null,"geometryStatus":"sourced","status":"unverified","license":null,"reuseTerms":"Not stated by public source service.","outputCrs":"EPSG:4326","coordinateDimensions":"Source Z discarded; longitude and latitude retained.","queryBbox":[71.220936,50.999912,71.728067,51.301212],"bboxClipped":false,"sourceFeatureCount":125832,"featureCount":76,"completeWithinQuery":false,"renderSampleCap":null,"selection":"Tile subset of complete city coverage; full features assigned once by bbox center.","generalizationToleranceDegrees":9e-06,"invalidGeneralizedFeaturesReplacedByRaw":0,"fields":"OBJECTID,NAME,NAME_OBJECT,NUMBER_STOREYS,FUNCTIONAL,PURPOSE","query":{"where":"1=1","geometry":"71.220936,50.999912,71.728067,51.301212","geometryType":"esriGeometryEnvelope","inSR":4326,"spatialRel":"esriSpatialRelIntersects","outFields":"OBJECTID,NAME,NAME_OBJECT,NUMBER_STOREYS,FUNCTIONAL,PURPOSE","outSR":4326,"f":"geojson","returnGeometry":"true","returnZ":"false","returnM":"false","geometryPrecision":7,"maxAllowableOffset":9e-06,"orderByFields":"OBJECTID","resultRecordCount":2000},"generator":"build_building_tiles.py","sourceMetadataFile":"buildings-source.json","schemaVersion":1,"coverageChecks":{"method":"Feature bboxes intersecting a 400m by400m WGS84-local rectangle centered on user-supplied anchor. No features generated from anchors.","featuresByAnchor":{"astana_1_station":61,"nurly_zhol_station":23,"astana_airport":1,"baiterek":29}},"tileId":"r3-c2","tileBbox":[71.481292,51.2373814,71.5966118,51.2518945],"gridBbox":[71.4745015,51.225887,71.60128424999999,51.301212],"completeCollectionWithinQuery":true},"features":[{"type":"Feature","id":"municipal-buildings-46037","geometry":{"type":"Polygon","coordinates":[[[71.5721625,51.2390397],[71.5721063,51.2390386],[71.5720736,51.2390902],[71.5719672,51.2390464],[71.5721148,51.2389056],[71.5722309,51.2389478],[71.5721625,51.2390397]]]},"properties":{"name":" ","functional":" ","purpose":"Здание"}},{"type":"Feature","id":"municipal-buildings-46038","geometry":{"type":"Polygon","coordinates":[[[71.5723785,51.2391064],[71.5722807,51.2391066],[71.5721848,51.2390721],[71.5721625,51.2390397],[71.5722309,51.2389478],[71.5722137,51.2389415],[71.5723953,51.2387686],[71.5726262,51.2388577],[71.5723785,51.2391064]]]},"properties":{"name":" ","functional":" ","purpose":"Здание"}},{"type":"Feature","id":"municipal-buildings-46039","geometry":{"type":"Polygon","coordinates":[[[71.5726479,51.2392194],[71.5725798,51.2392904],[71.5720736,51.2390902],[71.5721063,51.2390386],[71.5721625,51.2390397],[71.5721848,51.2390721],[71.5722807,51.2391066],[71.5723785,51.2391064],[71.5726479,51.2392194]]]},"properties":{"name":" ","functional":" ","purpose":"Здание"}},{"type":"Feature","id":"municipal-buildings-46040","geometry":{"type":"Polygon","coordinates":[[[71.5725498,51.239174],[71.572591,51.2391369],[71.5726855,51.2391739],[71.5726479,51.2392194],[71.5725498,51.239174]]]},"properties":{"name":" ","functional":" ","purpose":"Здание"}},{"type":"Feature","id":"municipal-buildings-46041","geometry":{"type":"Polygon","coordinates":[[[71.5725914,51.2387464],[71.5725581,51.2387814],[71.5724314,51.2387324],[71.5724681,51.2386977],[71.5725914,51.2387464]]]},"properties":{"name":" ","functional":" ","purpose":"Здание"}},{"type":"Feature","id":"municipal-buildings-46042","geometry":{"type":"Polygon","coordinates":[[[71.5724681,51.2386977],[71.5725558,51.238609],[71.5730456,51.2387957],[71.5729604,51.2388893],[71.5724681,51.2386977]]]},"properties":{"name":" ","functional":" ","purpose":"Здание"}},{"type":"Feature","id":"municipal-buildings-46043","geometry":{"type":"Polygon","coordinates":[[[71.5726083,51.2385301],[71.5725723,51.2385639],[71.5724947,51.2385328],[71.5726531,51.238368],[71.5727423,51.2384041],[71.5726083,51.2385301]]]},"properties":{"name":" ","functional":" ","purpose":"Административное здание"}},{"type":"Feature","id":"municipal-buildings-46044","geometry":{"type":"Polygon","coordinates":[[[71.5727423,51.2384041],[71.5732752,51.238613],[71.5731517,51.2387435],[71.5726083,51.2385301],[71.5727423,51.2384041]]]},"properties":{"name":" ","functional":" ","purpose":"Здание"}},{"type":"Feature","id":"municipal-buildings-46045","geometry":{"type":"Polygon","coordinates":[[[71.5729933,51.2380888],[71.5728399,51.2382507],[71.57275,51.2382191],[71.5727693,51.2381977],[71.5726942,51.2381665],[71.572821,51.2380445],[71.5728909,51.2380729],[71.5729078,51.2380502],[71.5729933,51.2380888]]]},"properties":{"name":" ","functional":" ","purpose":"Частный дом"}},{"type":"Feature","id":"municipal-buildings-46046","geometry":{"type":"Polygon","coordinates":[[[71.5726942,51.2381665],[71.5727693,51.2381977],[71.57275,51.2382191],[71.5726797,51.2381925],[71.5726942,51.2381665]]]},"properties":{"name":" ","functional":" ","purpose":"Здание"}},{"type":"Feature","id":"municipal-buildings-46047","geometry":{"type":"Polygon","coordinates":[[[71.572821,51.2380445],[71.5728579,51.2380115],[71.5729947,51.2380681],[71.5729933,51.2380888],[71.5729078,51.2380502],[71.5728909,51.2380729],[71.572821,51.2380445]]]},"properties":{"name":" ","functional":" ","purpose":"Здание"}},{"type":"Feature","id":"municipal-buildings-46048","geometry":{"type":"Polygon","coordinates":[[[71.573052,51.2379504],[71.5729197,51.237954],[71.5729136,51.2378645],[71.5730414,51.2378617],[71.573052,51.2379504]]]},"properties":{"name":" ","functional":" ","purpose":"Здание"}},{"type":"Feature","id":"municipal-buildings-46049","geometry":{"type":"Polygon","coordinates":[[[71.5735351,51.2382007],[71.5734489,51.2382857],[71.5732774,51.2382185],[71.57336,51.238131],[71.5735351,51.2382007]]]},"properties":{"name":" ","functional":" ","purpose":"Здание"}},{"type":"Feature","id":"municipal-buildings-46050","geometry":{"type":"Polygon","coordinates":[[[71.5731819,51.2382901],[71.5731691,51.2382858],[71.5732164,51.2382373],[71.5734295,51.2383262],[71.5733193,51.2384396],[71.5732472,51.2384123],[71.5733256,51.2383384],[71.5731819,51.2382901]]]},"properties":{"name":" ","functional":" ","purpose":"Здание"}},{"type":"Feature","id":"municipal-buildings-46051","geometry":{"type":"Polygon","coordinates":[[[71.5731819,51.2382901],[71.5733256,51.2383384],[71.5732577,51.238396],[71.5731308,51.2383438],[71.5731819,51.2382901]]]},"properties":{"name":" ","functional":" ","purpose":"Здание"}},{"type":"Feature","id":"municipal-buildings-46052","geometry":{"type":"Polygon","coordinates":[[[71.5732472,51.2384123],[71.5731267,51.2383724],[71.5731454,51.2383498],[71.5732577,51.238396],[71.5732472,51.2384123]]]},"properties":{"name":" ","functional":" ","purpose":"Здание"}},{"type":"Feature","id":"municipal-buildings-46053","geometry":{"type":"Polygon","coordinates":[[[71.5731421,51.2383538],[71.5731297,51.2383688],[71.5730486,51.2383377],[71.5730644,51.2383245],[71.5731421,51.2383538]]]},"properties":{"name":" ","functional":" ","purpose":"Здание"}},{"type":"Feature","id":"municipal-buildings-46054","geometry":{"type":"Polygon","coordinates":[[[71.5730644,51.2383245],[71.5730486,51.2383377],[71.572967,51.2383028],[71.5729891,51.2382798],[71.5730727,51.2383108],[71.5730644,51.2383245]]]},"properties":{"name":" ","functional":" ","purpose":"Здание"}},{"type":"Feature","id":"municipal-buildings-46055","geometry":{"type":"Polygon","coordinates":[[[71.573428,51.2373995],[71.573408,51.2374618],[71.5732767,51.2374456],[71.5732989,51.2373814],[71.573428,51.2373995]]]},"properties":{"name":" ","functional":" ","purpose":"Здание"}},{"type":"Feature","id":"municipal-buildings-46056","geometry":{"type":"Polygon","coordinates":[[[71.573428,51.2373995],[71.573431,51.2373851],[71.5734722,51.2373894],[71.5734507,51.237467],[71.573408,51.2374618],[71.573428,51.2373995]]]},"properties":{"name":" ","functional":" ","purpose":"Здание"}},{"type":"Feature","id":"municipal-buildings-46057","geometry":{"type":"Polygon","coordinates":[[[71.5705558,51.2408696],[71.5703805,51.2410098],[71.5700703,51.2408524],[71.5702456,51.2407122],[71.5705558,51.2408696]]]},"properties":{"name":" ","functional":" ","purpose":"Магазин"}},{"type":"Feature","id":"municipal-buildings-46058","geometry":{"type":"Polygon","coordinates":[[[71.5807493,51.249956],[71.5806135,51.2500369],[71.5803397,51.2498526],[71.5804794,51.2497751],[71.5807493,51.249956]]]},"properties":{"name":" ","functional":" ","purpose":"Здание"}},{"type":"Feature","id":"municipal-buildings-46059","geometry":{"type":"Polygon","coordinates":[[[71.5804953,51.2497604],[71.5804297,51.2497942],[71.580339,51.2497324],[71.5804021,51.2496949],[71.5804953,51.2497604]]]},"properties":{"name":" ","functional":" ","purpose":"Здание"}},{"type":"Feature","id":"municipal-buildings-46060","geometry":{"type":"Polygon","coordinates":[[[71.5805935,51.2497125],[71.5805758,51.249722],[71.5804801,51.2496517],[71.5805685,51.249605],[71.5806356,51.2496531],[71.5806788,51.2496378],[71.5806953,51.2496484],[71.5805823,51.2497033],[71.5805935,51.2497125]]]},"properties":{"name":" ","functional":" ","purpose":"Административное здание"}},{"type":"Feature","id":"municipal-buildings-46061","geometry":{"type":"Polygon","coordinates":[[[71.5806953,51.2496484],[71.5809264,51.2498116],[71.58081,51.2498647],[71.5805823,51.2497033],[71.5806953,51.2496484]]]},"properties":{"name":" ","functional":" ","purpose":"Административное здание"}},{"type":"Feature","id":"municipal-buildings-46062","geometry":{"type":"Polygon","coordinates":[[[71.5814404,51.248249],[71.5813174,51.2483283],[71.5811755,51.2482448],[71.5811308,51.2482729],[71.5810838,51.2482464],[71.5812487,51.2481295],[71.5814404,51.248249]]]},"properties":{"name":" ","functional":" ","purpose":"Кафе, бар"}},{"type":"Feature","id":"municipal-buildings-46063","geometry":{"type":"Polygon","coordinates":[[[71.5814589,51.2485809],[71.5814336,51.2485945],[71.5813339,51.2485203],[71.5814775,51.2484451],[71.5815805,51.2485156],[71.5814589,51.2485809]]]},"properties":{"name":" ","functional":" ","purpose":"Кафе, бар"}},{"type":"Feature","id":"municipal-buildings-46064","geometry":{"type":"Polygon","coordinates":[[[71.5815805,51.2485156],[71.5816589,51.2485753],[71.5816236,51.2485953],[71.5816645,51.2486248],[71.581581,51.248668],[71.5814589,51.2485809],[71.5815805,51.2485156]]]},"properties":{"name":" ","functional":" ","purpose":"Кафе, бар"}},{"type":"Feature","id":"municipal-buildings-46065","geometry":{"type":"Polygon","coordinates":[[[71.583845,51.2493042],[71.5838641,51.2493206],[71.5838248,51.24934],[71.5837713,51.249298],[71.5839535,51.2492105],[71.584006,51.2492543],[71.5839624,51.2492781],[71.5839445,51.2492631],[71.583845,51.2493042]]]},"properties":{"name":" ","functional":" ","purpose":"База отдыха"}},{"type":"Feature","id":"municipal-buildings-46066","geometry":{"type":"Polygon","coordinates":[[[71.5839266,51.2494317],[71.5838762,51.2493846],[71.5839173,51.2493669],[71.5839371,51.249385],[71.584037,51.2493411],[71.5840154,51.2493212],[71.5840515,51.2493047],[71.5841035,51.2493503],[71.5839266,51.2494317]]]},"properties":{"name":" ","functional":" ","purpose":"База отдыха"}},{"type":"Feature","id":"municipal-buildings-46067","geometry":{"type":"Polygon","coordinates":[[[71.5844601,51.2493196],[71.5843716,51.2493633],[71.5842719,51.2492791],[71.5842106,51.2493029],[71.5840644,51.2491705],[71.5842116,51.2491066],[71.5844601,51.2493196]]]},"properties":{"name":" ","functional":" ","purpose":"Здание"}},{"type":"Feature","id":"municipal-buildings-46068","geometry":{"type":"Polygon","coordinates":[[[71.5864097,51.2483352],[71.5863732,51.2484175],[71.5861679,51.2483874],[71.586201,51.2482999],[71.5864097,51.2483352]]]},"properties":{"name":" ","functional":" ","purpose":"База отдыха"}},{"type":"Feature","id":"municipal-buildings-46069","geometry":{"type":"Polygon","coordinates":[[[71.5863242,51.2483207],[71.5863369,51.2482976],[71.5864216,51.2483072],[71.5864097,51.2483352],[71.5863242,51.2483207]]]},"properties":{"name":" ","functional":" ","purpose":"Здание"}},{"type":"Feature","id":"municipal-buildings-46070","geometry":{"type":"Polygon","coordinates":[[[71.586985,51.2483077],[71.5870248,51.2482045],[71.5871456,51.2482223],[71.5871832,51.2482586],[71.5871539,51.2483306],[71.586985,51.2483077]]]},"properties":{"name":" ","functional":" ","purpose":"База отдыха"}},{"type":"Feature","id":"municipal-buildings-46071","geometry":{"type":"Polygon","coordinates":[[[71.5871073,51.2484544],[71.5871005,51.2484727],[71.5869199,51.2484438],[71.586973,51.2483089],[71.5871539,51.2483306],[71.5871073,51.2484544]]]},"properties":{"name":" ","functional":" ","purpose":"База отдыха"}},{"type":"Feature","id":"municipal-buildings-46072","geometry":{"type":"Polygon","coordinates":[[[71.5871073,51.2484544],[71.5873401,51.2484992],[71.5872756,51.2486201],[71.5870234,51.2485715],[71.5870709,51.2484679],[71.5871005,51.2484727],[71.5871073,51.2484544]]]},"properties":{"name":" ","functional":" ","purpose":"База отдыха"}},{"type":"Feature","id":"municipal-buildings-46073","geometry":{"type":"Polygon","coordinates":[[[71.5870218,51.2485567],[71.5869643,51.2486803],[71.5867935,51.2486517],[71.5868539,51.2485248],[71.5870218,51.2485567]]]},"properties":{"name":" ","functional":" ","purpose":"Здание"}},{"type":"Feature","id":"municipal-buildings-46074","geometry":{"type":"Polygon","coordinates":[[[71.5871373,51.2486661],[71.5872458,51.2486841],[71.5872152,51.2487562],[71.5870423,51.2487261],[71.5870481,51.2486981],[71.587117,51.2487087],[71.5871373,51.2486661]]]},"properties":{"name":" ","functional":" ","purpose":"Здание"}},{"type":"Feature","id":"municipal-buildings-46075","geometry":{"type":"Polygon","coordinates":[[[71.5871373,51.2486661],[71.587117,51.2487087],[71.5870481,51.2486981],[71.5870649,51.2486562],[71.5871373,51.2486661]]]},"properties":{"name":" ","functional":" ","purpose":"Здание"}},{"type":"Feature","id":"municipal-buildings-46076","geometry":{"type":"Polygon","coordinates":[[[71.5879304,51.2487233],[71.587939,51.2487416],[71.5879047,51.2488204],[71.5877285,51.2487877],[71.587738,51.2487147],[71.5877632,51.2486908],[71.5879304,51.2487233]]]},"properties":{"name":" ","functional":" ","purpose":"Здание"}},{"type":"Feature","id":"municipal-buildings-46077","geometry":{"type":"Polygon","coordinates":[[[71.5880573,51.2491365],[71.5878696,51.2491421],[71.5878589,51.2490462],[71.5880519,51.2490396],[71.5880573,51.2491365]]]},"properties":{"name":" ","functional":" ","purpose":"Здание"}},{"type":"Feature","id":"municipal-buildings-46078","geometry":{"type":"Polygon","coordinates":[[[71.5882212,51.248454],[71.5881669,51.2485409],[71.5879852,51.2484916],[71.5880423,51.2484009],[71.5882212,51.248454]]]},"properties":{"name":" ","functional":" ","purpose":"Здание"}},{"type":"Feature","id":"municipal-buildings-46079","geometry":{"type":"Polygon","coordinates":[[[71.5882153,51.2480279],[71.5881199,51.2481008],[71.5879756,51.2480129],[71.5880788,51.2479434],[71.5882153,51.2480279]]]},"properties":{"name":" ","functional":" ","purpose":"Здание"}},{"type":"Feature","id":"municipal-buildings-46080","geometry":{"type":"Polygon","coordinates":[[[71.5888332,51.2482842],[71.5886852,51.2483031],[71.5886441,51.2481788],[71.5887997,51.2481643],[71.5888332,51.2482842]]]},"properties":{"name":" ","functional":" ","purpose":"Здание"}},{"type":"Feature","id":"municipal-buildings-46081","geometry":{"type":"Polygon","coordinates":[[[71.5890575,51.2479243],[71.5889061,51.2479282],[71.5888977,51.2477963],[71.5890567,51.247791],[71.5890575,51.2479243]]]},"properties":{"name":" ","functional":" ","purpose":"Здание"}},{"type":"Feature","id":"municipal-buildings-46082","geometry":{"type":"Polygon","coordinates":[[[71.5894308,51.2482486],[71.589377,51.2483711],[71.5892307,51.2483482],[71.5892711,51.248223],[71.5894308,51.2482486]]]},"properties":{"name":" ","functional":" ","purpose":"Здание"}},{"type":"Feature","id":"municipal-buildings-46083","geometry":{"type":"Polygon","coordinates":[[[71.5898532,51.2479571],[71.5898017,51.2480806],[71.5896477,51.2480521],[71.5897062,51.2479323],[71.5898532,51.2479571]]]},"properties":{"name":" ","functional":" ","purpose":"Здание"}},{"type":"Feature","id":"municipal-buildings-46084","geometry":{"type":"Polygon","coordinates":[[[71.5899843,51.2483915],[71.589942,51.248515],[71.5897938,51.2484938],[71.589841,51.248372],[71.5899843,51.2483915]]]},"properties":{"name":" ","functional":" ","purpose":"Здание"}},{"type":"Feature","id":"municipal-buildings-46085","geometry":{"type":"Polygon","coordinates":[[[71.5905117,51.2483638],[71.590404,51.2484611],[71.5902886,51.2484126],[71.5902905,51.2483947],[71.5903887,51.2483001],[71.5905117,51.2483638]]]},"properties":{"name":" ","functional":" ","purpose":"Здание"}},{"type":"Feature","id":"municipal-buildings-46086","geometry":{"type":"Polygon","coordinates":[[[71.5904061,51.2479571],[71.5903742,51.2480245],[71.5904862,51.2480467],[71.5904264,51.2481704],[71.5902203,51.2481331],[71.5903006,51.2479418],[71.5904061,51.2479571]]]},"properties":{"name":" ","functional":" ","purpose":"База отдыха"}},{"type":"Feature","id":"municipal-buildings-46087","geometry":{"type":"Polygon","coordinates":[[[71.5904101,51.2487509],[71.5902766,51.2488366],[71.5901713,51.2487687],[71.5903077,51.2486824],[71.5904101,51.2487509]]]},"properties":{"name":" ","functional":" ","purpose":"Здание"}},{"type":"Feature","id":"municipal-buildings-46088","geometry":{"type":"Polygon","coordinates":[[[71.5915145,51.2484692],[71.5914851,51.2485365],[71.5915923,51.2485549],[71.591536,51.2486829],[71.5913264,51.2486459],[71.5913453,51.2486121],[71.5913213,51.2485895],[71.5913304,51.2485667],[71.5913723,51.248552],[71.591367,51.2485087],[71.5913938,51.2484974],[71.5914188,51.2484528],[71.5915145,51.2484692]]]},"properties":{"name":" ","functional":" ","purpose":"База отдыха"}},{"type":"Feature","id":"municipal-buildings-46089","geometry":{"type":"Polygon","coordinates":[[[71.5921138,51.24834],[71.5920857,51.2483965],[71.5921921,51.2484186],[71.5921355,51.2485406],[71.5919333,51.2485017],[71.5920112,51.2483203],[71.5921138,51.24834]]]},"properties":{"name":" ","functional":" ","purpose":"База отдыха"}},{"type":"Feature","id":"municipal-buildings-46090","geometry":{"type":"Polygon","coordinates":[[[71.5932111,51.249007],[71.5932245,51.2491108],[71.5930297,51.2491187],[71.5930165,51.2490196],[71.5930682,51.2489953],[71.5932111,51.249007]]]},"properties":{"name":" ","functional":" ","purpose":"Здание"}},{"type":"Feature","id":"municipal-buildings-46091","geometry":{"type":"Polygon","coordinates":[[[71.5936089,51.2479236],[71.5934804,51.248025],[71.5933517,51.2479622],[71.5934702,51.2478572],[71.5936089,51.2479236]]]},"properties":{"name":" ","functional":" ","purpose":"Здание"}},{"type":"Feature","id":"municipal-buildings-46092","geometry":{"type":"Polygon","coordinates":[[[71.5888775,51.2467066],[71.5887917,51.2468798],[71.5881128,51.246754],[71.5881924,51.246579],[71.5888775,51.2467066]]]},"properties":{"name":" ","functional":" ","purpose":"Здание"}},{"type":"Feature","id":"municipal-buildings-46093","geometry":{"type":"Polygon","coordinates":[[[71.5893264,51.2471139],[71.5892699,51.2472419],[71.5891927,51.2472247],[71.5892118,51.24718],[71.5891879,51.2471687],[71.5892157,51.2471271],[71.5892378,51.2471266],[71.5892522,51.2470988],[71.5893264,51.2471139]]]},"properties":{"name":" ","functional":" ","purpose":"База отдыха"}},{"type":"Feature","id":"municipal-buildings-46094","geometry":{"type":"Polygon","coordinates":[[[71.5895469,51.2472925],[71.5894652,51.2472768],[71.5894898,51.247227],[71.5894581,51.2472206],[71.5894802,51.247178],[71.5895077,51.2471817],[71.5895286,51.2471487],[71.5896098,51.2471669],[71.5895469,51.2472925]]]},"properties":{"name":" ","functional":" ","purpose":"Здание"}},{"type":"Feature","id":"municipal-buildings-46095","geometry":{"type":"Polygon","coordinates":[[[71.5898216,51.2473432],[71.5897469,51.2473299],[71.5897607,51.2472817],[71.5896251,51.2472569],[71.5896508,51.2471981],[71.5897859,51.2472248],[71.5897995,51.2472027],[71.5898771,51.2472177],[71.5898216,51.2473432]]]},"properties":{"name":" ","functional":" ","purpose":"Здание"}},{"type":"Feature","id":"municipal-buildings-46096","geometry":{"type":"Polygon","coordinates":[[[71.5903239,51.2471862],[71.5901187,51.2471472],[71.5901368,51.2471065],[71.5901156,51.2470834],[71.5901517,51.2470665],[71.5902019,51.246959],[71.5903007,51.2469768],[71.5902696,51.24704],[71.5903812,51.2470628],[71.5903239,51.2471862]]]},"properties":{"name":" ","functional":" ","purpose":"База отдыха"}},{"type":"Feature","id":"municipal-buildings-46097","geometry":{"type":"Polygon","coordinates":[[[71.590958,51.2470979],[71.5909308,51.2471606],[71.5910368,51.2471839],[71.5909732,51.2473081],[71.5907717,51.2472702],[71.5908585,51.2470786],[71.590958,51.2470979]]]},"properties":{"name":" ","functional":" ","purpose":"База отдыха"}},{"type":"Feature","id":"municipal-buildings-46098","geometry":{"type":"Polygon","coordinates":[[[71.5912447,51.247381],[71.5912097,51.247449],[71.5913171,51.247471],[71.5912558,51.2475949],[71.5910507,51.2475548],[71.5911535,51.2473598],[71.5912447,51.247381]]]},"properties":{"name":" ","functional":" ","purpose":"База отдыха"}},{"type":"Feature","id":"municipal-buildings-46099","geometry":{"type":"Polygon","coordinates":[[[71.5916178,51.2472216],[71.5915894,51.24729],[71.5916978,51.2473132],[71.5916392,51.2474341],[71.591437,51.2473957],[71.5915269,51.2472063],[71.5916178,51.2472216]]]},"properties":{"name":" ","functional":" ","purpose":"База отдыха"}},{"type":"Feature","id":"municipal-buildings-46100","geometry":{"type":"Polygon","coordinates":[[[71.5944269,51.2478626],[71.5943927,51.2479342],[71.5941584,51.2478951],[71.5941914,51.2478151],[71.5944269,51.2478626]]]},"properties":{"name":" ","functional":" ","purpose":"Здание"}},{"type":"Feature","id":"municipal-buildings-46101","geometry":{"type":"Polygon","coordinates":[[[71.5961828,51.248003],[71.5961266,51.2481163],[71.5959579,51.2480894],[71.5960071,51.2479726],[71.5961828,51.248003]]]},"properties":{"name":" ","functional":" ","purpose":"База отдыха"}},{"type":"Feature","id":"municipal-buildings-46102","geometry":{"type":"Polygon","coordinates":[[[71.5964405,51.2480544],[71.5966118,51.2480863],[71.596559,51.2481988],[71.5963924,51.2481697],[71.5964405,51.2480544]]]},"properties":{"name":" ","functional":" ","purpose":"База отдыха"}},{"type":"Feature","id":"municipal-buildings-46103","geometry":{"type":"Polygon","coordinates":[[[71.5963924,51.2481697],[71.5963775,51.2481886],[71.5962551,51.248193],[71.5961785,51.2481741],[71.5961166,51.2481401],[71.5961828,51.248003],[71.5964405,51.2480544],[71.5963924,51.2481697]]]},"properties":{"name":" ","functional":" ","purpose":"База отдыха"}},{"type":"Feature","id":"municipal-buildings-46104","geometry":{"type":"Polygon","coordinates":[[[71.5935082,51.2511232],[71.593359,51.2511411],[71.5933211,51.2510231],[71.593475,51.2510086],[71.5935082,51.2511232]]]},"properties":{"name":" ","functional":" ","purpose":"Здание"}},{"type":"Feature","id":"municipal-buildings-46105","geometry":{"type":"Polygon","coordinates":[[[71.5940515,51.2513589],[71.5939064,51.251394],[71.5938389,51.2512736],[71.5939873,51.2512418],[71.5940515,51.2513589]]]},"properties":{"name":" ","functional":" ","purpose":"Здание"}},{"type":"Feature","id":"municipal-buildings-46106","geometry":{"type":"Polygon","coordinates":[[[71.5933444,51.2518902],[71.593193,51.2518945],[71.5931786,51.2517744],[71.5933393,51.2517723],[71.5933444,51.2518902]]]},"properties":{"name":" ","functional":" ","purpose":"Здание"}},{"type":"Feature","id":"municipal-buildings-46107","geometry":{"type":"Polygon","coordinates":[[[71.5939926,51.2518098],[71.5938423,51.251837],[71.5937936,51.2517203],[71.5939448,51.2516991],[71.5939926,51.2518098]]]},"properties":{"name":" ","functional":" ","purpose":"Здание"}},{"type":"Feature","id":"municipal-buildings-46108","geometry":{"type":"Polygon","coordinates":[[[71.5945923,51.2516518],[71.5944555,51.2516964],[71.5943781,51.2515845],[71.5945151,51.251544],[71.5945923,51.2516518]]]},"properties":{"name":" ","functional":" ","purpose":"Здание"}},{"type":"Feature","id":"municipal-buildings-46109","geometry":{"type":"Polygon","coordinates":[[[71.4814363,51.2409676],[71.4814067,51.2412106],[71.481292,51.2412058],[71.4813244,51.2409621],[71.4814363,51.2409676]]]},"properties":{"name":" ","functional":" ","purpose":"Здание"}},{"type":"Feature","id":"municipal-buildings-46110","geometry":{"type":"Polygon","coordinates":[[[71.4813244,51.2409621],[71.4813473,51.2407345],[71.4814765,51.2407401],[71.4814481,51.2409682],[71.4813244,51.2409621]]]},"properties":{"name":" ","functional":" ","purpose":"Здание"}},{"type":"Feature","id":"municipal-buildings-46111","geometry":{"type":"Polygon","coordinates":[[[71.5522034,51.2392679],[71.5522248,51.239273],[71.5521994,51.239315],[71.5519963,51.2392666],[71.5520821,51.2391214],[71.5522979,51.2391735],[71.5522721,51.2392164],[71.5522175,51.2392035],[71.5521819,51.2392628],[71.5522034,51.2392679]]]},"properties":{"name":" ","functional":" ","purpose":"Кафе, бар"}},{"type":"Feature","id":"municipal-buildings-46112","geometry":{"type":"MultiPolygon","coordinates":[[[[71.5520216,51.2392247],[71.5519429,51.2392132],[71.5520146,51.2390957],[71.5522709,51.2391573],[71.5522657,51.2391659],[71.5520821,51.2391214],[71.5520216,51.2392247]]],[[[71.5522396,51.2392087],[71.5522034,51.2392679],[71.5521819,51.2392628],[71.5522175,51.2392035],[71.5522396,51.2392087]]]]},"properties":{"name":" ","functional":" ","purpose":"Кафе, бар"}}]}
