{"type":"FeatureCollection","metadata":{"sourceId":"astana-municipal-districts","source":"https://gis.esaulet.kz/server/rest/services/Административные_районы/MapServer/4","retrievedAt":"2026-09-23T11:00:03.296734+00:00","publicationDate":null,"geometryStatus":"source-geometry","boundaryCurrency":"outdated-four-districts","license":null,"reuseTerms":"Not stated by service; source attribution retained.","sourceCrs":{"wkt":"PROJCS[\"Astana\",GEOGCS[\"GCS_WGS_1984\",DATUM[\"D_WGS_1984\",SPHEROID[\"WGS_1984\",6378137.0,298.257223563]],PRIMEM[\"Greenwich\",0.0],UNIT[\"Degree\",0.0174532925199433]],PROJECTION[\"Local\"],PARAMETER[\"False_Easting\",0.0],PARAMETER[\"False_Northing\",0.0],PARAMETER[\"Scale_Factor\",1.00006382434499],PARAMETER[\"Azimuth\",-0.451110818],PARAMETER[\"Longitude_Of_Center\",71.42142501666659],PARAMETER[\"Latitude_Of_Center\",51.16971010555549],UNIT[\"Meter\",1.0]]","xyTolerance":0.001,"zTolerance":0.001,"mTolerance":0.001,"falseX":-6378500,"falseY":-6349400,"xyUnits":10000,"falseZ":-100000,"zUnits":10000,"falseM":-100000,"mUnits":10000},"outputCrs":"EPSG:4326","queryBbox":null,"bboxClipped":false,"featureCount":8,"layerName":"Административные районы","note":"Only Алматы, Сарыарка, Байконур, Есиль are represented. No Нура/Сарайшық; not current six-district boundaries.","coordinateDimensions":"Source Z discarded; [longitude, latitude] retained unchanged."},"features":[{"type":"Feature","id":"municipal-districts-1","geometry":{"type":"Polygon","coordinates":[[[71.7821081,51.150524],[71.7848172,51.1654991],[71.7405185,51.1659789],[71.7470057,51.1621557],[71.7608677,51.1458091],[71.7658865,51.1447934],[71.7821081,51.150524]]]},"properties":{"OBJECTID":1,"NAME":"район \"Алматы\"","NAME_OBJECT":"Район","REGION":null,"KATO":null,"kind":"district","name":"район \"Алматы\"","source":"Astana municipal open geoportal","source_url":"https://gis.esaulet.kz/server/rest/services/Административные_районы/MapServer/4","sourceId":"astana-municipal-districts"}},{"type":"Feature","id":"municipal-districts-2","geometry":{"type":"Polygon","coordinates":[[[71.6118365,51.1911675],[71.6083049,51.1922655],[71.5878166,51.1985558],[71.5832592,51.2026706],[71.5829419,51.2032908],[71.5800394,51.2027623],[71.5759568,51.2002659],[71.5718312,51.198729],[71.5684517,51.1965531],[71.5658612,51.1961635],[71.5629035,51.195068],[71.5609618,51.1932456],[71.5585775,51.1922405],[71.5584769,51.1921093],[71.5583846,51.1919757],[71.5583007,51.1918399],[71.5582255,51.1917021],[71.5581589,51.1915626],[71.5581011,51.1914216],[71.5580523,51.1912792],[71.5580124,51.1911357],[71.5579815,51.1909914],[71.5571668,51.1906618],[71.5544337,51.1899856],[71.553221,51.1898873],[71.5523166,51.1896887],[71.5522443,51.1896728],[71.5520886,51.189644],[71.5519303,51.1896218],[71.5517699,51.1896063],[71.5516083,51.1895976],[71.5514461,51.1895958],[71.551284,51.1896008],[71.5511228,51.1896126],[71.5509633,51.1896311],[71.5508061,51.1896564],[71.550652,51.1896882],[71.5505016,51.1897265],[71.5503556,51.189771],[71.5494436,51.1900835],[71.5492404,51.1901087],[71.5490354,51.1901269],[71.548829,51.1901382],[71.548622,51.1901425],[71.548415,51.1901397],[71.5482084,51.1901299],[71.5480031,51.1901131],[71.5477994,51.1900894],[71.5475981,51.1900588],[71.5472845,51.1900002],[71.5469739,51.1899358],[71.5466664,51.1898657],[71.5463623,51.1897898],[71.5460619,51.1897084],[71.5457656,51.1896213],[71.5454734,51.1895288],[71.5451857,51.189431],[71.5449028,51.1893278],[71.5446248,51.1892194],[71.5443521,51.1891058],[71.5440849,51.1889873],[71.5419219,51.188912],[71.5417387,51.1888712],[71.5415596,51.1888238],[71.5413852,51.1887699],[71.5412161,51.1887097],[71.5410529,51.1886433],[71.5408962,51.1885711],[71.5407465,51.1884932],[71.5406042,51.18841],[71.54047,51.1883217],[71.5403442,51.1882286],[71.5402273,51.188131],[71.5401197,51.1880293],[71.5400217,51.1879238],[71.5399337,51.1878149],[71.539856,51.187703],[71.5397888,51.1875883],[71.5397325,51.1874714],[71.5396871,51.1873527],[71.5382306,51.1858205],[71.5361561,51.1842879],[71.5346026,51.1836962],[71.5331132,51.1828481],[71.533353,51.1813853],[71.5322493,51.1805379],[71.5287108,51.1791709],[71.5266396,51.1791713],[71.5249466,51.1788049],[71.5239294,51.1781101],[71.5230478,51.1787144],[71.5227968,51.1788736],[71.5225392,51.1790286],[71.5222752,51.1791791],[71.5220048,51.1793252],[71.5217283,51.1794667],[71.5214459,51.1796035],[71.5211577,51.1797356],[71.520132,51.1801471],[71.5160379,51.1817004],[71.5157745,51.1818076],[71.5155056,51.1819093],[71.5152314,51.1820053],[71.5149524,51.1820956],[71.5146688,51.18218],[71.5143809,51.1822585],[71.514089,51.1823309],[71.5137935,51.1823973],[71.5134946,51.1824574],[71.5131927,51.1825114],[71.5128882,51.182559],[71.5125813,51.1826003],[71.5122724,51.1826351],[71.5119619,51.1826636],[71.51165,51.1826855],[71.5113372,51.182701],[71.5108409,51.1827063],[71.5103446,51.1827068],[71.5098483,51.1827027],[71.5093521,51.1826938],[71.5090638,51.1827041],[71.5087762,51.1827206],[71.5084897,51.1827433],[71.5082046,51.1827721],[71.5079212,51.182807],[71.5076398,51.1828481],[71.5073609,51.1828951],[71.5070847,51.1829482],[71.5068116,51.1830071],[71.5065419,51.1830719],[71.5062758,51.1831425],[71.5060137,51.1832188],[71.505756,51.1833007],[71.5055029,51.1833881],[71.5048752,51.1836231],[71.4976033,51.1759359],[71.4972541,51.1758988],[71.4951365,51.1756409],[71.4920637,51.1741999],[71.4912469,51.1725375],[71.4897139,51.1724454],[71.4887762,51.1721168],[71.4870877,51.1703838],[71.4857846,51.1696164],[71.4845198,51.1681714],[71.481607,51.1684439],[71.4790126,51.1659326],[71.4769405,51.1654358],[71.4758576,51.1640505],[71.4740218,51.1638169],[71.4724886,51.1623081],[71.4709955,51.1617938],[71.469369,51.1601394],[71.4632071,51.1571472],[71.4594953,51.1555084],[71.4551614,51.1546963],[71.4537113,51.1539235],[71.4532566,51.1534001],[71.4523401,51.1530976],[71.4511692,51.1530289],[71.4477631,51.1520199],[71.4432157,51.1494663],[71.4413047,51.1487558],[71.4391615,51.1477327],[71.4400797,51.1470436],[71.4406186,51.1462096],[71.4412141,51.1453926],[71.4414492,51.1445055],[71.4416077,51.1436078],[71.4417451,51.1427103],[71.4418315,51.1418124],[71.4418719,51.1409082],[71.4421533,51.1400295],[71.4428241,51.1392352],[71.4432789,51.1382688],[71.4439081,51.1373887],[71.4444436,51.1364808],[71.4449892,51.1355719],[71.4455824,51.1345294],[71.4462272,51.1334204],[71.4467548,51.132403],[71.4471167,51.1313598],[71.4477683,51.1302076],[71.4486196,51.1293257],[71.4499037,51.1285249],[71.4513775,51.1279122],[71.4518641,51.1270729],[71.4524125,51.1262429],[71.452072,51.1253693],[71.4516924,51.1245012],[71.4513121,51.1236314],[71.4501434,51.1231269],[71.4488756,51.1227034],[71.4476094,51.1222804],[71.4466502,51.1216225],[71.4462956,51.1207479],[71.4459354,51.1198596],[71.4466284,51.1190768],[71.4473262,51.1182885],[71.4480203,51.1175044],[71.4487114,51.1167238],[71.4493503,51.1159136],[71.4498179,51.1150603],[71.4501183,51.1141862],[71.4501785,51.1132806],[71.4502347,51.1123778],[71.450301,51.1114833],[71.4503781,51.1105866],[71.4506258,51.1097099],[71.4511908,51.108889],[71.4520059,51.1081621],[71.4530436,51.1075528],[71.4542762,51.1071015],[71.4555622,51.1067146],[71.456848,51.1063277],[71.4582091,51.1060483],[71.4596119,51.1058837],[71.4610199,51.1057184],[71.4624407,51.1056033],[71.4638716,51.1055921],[71.4652932,51.1055809],[71.4667238,51.1055697],[71.4681514,51.1055585],[71.4695766,51.1055472],[71.4710004,51.1054887],[71.4723603,51.1052141],[71.4735567,51.1047297],[71.4744115,51.1040133],[71.475068,51.1032161],[71.4761573,51.1026429],[71.4773445,51.1021444],[71.4785336,51.101645],[71.4797189,51.1011472],[71.4810311,51.1007917],[71.4824259,51.1005722],[71.4838316,51.1004145],[71.4852312,51.100226],[71.4866282,51.1000378],[71.4880271,51.0998493],[71.4894176,51.0996619],[71.490817,51.0997448],[71.4919627,51.1002763],[71.493116,51.1008111],[71.4942693,51.101346],[71.4954226,51.1018809],[71.4965759,51.1024157],[71.4977525,51.1029295],[71.4989668,51.1033837],[71.5003752,51.1035317],[71.5017971,51.1034732],[71.5031809,51.1032789],[71.5044308,51.102849],[71.5057336,51.1024801],[71.507016,51.1020849],[71.5082815,51.1016708],[71.5095469,51.1012567],[71.5108191,51.1008498],[71.5121167,51.1004739],[71.5134748,51.1006244],[71.5147588,51.1010141],[71.5159068,51.1015477],[71.5171095,51.1020202],[71.518282,51.1025292],[71.5194844,51.1030021],[71.5208143,51.1033011],[71.5222379,51.1034318],[71.5236485,51.1035807],[71.52508,51.1035926],[71.526489,51.1034582],[71.5279075,51.1033269],[71.5293022,51.1031499],[71.5307118,51.1030155],[71.5321307,51.102881],[71.5335351,51.1027191],[71.5349584,51.1025939],[71.5363626,51.102438],[71.5377813,51.1023005],[71.5391774,51.1021285],[71.540596,51.102004],[71.5419941,51.1018281],[71.543408,51.1017071],[71.5448108,51.101545],[71.5462133,51.1014102],[71.5476328,51.1012584],[71.5490468,51.1011236],[71.5504712,51.1010423],[71.5518467,51.1008151],[71.5532619,51.1007031],[71.5546565,51.1005336],[71.5560673,51.1003877],[71.5574671,51.1002486],[71.5588718,51.1001027],[71.5602768,51.0999534],[71.561677,51.0997873],[71.563082,51.0996413],[71.5644921,51.099492],[71.5659165,51.0994168],[71.5673635,51.0992642],[71.5687446,51.0990575],[71.5701494,51.098918],[71.571565,51.0987686],[71.57297,51.0985958],[71.574385,51.0984835],[71.5757795,51.0982971],[71.5771788,51.0981509],[71.5785938,51.098035],[71.5799939,51.0978452],[71.5814145,51.0977158],[71.5828139,51.0975595],[71.5842086,51.0973898],[71.5856184,51.0972771],[71.5870175,51.097123],[71.5883236,51.0967625],[71.5896865,51.0964707],[71.5909929,51.09611],[71.5922341,51.0956627],[71.5936008,51.0953899],[71.5949002,51.0950311],[71.5962181,51.0946672],[71.5974683,51.0942189],[71.5987782,51.0938827],[71.6000736,51.0935038],[71.6013915,51.093163],[71.6027407,51.0928656],[71.6039977,51.0924289],[71.6053546,51.0921435],[71.6065649,51.0916717],[71.6079057,51.0913426],[71.6083112,51.0914156],[71.6090259,51.0922384],[71.614932,51.0995045],[71.6357152,51.0945912],[71.658674,51.0894122],[71.6788259,51.0854437],[71.6804002,51.0905772],[71.6816268,51.0912366],[71.6830917,51.0916879],[71.6843235,51.0916017],[71.6851252,51.092081],[71.6846289,51.0926858],[71.685354,51.0932447],[71.6863497,51.0930684],[71.6869169,51.0932191],[71.6873073,51.0915203],[71.6883492,51.0914933],[71.6891496,51.0921813],[71.6891474,51.0925093],[71.6888591,51.0931348],[71.6889056,51.0932542],[71.6903764,51.0928406],[71.6913696,51.0930222],[71.6918418,51.0932322],[71.6915535,51.0938576],[71.6923108,51.0939193],[71.6940641,51.093745],[71.6944017,51.0928214],[71.6947821,51.0925839],[71.6951136,51.0925847],[71.6955853,51.0928543],[71.6958243,51.0925269],[71.6957333,51.0919601],[71.694932,51.0913914],[71.6944121,51.091241],[71.6946505,51.091003],[71.695267,51.0908555],[71.695883,51.0907975],[71.6958384,51.0903799],[71.6956506,51.0901408],[71.696081,51.0894859],[71.6966752,51.0892409],[71.6972648,51.089489],[71.6992064,51.0894642],[71.7003816,51.0907793],[71.7007375,51.0921225],[71.7024043,51.0928719],[71.7037791,51.0926369],[71.7044453,51.0921316],[71.7086552,51.0928579],[71.7087896,51.0940809],[71.7091181,51.0945588],[71.7099173,51.0954853],[71.7098194,51.095992],[71.7093917,51.0962295],[71.7087279,51.0963471],[71.7081138,51.096107],[71.7075457,51.0960757],[71.7065892,51.0968226],[71.7083406,51.097688],[71.7095229,51.0979594],[71.711176,51.0986792],[71.7142018,51.0995216],[71.7176115,51.0995896],[71.7186106,51.0988465],[71.7192268,51.0987585],[71.7199356,51.0990286],[71.721069,51.0995681],[71.7222478,51.1004357],[71.72271,51.1023453],[71.7233453,51.1027059],[71.7240641,51.1031139],[71.7245037,51.1033634],[71.7257335,51.1036645],[71.7273916,51.1036088],[71.7289106,51.1030457],[71.7289707,51.100869],[71.729067,51.1006008],[71.7305911,51.0991431],[71.7311617,51.0987568],[71.7325362,51.098581],[71.7340584,51.0974215],[71.7352465,51.0967085],[71.7365724,51.0967414],[71.7378967,51.0970425],[71.7390774,51.0976118],[71.7391701,51.0979698],[71.7387387,51.0988933],[71.7389239,51.0996392],[71.7394858,51.1007737],[71.7402406,51.1013121],[71.7419922,51.1014651],[71.7409762,51.1052799],[71.7388892,51.1057822],[71.7135608,51.1112395],[71.705117,51.1130077],[71.7105947,51.1234287],[71.7146683,51.1313412],[71.7134824,51.1315172],[71.7109198,51.1320476],[71.7065491,51.1336768],[71.6998013,51.1363733],[71.6918168,51.1395731],[71.6886825,51.1404296],[71.6845577,51.1405378],[71.6730418,51.1400886],[71.6730352,51.141013],[71.6452012,51.1399013],[71.6412924,51.1474425],[71.6352747,51.1590469],[71.6313241,51.1676485],[71.6277151,51.1753827],[71.627581,51.1756566],[71.6272173,51.1763994],[71.6214493,51.1881779],[71.6118365,51.1911675]]]},"properties":{"OBJECTID":2,"NAME":"район \"Алматы\"","NAME_OBJECT":"Район","REGION":"Алматы","KATO":"711110000","kind":"district","name":"район \"Алматы\"","source":"Astana municipal open geoportal","source_url":"https://gis.esaulet.kz/server/rest/services/Административные_районы/MapServer/4","sourceId":"astana-municipal-districts"}},{"type":"Feature","id":"municipal-districts-3","geometry":{"type":"Polygon","coordinates":[[[71.3031791,51.2357497],[71.3015845,51.2332348],[71.2887452,51.2373211],[71.2797208,51.2401714],[71.2681104,51.2438575],[71.2658582,51.2445682],[71.2603163,51.2463167],[71.2556765,51.2387959],[71.2479035,51.2290188],[71.2473837,51.2283648],[71.2456627,51.2261994],[71.2447046,51.2251336],[71.2477357,51.2243833],[71.246168,51.2210952],[71.2410949,51.2153674],[71.2412822,51.215203],[71.2412656,51.2146069],[71.2414576,51.2141529],[71.2405414,51.2137662],[71.2404529,51.2135338],[71.2408517,51.2133294],[71.2407567,51.2126914],[71.2401269,51.2125218],[71.2400509,51.2123392],[71.2406225,51.2120366],[71.2411914,51.2119079],[71.2411425,51.2116758],[71.2406845,51.2114741],[71.2407001,51.2113252],[71.2411622,51.2112786],[71.2411127,51.2110796],[71.2404543,51.2110505],[71.2401012,51.2108826],[71.2396661,51.2108964],[71.2396551,51.2107638],[71.2401159,51.2106347],[71.2400682,51.2104851],[71.2393842,51.2104061],[71.2394263,51.2102491],[71.2399272,51.2102441],[71.2391689,51.209875],[71.2390077,51.2100643],[71.2387832,51.2100877],[71.2385923,51.2096808],[71.2379979,51.2097597],[71.2374466,51.209632],[71.2378358,51.2092041],[71.2376306,51.2088633],[71.237304,51.2086874],[71.2373604,51.2084642],[71.2381494,51.2085687],[71.2398518,51.2076196],[71.2415338,51.2075748],[71.2428359,51.2067665],[71.2430913,51.204411],[71.2427416,51.2027823],[71.2413498,51.2028091],[71.2402015,51.2032889],[71.2404994,51.2025099],[71.2400293,51.2019695],[71.2404263,51.201406],[71.2422181,51.2006295],[71.243402,51.200064],[71.2447176,51.1991125],[71.2450344,51.19857],[71.2443773,51.1983078],[71.2433959,51.1983517],[71.2423325,51.1978289],[71.2434876,51.1969265],[71.2454549,51.1965666],[71.248833,51.1949907],[71.2493148,51.1941125],[71.2492424,51.1936535],[71.2500135,51.1932142],[71.2507271,51.1935054],[71.2514246,51.1933881],[71.2517958,51.1929964],[71.2518934,51.1926029],[71.2526682,51.1926366],[71.25282,51.1924154],[71.2513756,51.1907798],[71.251413,51.1905866],[71.252114,51.1902472],[71.2530367,51.1902961],[71.2534784,51.1911873],[71.2540578,51.1913128],[71.2547485,51.1909088],[71.2551225,51.190338],[71.2553114,51.189938],[71.2550769,51.1896284],[71.2556969,51.1893601],[71.2569491,51.1894827],[71.2569953,51.1901565],[71.2574489,51.1903098],[71.2582643,51.1899425],[71.259324,51.1899778],[71.2602094,51.190227],[71.2599605,51.190813],[71.2603109,51.1910086],[71.2601075,51.191602],[71.2605039,51.1917693],[71.2605547,51.1921565],[71.260907,51.1922304],[71.2612311,51.1919243],[71.2617467,51.19177],[71.2619213,51.191549],[71.2611523,51.1911501],[71.2614971,51.1902638],[71.2620706,51.1900525],[71.2621892,51.1897667],[71.2624651,51.1896251],[71.262724,51.1898345],[71.2645236,51.1899462],[71.2648136,51.1896327],[71.2643881,51.18915],[71.2648361,51.1889379],[71.2653465,51.1891059],[71.2659652,51.1896328],[71.2666818,51.1897376],[71.267038,51.1895607],[71.267079,51.1891311],[71.2672341,51.1887022],[71.2685215,51.1890381],[71.2690775,51.1896451],[71.269639,51.1894695],[71.269475,51.1890243],[71.2700912,51.1889923],[71.2704241,51.1888439],[71.2706824,51.1890963],[71.2711157,51.1890918],[71.2715688,51.189281],[71.2720279,51.1890832],[71.2725068,51.189079],[71.2726488,51.1887503],[71.2732783,51.1885966],[71.2734294,51.1884113],[71.2732276,51.1881951],[71.2732223,51.1881943],[71.2732075,51.1881788],[71.2740713,51.1881083],[71.2754516,51.1878876],[71.2768261,51.1876372],[71.2782439,51.1876454],[71.2796612,51.1876315],[71.2810645,51.1877568],[71.2824097,51.1880584],[71.2837112,51.188432],[71.2849751,51.1888482],[71.2862677,51.1892329],[71.2876236,51.1895083],[71.2890366,51.1896198],[71.2904638,51.1895848],[71.2918657,51.189395],[71.2932244,51.1891403],[71.2944572,51.1886883],[71.2955607,51.1881262],[71.2965112,51.1874548],[71.2972769,51.1867182],[71.2977539,51.1858706],[71.2983887,51.1850688],[71.2994323,51.1844565],[71.3005128,51.1838675],[71.3018264,51.1835447],[71.3032426,51.1834632],[71.3046556,51.1834158],[71.3060712,51.1833061],[71.3074657,51.1831111],[71.308783,51.182763],[71.3100942,51.1824046],[71.311325,51.1819469],[71.3125658,51.1815012],[71.3138082,51.1810575],[71.3150301,51.1806141],[71.3162577,51.1801807],[71.3175115,51.1798086],[71.3186859,51.1793009],[71.3199305,51.1789033],[71.3210733,51.1783638],[71.3222315,51.1778355],[71.323166,51.1771583],[71.3240263,51.1764397],[71.3248592,51.1757107],[71.3258133,51.1750752],[71.3269748,51.1745582],[71.3282246,51.1741205],[71.3295182,51.1737428],[71.3308175,51.1733753],[71.3322402,51.1733219],[71.3336403,51.1734066],[71.3350444,51.1734813],[71.3364616,51.1735116],[71.3378838,51.1735098],[71.3393052,51.1734097],[71.3406787,51.1731803],[71.341985,51.1728259],[71.3432437,51.1724069],[71.3443165,51.171813],[71.3453541,51.1711977],[71.3462311,51.1705132],[71.3469543,51.1697354],[71.347693,51.1689646],[71.3484772,51.1682083],[71.3493382,51.1675188],[71.3504235,51.1669335],[71.3515888,51.166415],[71.3527968,51.1659471],[71.3539902,51.1654623],[71.3553623,51.1652196],[71.3567851,51.1651674],[71.3581872,51.1652109],[71.359587,51.1652602],[71.3609929,51.1652938],[71.3624159,51.1652332],[71.3638389,51.1651726],[71.3652573,51.1650569],[71.3666605,51.1648871],[71.3680835,51.1648264],[71.3694931,51.1646752],[71.3709124,51.1645652],[71.3723319,51.1644558],[71.3737514,51.1643471],[71.3751711,51.1642392],[71.3765909,51.1641321],[71.3780068,51.1640043],[71.3794271,51.1639005],[71.3808367,51.1637494],[71.382258,51.1637569],[71.3836783,51.163654],[71.385096,51.1636439],[71.386519,51.163583],[71.3879383,51.1634732],[71.3893613,51.1634123],[71.3907842,51.1633513],[71.3921997,51.163222],[71.3936324,51.163169],[71.3950346,51.162995],[71.3962809,51.1625581],[71.3969668,51.1617792],[71.397706,51.1610147],[71.3985971,51.1603115],[71.3995585,51.159651],[71.4005524,51.1590146],[71.4017697,51.1585512],[71.4030646,51.1581692],[71.4043953,51.1578469],[71.4057738,51.1576082],[71.4071653,51.157442],[71.4085937,51.1574492],[71.4099254,51.157557],[71.411263,51.1578603],[71.4125902,51.1581662],[71.4139124,51.1584969],[71.4151806,51.1589127],[71.4164476,51.1593299],[71.4177049,51.159761],[71.4189623,51.1601882],[71.4203495,51.1603864],[71.4217514,51.1602611],[71.4229584,51.1597937],[71.4238922,51.1591134],[71.4245629,51.1583408],[71.42511,51.1575149],[71.4256354,51.1566819],[71.4261259,51.1558387],[71.4266042,51.1549923],[71.4269441,51.1541199],[71.4274554,51.1532826],[71.4282625,51.1525867],[71.4307739,51.1535388],[71.4282593,51.161455],[71.4273056,51.1649824],[71.4240398,51.1771521],[71.4357692,51.1784839],[71.4385332,51.1789442],[71.4422947,51.1801957],[71.4447982,51.182333],[71.4461961,51.1838736],[71.4465284,51.1842935],[71.4452669,51.1847453],[71.4429513,51.1858596],[71.4267454,51.190782],[71.4042926,51.1977596],[71.3948698,51.2005247],[71.3787266,51.205706],[71.3678337,51.2092128],[71.3674941,51.2092992],[71.3671589,51.2093921],[71.3668282,51.2094912],[71.3665024,51.2095966],[71.3661819,51.2097081],[71.3658668,51.2098256],[71.3655575,51.209949],[71.3652542,51.2100782],[71.3649573,51.210213],[71.364667,51.2103534],[71.3643836,51.2104993],[71.3641072,51.2106504],[71.3638383,51.2108067],[71.3635769,51.210968],[71.3633234,51.2111342],[71.363078,51.2113051],[71.3628409,51.2114806],[71.3626123,51.2116605],[71.3623924,51.2118446],[71.3621815,51.2120328],[71.3619796,51.2122249],[71.3617871,51.2124207],[71.361604,51.2126201],[71.3614306,51.2128228],[71.3597769,51.2147321],[71.3594987,51.2150259],[71.3592121,51.2153166],[71.3589173,51.215604],[71.3586143,51.215888],[71.3583033,51.2161685],[71.3579842,51.2164455],[71.3576573,51.2167188],[71.3573225,51.2169884],[71.3569802,51.2172541],[71.3566302,51.217516],[71.3562729,51.2177738],[71.3559082,51.2180276],[71.3556199,51.2182458],[71.355323,51.2184592],[71.3550175,51.2186679],[71.3547037,51.2188717],[71.3543818,51.2190704],[71.3540519,51.2192639],[71.3537144,51.2194521],[71.3533693,51.2196348],[71.353017,51.219812],[71.3526577,51.2199836],[71.3522915,51.2201494],[71.3519188,51.2203093],[71.3515397,51.2204632],[71.3511546,51.220611],[71.3507636,51.2207526],[71.3031791,51.2357497]]]},"properties":{"OBJECTID":3,"NAME":"район \"Сарыарка\"","NAME_OBJECT":"Район","REGION":null,"KATO":null,"kind":"district","name":"район \"Сарыарка\"","source":"Astana municipal open geoportal","source_url":"https://gis.esaulet.kz/server/rest/services/Административные_районы/MapServer/4","sourceId":"astana-municipal-districts"}},{"type":"Feature","id":"municipal-districts-4","geometry":{"type":"Polygon","coordinates":[[[71.3970529,51.2741811],[71.3906538,51.2888031],[71.3888315,51.2926201],[71.3851094,51.3023425],[71.35779,51.2980601],[71.3559917,51.2977792],[71.3556164,51.2977206],[71.3583744,51.290275],[71.3589757,51.2887018],[71.3609176,51.2840515],[71.3613408,51.2830381],[71.3622642,51.2806005],[71.3641545,51.2759235],[71.366412,51.2712193],[71.3663009,51.2711973],[71.3615724,51.2702638],[71.3536229,51.2686938],[71.346693,51.2673288],[71.345943,51.2685151],[71.3431257,51.2674711],[71.3421244,51.2671138],[71.3408302,51.2687332],[71.3360513,51.267059],[71.3349092,51.2666552],[71.3270395,51.2598143],[71.3191606,51.2528653],[71.3118203,51.2453311],[71.3040186,51.2370735],[71.3031791,51.2357497],[71.3507636,51.2207526],[71.3511546,51.220611],[71.3515397,51.2204632],[71.3519188,51.2203093],[71.3522915,51.2201494],[71.3526577,51.2199836],[71.353017,51.219812],[71.3533693,51.2196348],[71.3537144,51.2194521],[71.3540519,51.2192639],[71.3543818,51.2190704],[71.3547037,51.2188717],[71.3550175,51.2186679],[71.355323,51.2184592],[71.3556199,51.2182458],[71.3559082,51.2180276],[71.3562729,51.2177738],[71.3566302,51.217516],[71.3569802,51.2172541],[71.3573225,51.2169884],[71.3576573,51.2167188],[71.3579842,51.2164455],[71.3583033,51.2161685],[71.3586143,51.215888],[71.3589173,51.215604],[71.3592121,51.2153166],[71.3594987,51.2150259],[71.3597769,51.2147321],[71.3614306,51.2128228],[71.361604,51.2126201],[71.3617871,51.2124207],[71.3619796,51.2122249],[71.3621815,51.2120328],[71.3623924,51.2118446],[71.3626123,51.2116605],[71.3628409,51.2114806],[71.363078,51.2113051],[71.3633234,51.2111342],[71.3635769,51.210968],[71.3638383,51.2108067],[71.3641072,51.2106504],[71.3643836,51.2104993],[71.364667,51.2103534],[71.3649573,51.210213],[71.3652542,51.2100782],[71.3655575,51.209949],[71.3658668,51.2098256],[71.3661819,51.2097081],[71.3665024,51.2095966],[71.3668282,51.2094912],[71.3671589,51.2093921],[71.3674941,51.2092992],[71.3678337,51.2092128],[71.3787266,51.205706],[71.3948698,51.2005247],[71.4042926,51.1977596],[71.4267454,51.190782],[71.4429513,51.1858596],[71.4452669,51.1847453],[71.4465284,51.1842935],[71.4461961,51.1838736],[71.4447982,51.182333],[71.4422947,51.1801957],[71.4385332,51.1789442],[71.4357692,51.1784839],[71.4240398,51.1771521],[71.4273056,51.1649824],[71.4282593,51.161455],[71.4307739,51.1535388],[71.4282625,51.1525867],[71.4282104,51.1518937],[71.4292447,51.1510511],[71.4293141,51.1509816],[71.4293918,51.1509156],[71.4294774,51.1508536],[71.4295702,51.1507958],[71.4296699,51.1507427],[71.4297757,51.1506946],[71.4298871,51.1506518],[71.4300034,51.1506144],[71.4301239,51.1505828],[71.4302479,51.150557],[71.4303746,51.1505374],[71.4317308,51.1502553],[71.4330841,51.1499679],[71.433444,51.1499023],[71.433801,51.1498305],[71.4341547,51.1497526],[71.4345049,51.1496686],[71.4348512,51.1495786],[71.4351936,51.1494827],[71.4355315,51.1493808],[71.435865,51.1492732],[71.4361936,51.1491599],[71.4365171,51.1490409],[71.4368353,51.1489164],[71.4371479,51.1487864],[71.4374548,51.1486511],[71.4377556,51.1485105],[71.4380501,51.1483648],[71.4383382,51.148214],[71.4386196,51.1480583],[71.4388941,51.1478979],[71.4391615,51.1477327],[71.4413047,51.1487558],[71.4432157,51.1494663],[71.4477631,51.1520199],[71.4511692,51.1530289],[71.4523401,51.1530976],[71.4532566,51.1534001],[71.4537113,51.1539235],[71.4551614,51.1546963],[71.4594953,51.1555084],[71.4632071,51.1571472],[71.469369,51.1601394],[71.4709955,51.1617938],[71.4724886,51.1623081],[71.4740218,51.1638169],[71.4758576,51.1640505],[71.4769405,51.1654358],[71.4790126,51.1659326],[71.481607,51.1684439],[71.4845198,51.1681714],[71.4857846,51.1696164],[71.4870877,51.1703838],[71.4887762,51.1721168],[71.4897139,51.1724454],[71.4912469,51.1725375],[71.4920637,51.1741999],[71.4951365,51.1756409],[71.4972541,51.1758988],[71.4976033,51.1759359],[71.5048752,51.1836231],[71.5055029,51.1833881],[71.505756,51.1833007],[71.5060137,51.1832188],[71.5062758,51.1831425],[71.5065419,51.1830719],[71.5068116,51.1830071],[71.5070847,51.1829482],[71.5073609,51.1828951],[71.5076398,51.1828481],[71.5079212,51.182807],[71.5082046,51.1827721],[71.5084897,51.1827433],[71.5087762,51.1827206],[71.5090638,51.1827041],[71.5093521,51.1826938],[71.5098483,51.1827027],[71.5103446,51.1827068],[71.5108409,51.1827063],[71.5113372,51.182701],[71.51165,51.1826855],[71.5119619,51.1826636],[71.5122724,51.1826351],[71.5125813,51.1826003],[71.5128882,51.182559],[71.5131927,51.1825114],[71.5134946,51.1824574],[71.5137935,51.1823973],[71.514089,51.1823309],[71.5143809,51.1822585],[71.5146688,51.18218],[71.5149524,51.1820956],[71.5152314,51.1820053],[71.5155056,51.1819093],[71.5157745,51.1818076],[71.5160379,51.1817004],[71.520132,51.1801471],[71.5211577,51.1797356],[71.5214459,51.1796035],[71.5217283,51.1794667],[71.5220048,51.1793252],[71.5222752,51.1791791],[71.5225392,51.1790286],[71.5227968,51.1788736],[71.5230478,51.1787144],[71.5239294,51.1781101],[71.5249466,51.1788049],[71.5266396,51.1791713],[71.5287108,51.1791709],[71.5322493,51.1805379],[71.533353,51.1813853],[71.5331132,51.1828481],[71.5346026,51.1836962],[71.5361561,51.1842879],[71.5382306,51.1858205],[71.5396871,51.1873527],[71.5397325,51.1874714],[71.5397888,51.1875883],[71.539856,51.187703],[71.5399337,51.1878149],[71.5400217,51.1879238],[71.5401197,51.1880293],[71.5402273,51.188131],[71.5403442,51.1882286],[71.54047,51.1883217],[71.5406042,51.18841],[71.5407465,51.1884932],[71.5408962,51.1885711],[71.5410529,51.1886433],[71.5412161,51.1887097],[71.5413852,51.1887699],[71.5415596,51.1888238],[71.5417387,51.1888712],[71.5419219,51.188912],[71.5440849,51.1889873],[71.5443521,51.1891058],[71.5446248,51.1892194],[71.5449028,51.1893278],[71.5451857,51.189431],[71.5454734,51.1895288],[71.5457656,51.1896213],[71.5460619,51.1897084],[71.5463623,51.1897898],[71.5466664,51.1898657],[71.5469739,51.1899358],[71.5472845,51.1900002],[71.5475981,51.1900588],[71.5477994,51.1900894],[71.5480031,51.1901131],[71.5482084,51.1901299],[71.548415,51.1901397],[71.548622,51.1901425],[71.548829,51.1901382],[71.5490354,51.1901269],[71.5492404,51.1901087],[71.5494436,51.1900835],[71.5503556,51.189771],[71.5505016,51.1897265],[71.550652,51.1896882],[71.5508061,51.1896564],[71.5509633,51.1896311],[71.5511228,51.1896126],[71.551284,51.1896008],[71.5514461,51.1895958],[71.5516083,51.1895976],[71.5517699,51.1896063],[71.5519303,51.1896218],[71.5520886,51.189644],[71.5522443,51.1896728],[71.5523166,51.1896887],[71.553221,51.1898873],[71.5544337,51.1899856],[71.5571668,51.1906618],[71.5579815,51.1909914],[71.5580124,51.1911357],[71.5580523,51.1912792],[71.5581011,51.1914216],[71.5581589,51.1915626],[71.5582255,51.1917021],[71.5583007,51.1918399],[71.5583846,51.1919757],[71.5584769,51.1921093],[71.5585775,51.1922405],[71.5609618,51.1932456],[71.5629035,51.195068],[71.5658612,51.1961635],[71.5684517,51.1965531],[71.5718312,51.198729],[71.5759568,51.2002659],[71.5800394,51.2027623],[71.5829419,51.2032908],[71.5832592,51.2026706],[71.5828661,51.2034438],[71.5828461,51.2034831],[71.5821649,51.204823],[71.58208,51.2049901],[71.5740543,51.2203818],[71.5983797,51.235738],[71.6091866,51.2425439],[71.6186353,51.2485133],[71.6047921,51.2653734],[71.6041961,51.2660698],[71.6019233,51.2685162],[71.594005,51.2774981],[71.5764789,51.2630959],[71.5669806,51.2574822],[71.5661684,51.2528094],[71.562585,51.2487461],[71.558307,51.2485234],[71.5556875,51.2470257],[71.5510502,51.2431464],[71.471679,51.2632899],[71.4810915,51.2704425],[71.4888127,51.2764314],[71.4982279,51.2836929],[71.4983861,51.2900585],[71.4908385,51.2886175],[71.4759076,51.2864121],[71.4685501,51.2784629],[71.4503818,51.2715861],[71.4281167,51.274671],[71.4137811,51.2709451],[71.4000429,51.2673454],[71.3970529,51.2741811]]]},"properties":{"OBJECTID":4,"NAME":"район \"Байконур\"","NAME_OBJECT":"Район","REGION":null,"KATO":null,"kind":"district","name":"район \"Байконур\"","source":"Astana municipal open geoportal","source_url":"https://gis.esaulet.kz/server/rest/services/Административные_районы/MapServer/4","sourceId":"astana-municipal-districts"}},{"type":"Feature","id":"municipal-districts-5","geometry":{"type":"Polygon","coordinates":[[[71.3328142,51.2732643],[71.3154775,51.2964524],[71.3037307,51.2922762],[71.3061068,51.2794973],[71.29597,51.2745234],[71.3070836,51.2656118],[71.3328142,51.2732643]]]},"properties":{"OBJECTID":5,"NAME":"район \"Байконур\"","NAME_OBJECT":"Район","REGION":null,"KATO":null,"kind":"district","name":"район \"Байконур\"","source":"Astana municipal open geoportal","source_url":"https://gis.esaulet.kz/server/rest/services/Административные_районы/MapServer/4","sourceId":"astana-municipal-districts"}},{"type":"Feature","id":"municipal-districts-6","geometry":{"type":"Polygon","coordinates":[[[71.6925069,51.3488435],[71.6949057,51.3510085],[71.6926895,51.3510027],[71.6920408,51.3509902],[71.687125,51.3508955],[71.6838751,51.3508251],[71.667899,51.3398329],[71.6579267,51.3367511],[71.6415717,51.3316137],[71.6443515,51.3286307],[71.6512966,51.3215585],[71.656319,51.3182407],[71.6566879,51.317997],[71.6652815,51.3138239],[71.671759,51.3094667],[71.6740108,51.3111075],[71.670203,51.3137491],[71.672995,51.3155764],[71.6714132,51.3165589],[71.6725374,51.3176414],[71.679163,51.3220802],[71.6839986,51.3256295],[71.6865357,51.3289362],[71.6915897,51.3323124],[71.6937774,51.3337605],[71.694086,51.3335204],[71.6971762,51.3352554],[71.6992238,51.3383446],[71.7036758,51.342766],[71.7060089,51.347552],[71.7038359,51.3485026],[71.701071,51.3496058],[71.6975951,51.3464512],[71.6925069,51.3488435]]]},"properties":{"OBJECTID":6,"NAME":"район \"Байконур\"","NAME_OBJECT":"Район","REGION":null,"KATO":null,"kind":"district","name":"район \"Байконур\"","source":"Astana municipal open geoportal","source_url":"https://gis.esaulet.kz/server/rest/services/Административные_районы/MapServer/4","sourceId":"astana-municipal-districts"}},{"type":"Feature","id":"municipal-districts-7","geometry":{"type":"Polygon","coordinates":[[[71.2955607,51.1881262],[71.2944572,51.1886883],[71.2932244,51.1891403],[71.2918657,51.189395],[71.2904638,51.1895848],[71.2890366,51.1896198],[71.2876236,51.1895083],[71.2862677,51.1892329],[71.2849751,51.1888482],[71.2837112,51.188432],[71.2824097,51.1880584],[71.2810645,51.1877568],[71.2796612,51.1876315],[71.2782439,51.1876454],[71.2768261,51.1876372],[71.2754516,51.1878876],[71.2740713,51.1881083],[71.2732075,51.1881788],[71.2732223,51.1881943],[71.2721212,51.1880416],[71.2721548,51.1875799],[71.2719791,51.1870675],[71.2707339,51.1866912],[71.2698675,51.1861471],[71.2702646,51.1859351],[71.2701469,51.1850766],[71.2704167,51.1846164],[71.2709174,51.1844876],[71.2711399,51.1841904],[71.2710784,51.1840816],[71.2710517,51.1841848],[71.2707383,51.1837953],[71.2708725,51.1833556],[71.2711057,51.1833438],[71.2715662,51.1837738],[71.2719464,51.183937],[71.2727164,51.183714],[71.2728275,51.183434],[71.272383,51.1832978],[71.2717907,51.1827925],[71.2720341,51.1825346],[71.2733056,51.1813677],[71.274259,51.1814536],[71.2751404,51.1821539],[71.2757164,51.1821034],[71.2757893,51.1815432],[71.2760856,51.1815585],[71.2762794,51.1814659],[71.2761554,51.181265],[71.2763059,51.1811187],[71.2763099,51.1808646],[71.2759785,51.1803286],[71.276342,51.1801177],[71.2767209,51.1802801],[71.2773154,51.1803239],[71.2775839,51.180807],[71.2783563,51.1804239],[71.2787811,51.180373],[71.2790978,51.1804814],[71.2795174,51.1808315],[71.2798315,51.1811416],[71.2805824,51.1809461],[71.2809039,51.1806661],[71.2810875,51.1798391],[71.2814933,51.1796021],[71.2817914,51.1796308],[71.2819148,51.1793936],[71.2653983,51.1743211],[71.2529838,51.1759627],[71.2542595,51.1624875],[71.2544357,51.1582265],[71.2427787,51.1576374],[71.2425942,51.1523936],[71.2385803,51.1523195],[71.2384999,51.149705],[71.2361685,51.1496366],[71.2362427,51.1329694],[71.2350132,51.1313289],[71.2287457,51.1231342],[71.2260314,51.1140938],[71.2179656,51.1107769],[71.2258862,51.1001885],[71.2259494,51.1000868],[71.2263705,51.0994093],[71.2317765,51.09071],[71.2340252,51.0870266],[71.2454386,51.0683322],[71.2487612,51.0685242],[71.2501975,51.0681924],[71.251752,51.0674837],[71.2532125,51.0658726],[71.2539905,51.0655852],[71.2555294,51.0636702],[71.2557911,51.0618201],[71.2545315,51.0584009],[71.2539901,51.0560096],[71.2548742,51.0539198],[71.2547475,51.0497769],[71.2549928,51.04895],[71.2577628,51.0473595],[71.2601878,51.0455719],[71.2633026,51.0417175],[71.2659482,51.0406134],[71.2678707,51.0387981],[71.2683288,51.0367055],[71.2692942,51.0342994],[71.2724511,51.0325892],[71.2755783,51.0302939],[71.2775458,51.0280158],[71.2806803,51.0252087],[71.2840998,51.0239384],[71.285941,51.0222929],[71.2889634,51.0217022],[71.2906605,51.0218831],[71.3028919,51.0228828],[71.3077286,51.0223756],[71.3122706,51.0234989],[71.3184071,51.0239248],[71.3237516,51.0230301],[71.3316915,51.0216383],[71.3354727,51.0192722],[71.3602041,51.0158776],[71.3685631,51.0147293],[71.3800178,51.013134],[71.3806555,51.0131467],[71.381508,51.0131638],[71.3816782,51.0131672],[71.4001777,51.0103157],[71.4027793,51.0092326],[71.415047,51.0072726],[71.4309094,51.0049634],[71.435283,51.0041562],[71.4367631,51.0031157],[71.4379533,51.0036819],[71.4540127,51.0008344],[71.4541729,51.0008559],[71.4538963,50.9983092],[71.4516508,50.9833161],[71.4563256,50.9825673],[71.4528607,50.9695469],[71.4515228,50.9648952],[71.4509083,50.9604385],[71.4631962,50.9584588],[71.4621816,50.9527688],[71.4611454,50.9505193],[71.460573,50.9472009],[71.4667068,50.9476851],[71.469216,50.9458223],[71.471631,50.9376557],[71.482692,50.9396182],[71.4830978,50.9387048],[71.4865543,50.9308211],[71.520792,50.9306955],[71.5253368,50.9306864],[71.5469341,50.930894],[71.5474363,50.9340336],[71.548731,50.9465403],[71.5542825,50.9682994],[71.5526264,50.9756172],[71.5380803,50.987193],[71.5379271,50.9873661],[71.5377838,50.9875426],[71.5376504,50.9877222],[71.5375273,50.9879047],[71.5374145,50.9880898],[71.5373122,50.9882773],[71.5372205,50.988467],[71.5371395,50.9886586],[71.5370693,50.988852],[71.5370101,50.9890468],[71.5369619,50.9892427],[71.5369248,50.9894397],[71.5368987,50.9896373],[71.5368838,50.9898354],[71.5368801,50.9900338],[71.5370356,51.0068657],[71.5370776,51.0070191],[71.5371301,51.0071712],[71.5371929,51.0073218],[71.537266,51.0074705],[71.5373492,51.007617],[71.5374423,51.0077612],[71.5375453,51.0079027],[71.5376578,51.0080412],[71.5377797,51.0081766],[71.5379107,51.0083084],[71.5380507,51.0084367],[71.5381993,51.0085609],[71.5383563,51.008681],[71.5385214,51.0087967],[71.5386942,51.0089078],[71.5388745,51.0090141],[71.5390619,51.0091154],[71.539256,51.0092115],[71.5394566,51.0093022],[71.544141,51.0117732],[71.5558443,51.0153823],[71.5502517,51.0296131],[71.5397644,51.0481329],[71.545536,51.0489019],[71.5474315,51.0511128],[71.5558847,51.0488674],[71.5642253,51.0574277],[71.5697649,51.06216],[71.5700169,51.0623745],[71.5761437,51.0675911],[71.5794387,51.0703961],[71.5874392,51.0744028],[71.5880149,51.0746911],[71.6034928,51.0858679],[71.6083112,51.0914156],[71.6079057,51.0913426],[71.6065649,51.0916717],[71.6053546,51.0921435],[71.6039977,51.0924289],[71.6027407,51.0928656],[71.6013915,51.093163],[71.6000736,51.0935038],[71.5987782,51.0938827],[71.5974683,51.0942189],[71.5962181,51.0946672],[71.5949002,51.0950311],[71.5936008,51.0953899],[71.5922341,51.0956627],[71.5909929,51.09611],[71.5896865,51.0964707],[71.5883236,51.0967625],[71.5870175,51.097123],[71.5856184,51.0972771],[71.5842086,51.0973898],[71.5828139,51.0975595],[71.5814145,51.0977158],[71.5799939,51.0978452],[71.5785938,51.098035],[71.5771788,51.0981509],[71.5757795,51.0982971],[71.574385,51.0984835],[71.57297,51.0985958],[71.571565,51.0987686],[71.5701494,51.098918],[71.5687446,51.0990575],[71.5673635,51.0992642],[71.5659165,51.0994168],[71.5644921,51.099492],[71.563082,51.0996413],[71.561677,51.0997873],[71.5602768,51.0999534],[71.5588718,51.1001027],[71.5574671,51.1002486],[71.5560673,51.1003877],[71.5546565,51.1005336],[71.5532619,51.1007031],[71.5518467,51.1008151],[71.5504712,51.1010423],[71.5490468,51.1011236],[71.5476328,51.1012584],[71.5462133,51.1014102],[71.5448108,51.101545],[71.543408,51.1017071],[71.5419941,51.1018281],[71.540596,51.102004],[71.5391774,51.1021285],[71.5377813,51.1023005],[71.5363626,51.102438],[71.5349584,51.1025939],[71.5335351,51.1027191],[71.5321307,51.102881],[71.5307118,51.1030155],[71.5293022,51.1031499],[71.5279075,51.1033269],[71.526489,51.1034582],[71.52508,51.1035926],[71.5236485,51.1035807],[71.5222379,51.1034318],[71.5208143,51.1033011],[71.5194844,51.1030021],[71.518282,51.1025292],[71.5171095,51.1020202],[71.5159068,51.1015477],[71.5147588,51.1010141],[71.5134748,51.1006244],[71.5121167,51.1004739],[71.5108191,51.1008498],[71.5095469,51.1012567],[71.5082815,51.1016708],[71.507016,51.1020849],[71.5057336,51.1024801],[71.5044308,51.102849],[71.5031809,51.1032789],[71.5017971,51.1034732],[71.5003752,51.1035317],[71.4989668,51.1033837],[71.4977525,51.1029295],[71.4965759,51.1024157],[71.4954226,51.1018809],[71.4942693,51.101346],[71.493116,51.1008111],[71.4919627,51.1002763],[71.490817,51.0997448],[71.4894176,51.0996619],[71.4880271,51.0998493],[71.4866282,51.1000378],[71.4852312,51.100226],[71.4838316,51.1004145],[71.4824259,51.1005722],[71.4810311,51.1007917],[71.4797189,51.1011472],[71.4785336,51.101645],[71.4773445,51.1021444],[71.4761573,51.1026429],[71.475068,51.1032161],[71.4744115,51.1040133],[71.4735567,51.1047297],[71.4723603,51.1052141],[71.4710004,51.1054887],[71.4695766,51.1055472],[71.4681514,51.1055585],[71.4667238,51.1055697],[71.4652932,51.1055809],[71.4638716,51.1055921],[71.4624407,51.1056033],[71.4610199,51.1057184],[71.4596119,51.1058837],[71.4582091,51.1060483],[71.456848,51.1063277],[71.4555622,51.1067146],[71.4542762,51.1071015],[71.4530436,51.1075528],[71.4520059,51.1081621],[71.4511908,51.108889],[71.4506258,51.1097099],[71.4503781,51.1105866],[71.450301,51.1114833],[71.4502347,51.1123778],[71.4501785,51.1132806],[71.4501183,51.1141862],[71.4498179,51.1150603],[71.4493503,51.1159136],[71.4487114,51.1167238],[71.4480203,51.1175044],[71.4473262,51.1182885],[71.4466284,51.1190768],[71.4459354,51.1198596],[71.4462956,51.1207479],[71.4466502,51.1216225],[71.4476094,51.1222804],[71.4488756,51.1227034],[71.4501434,51.1231269],[71.4513121,51.1236314],[71.4516924,51.1245012],[71.452072,51.1253693],[71.4524125,51.1262429],[71.4518641,51.1270729],[71.4513775,51.1279122],[71.4499037,51.1285249],[71.4486196,51.1293257],[71.4477683,51.1302076],[71.4471167,51.1313598],[71.4467548,51.132403],[71.4462272,51.1334204],[71.4455824,51.1345294],[71.4449892,51.1355719],[71.4444436,51.1364808],[71.4439081,51.1373887],[71.4432789,51.1382688],[71.4428241,51.1392352],[71.4421533,51.1400295],[71.4418719,51.1409082],[71.4418315,51.1418124],[71.4417451,51.1427103],[71.4416077,51.1436078],[71.4414492,51.1445055],[71.4412141,51.1453926],[71.4406186,51.1462096],[71.4400797,51.1470436],[71.4391615,51.1477327],[71.4388941,51.1478979],[71.4386196,51.1480583],[71.4383382,51.148214],[71.4380501,51.1483648],[71.4377556,51.1485105],[71.4374548,51.1486511],[71.4371479,51.1487864],[71.4368353,51.1489164],[71.4365171,51.1490409],[71.4361936,51.1491599],[71.435865,51.1492732],[71.4355315,51.1493808],[71.4351936,51.1494827],[71.4348512,51.1495786],[71.4345049,51.1496686],[71.4341547,51.1497526],[71.433801,51.1498305],[71.433444,51.1499023],[71.4330841,51.1499679],[71.4317308,51.1502553],[71.4303746,51.1505374],[71.4302479,51.150557],[71.4301239,51.1505828],[71.4300034,51.1506144],[71.4298871,51.1506518],[71.4297757,51.1506946],[71.4296699,51.1507427],[71.4295702,51.1507958],[71.4294774,51.1508536],[71.4293918,51.1509156],[71.4293141,51.1509816],[71.4292447,51.1510511],[71.4282104,51.1518937],[71.4282625,51.1525867],[71.4274554,51.1532826],[71.4269441,51.1541199],[71.4266042,51.1549923],[71.4261259,51.1558387],[71.4256354,51.1566819],[71.42511,51.1575149],[71.4245629,51.1583408],[71.4238922,51.1591134],[71.4229584,51.1597937],[71.4217514,51.1602611],[71.4203495,51.1603864],[71.4189623,51.1601882],[71.4177049,51.159761],[71.4164476,51.1593299],[71.4151806,51.1589127],[71.4139124,51.1584969],[71.4125902,51.1581662],[71.411263,51.1578603],[71.4099254,51.157557],[71.4085937,51.1574492],[71.4071653,51.157442],[71.4057738,51.1576082],[71.4043953,51.1578469],[71.4030646,51.1581692],[71.4017697,51.1585512],[71.4005524,51.1590146],[71.3995585,51.159651],[71.3985971,51.1603115],[71.397706,51.1610147],[71.3969668,51.1617792],[71.3962809,51.1625581],[71.3950346,51.162995],[71.3936324,51.163169],[71.3921997,51.163222],[71.3907842,51.1633513],[71.3893613,51.1634123],[71.3879383,51.1634732],[71.386519,51.163583],[71.385096,51.1636439],[71.3836783,51.163654],[71.382258,51.1637569],[71.3808367,51.1637494],[71.3794271,51.1639005],[71.3780068,51.1640043],[71.3765909,51.1641321],[71.3751711,51.1642392],[71.3737514,51.1643471],[71.3723319,51.1644558],[71.3709124,51.1645652],[71.3694931,51.1646752],[71.3680835,51.1648264],[71.3666605,51.1648871],[71.3652573,51.1650569],[71.3638389,51.1651726],[71.3624159,51.1652332],[71.3609929,51.1652938],[71.359587,51.1652602],[71.3581872,51.1652109],[71.3567851,51.1651674],[71.3553623,51.1652196],[71.3539902,51.1654623],[71.3527968,51.1659471],[71.3515888,51.166415],[71.3504235,51.1669335],[71.3493382,51.1675188],[71.3484772,51.1682083],[71.347693,51.1689646],[71.3469543,51.1697354],[71.3462311,51.1705132],[71.3453541,51.1711977],[71.3443165,51.171813],[71.3432437,51.1724069],[71.341985,51.1728259],[71.3406787,51.1731803],[71.3393052,51.1734097],[71.3378838,51.1735098],[71.3364616,51.1735116],[71.3350444,51.1734813],[71.3336403,51.1734066],[71.3322402,51.1733219],[71.3308175,51.1733753],[71.3295182,51.1737428],[71.3282246,51.1741205],[71.3269748,51.1745582],[71.3258133,51.1750752],[71.3248592,51.1757107],[71.3240263,51.1764397],[71.323166,51.1771583],[71.3222315,51.1778355],[71.3210733,51.1783638],[71.3199305,51.1789033],[71.3186859,51.1793009],[71.3175115,51.1798086],[71.3162577,51.1801807],[71.3150301,51.1806141],[71.3138082,51.1810575],[71.3125658,51.1815012],[71.311325,51.1819469],[71.3100942,51.1824046],[71.308783,51.182763],[71.3074657,51.1831111],[71.3060712,51.1833061],[71.3046556,51.1834158],[71.3032426,51.1834632],[71.3018264,51.1835447],[71.3005128,51.1838675],[71.2994323,51.1844565],[71.2983887,51.1850688],[71.2977539,51.1858706],[71.2972769,51.1867182],[71.2965112,51.1874548],[71.2955607,51.1881262]]]},"properties":{"OBJECTID":7,"NAME":"район \"Есиль\"","NAME_OBJECT":"Район","REGION":null,"KATO":null,"kind":"district","name":"район \"Есиль\"","source":"Astana municipal open geoportal","source_url":"https://gis.esaulet.kz/server/rest/services/Административные_районы/MapServer/4","sourceId":"astana-municipal-districts"}},{"type":"Feature","id":"municipal-districts-8","geometry":{"type":"Polygon","coordinates":[[[71.4425078,50.8770753],[71.3732484,50.8863297],[71.366702,50.8669047],[71.4362259,50.857604],[71.4425078,50.8770753]]]},"properties":{"OBJECTID":8,"NAME":"район \"Есиль\"","NAME_OBJECT":"Район","REGION":null,"KATO":null,"kind":"district","name":"район \"Есиль\"","source":"Astana municipal open geoportal","source_url":"https://gis.esaulet.kz/server/rest/services/Административные_районы/MapServer/4","sourceId":"astana-municipal-districts"}}]}
