{"type":"FeatureCollection","metadata":{"sourceId":"osm-major-roads","source":"https://overpass-api.de/api/interpreter","retrievedAt":"2026-09-23T11:03:56.907125+00:00","osmTimestamp":"2026-09-22T08:45:51Z","license":"ODbL 1.0","attribution":"© OpenStreetMap contributors","copyrightUrl":"https://www.openstreetmap.org/copyright","outputCrs":"EPSG:4326","queryBbox":[71.220936,50.999912,71.728067,51.301212],"bboxClipped":false,"query":"[out:json][timeout:120];(way[\"highway\"~\"^(motorway|trunk|primary|secondary)$\"](50.999912,71.220936,51.301212,71.728067););out body;>;out skel qt;","note":"Road geometry and topology only; derived importance weights are not live traffic.","sampleCap":150,"selection":"Top derived named-road intersection importance; not every city junction."},"features":[{"type":"Feature","id":"osm_node_1774446484","geometry":{"type":"Point","coordinates":[71.5038299,51.1477197]},"properties":{"osm_node_id":1774446484,"roads":["osm_way_1556619145","Абылай Хан даңғылы","Бауыржан Момышұлы даңғылы","Ғабиден Мұстафин көшесі"],"road_count":4,"importance_score":49,"source":"OpenStreetMap contributors","sourceId":"osm-major-roads","source_url":"https://www.openstreetmap.org/node/1774446484"}},{"type":"Feature","id":"osm_node_14163001992","geometry":{"type":"Point","coordinates":[71.4726273,51.1994728]},"properties":{"osm_node_id":14163001992,"roads":["osm_way_1557376811","osm_way_1557376813","osm_way_1557376819","osm_way_258806690"],"road_count":4,"importance_score":48,"source":"OpenStreetMap contributors","sourceId":"osm-major-roads","source_url":"https://www.openstreetmap.org/node/14163001992"}},{"type":"Feature","id":"osm_node_269926531","geometry":{"type":"Point","coordinates":[71.4776554,51.1564047]},"properties":{"osm_node_id":269926531,"roads":["osm_way_165569285","osm_way_263474498","osm_way_269125571","Мағжан Жұмабаев даңғылы"],"road_count":4,"importance_score":48,"source":"OpenStreetMap contributors","sourceId":"osm-major-roads","source_url":"https://www.openstreetmap.org/node/269926531"}},{"type":"Feature","id":"osm_node_330381389","geometry":{"type":"Point","coordinates":[71.4067323,51.1914034]},"properties":{"osm_node_id":330381389,"roads":["Ілияс Есенберлин көшесі","Біржан Сал көшесі","Жеңіс даңғылы","Конституция көшесі"],"road_count":4,"importance_score":48,"source":"OpenStreetMap contributors","sourceId":"osm-major-roads","source_url":"https://www.openstreetmap.org/node/330381389"}},{"type":"Feature","id":"osm_node_1771533566","geometry":{"type":"Point","coordinates":[71.3819308,51.0014086]},"properties":{"osm_node_id":1771533566,"roads":["osm_way_1441871072","osm_way_165613707","Қарқаралы тас жолы"],"road_count":3,"importance_score":42,"source":"OpenStreetMap contributors","sourceId":"osm-major-roads","source_url":"https://www.openstreetmap.org/node/1771533566"}},{"type":"Feature","id":"osm_node_268168205","geometry":{"type":"Point","coordinates":[71.5220909,51.0526677]},"properties":{"osm_node_id":268168205,"roads":["osm_way_1533036123","osm_way_284598628","Астана айналма жолы"],"road_count":3,"importance_score":40,"source":"OpenStreetMap contributors","sourceId":"osm-major-roads","source_url":"https://www.openstreetmap.org/node/268168205"}},{"type":"Feature","id":"osm_node_1460692838","geometry":{"type":"Point","coordinates":[71.3968773,51.1474346]},"properties":{"osm_node_id":1460692838,"roads":["osm_way_1409787467","osm_way_1409787468","Қорғалжын тас жолы"],"road_count":3,"importance_score":39,"source":"OpenStreetMap contributors","sourceId":"osm-major-roads","source_url":"https://www.openstreetmap.org/node/1460692838"}},{"type":"Feature","id":"osm_node_1466676030","geometry":{"type":"Point","coordinates":[71.389565,51.1774066]},"properties":{"osm_node_id":1466676030,"roads":["Бөгенбай Батыр даңғылы","Мәскеу көшесі","Нұрғиса Тілендиев даңғылы"],"road_count":3,"importance_score":39,"source":"OpenStreetMap contributors","sourceId":"osm-major-roads","source_url":"https://www.openstreetmap.org/node/1466676030"}},{"type":"Feature","id":"osm_node_1771508024","geometry":{"type":"Point","coordinates":[71.3960542,51.0702138]},"properties":{"osm_node_id":1771508024,"roads":["osm_way_165608298","osm_way_180687139","Қабанбай Батыр даңғылы"],"road_count":3,"importance_score":39,"source":"OpenStreetMap contributors","sourceId":"osm-major-roads","source_url":"https://www.openstreetmap.org/node/1771508024"}},{"type":"Feature","id":"osm_node_278444770","geometry":{"type":"Point","coordinates":[71.3896659,51.1775633]},"properties":{"osm_node_id":278444770,"roads":["Бөгенбай Батыр даңғылы","Мәскеу көшесі","Нұрғиса Тілендиев даңғылы"],"road_count":3,"importance_score":39,"source":"OpenStreetMap contributors","sourceId":"osm-major-roads","source_url":"https://www.openstreetmap.org/node/278444770"}},{"type":"Feature","id":"osm_node_1466679345","geometry":{"type":"Point","coordinates":[71.4257946,51.1713784]},"properties":{"osm_node_id":1466679345,"roads":["osm_way_1557369224","Республика даңғылы","Сәкен Сейфуллин көшесі"],"road_count":3,"importance_score":38,"source":"OpenStreetMap contributors","sourceId":"osm-major-roads","source_url":"https://www.openstreetmap.org/node/1466679345"}},{"type":"Feature","id":"osm_node_1773372176","geometry":{"type":"Point","coordinates":[71.3950802,51.1001033]},"properties":{"osm_node_id":1773372176,"roads":["Тұран даңғылы","проспект Туран","Ұлы Дала даңғылы"],"road_count":3,"importance_score":38,"source":"OpenStreetMap contributors","sourceId":"osm-major-roads","source_url":"https://www.openstreetmap.org/node/1773372176"}},{"type":"Feature","id":"osm_node_1773372185","geometry":{"type":"Point","coordinates":[71.3950445,51.1000041]},"properties":{"osm_node_id":1773372185,"roads":["Тұран даңғылы","проспект Туран","Ұлы Дала даңғылы"],"road_count":3,"importance_score":38,"source":"OpenStreetMap contributors","sourceId":"osm-major-roads","source_url":"https://www.openstreetmap.org/node/1773372185"}},{"type":"Feature","id":"osm_node_1863871389","geometry":{"type":"Point","coordinates":[71.4681203,51.1611828]},"properties":{"osm_node_id":1863871389,"roads":["Абылай Хан даңғылы","Кенесары көшесі","Пушкин көшесі"],"road_count":3,"importance_score":38,"source":"OpenStreetMap contributors","sourceId":"osm-major-roads","source_url":"https://www.openstreetmap.org/node/1863871389"}},{"type":"Feature","id":"osm_node_259996449","geometry":{"type":"Point","coordinates":[71.453638,51.1551969]},"properties":{"osm_node_id":259996449,"roads":["Александр Кравцов көшесі","Жұмабек Тәшенов көшесі","Пушкин көшесі"],"road_count":3,"importance_score":38,"source":"OpenStreetMap contributors","sourceId":"osm-major-roads","source_url":"https://www.openstreetmap.org/node/259996449"}},{"type":"Feature","id":"osm_node_315445403","geometry":{"type":"Point","coordinates":[71.6188143,51.1716612]},"properties":{"osm_node_id":315445403,"roads":["osm_way_738247812","Астана - Қостомар","Астана айналма жолы"],"road_count":3,"importance_score":38,"source":"OpenStreetMap contributors","sourceId":"osm-major-roads","source_url":"https://www.openstreetmap.org/node/315445403"}},{"type":"Feature","id":"osm_node_5843971997","geometry":{"type":"Point","coordinates":[71.4257756,51.1714431]},"properties":{"osm_node_id":5843971997,"roads":["osm_way_1557369224","Республика даңғылы","Сәкен Сейфуллин көшесі"],"road_count":3,"importance_score":38,"source":"OpenStreetMap contributors","sourceId":"osm-major-roads","source_url":"https://www.openstreetmap.org/node/5843971997"}},{"type":"Feature","id":"osm_node_1771643117","geometry":{"type":"Point","coordinates":[71.4086746,51.1372951]},"properties":{"osm_node_id":1771643117,"roads":["Сарайшық көшесі","Тұран даңғылы","Қайым Мұхамедханов көшесі"],"road_count":3,"importance_score":37,"source":"OpenStreetMap contributors","sourceId":"osm-major-roads","source_url":"https://www.openstreetmap.org/node/1771643117"}},{"type":"Feature","id":"osm_node_2019420022","geometry":{"type":"Point","coordinates":[71.4785091,51.1574326]},"properties":{"osm_node_id":2019420022,"roads":["osm_way_165569285","Абылай Хан даңғылы","Мағжан Жұмабаев даңғылы"],"road_count":3,"importance_score":37,"source":"OpenStreetMap contributors","sourceId":"osm-major-roads","source_url":"https://www.openstreetmap.org/node/2019420022"}},{"type":"Feature","id":"osm_node_2689389360","geometry":{"type":"Point","coordinates":[71.5226036,51.1405437]},"properties":{"osm_node_id":2689389360,"roads":["osm_way_167475858","osm_way_609762319","Абылай Хан даңғылы"],"road_count":3,"importance_score":37,"source":"OpenStreetMap contributors","sourceId":"osm-major-roads","source_url":"https://www.openstreetmap.org/node/2689389360"}},{"type":"Feature","id":"osm_node_339057032","geometry":{"type":"Point","coordinates":[71.4086057,51.137117]},"properties":{"osm_node_id":339057032,"roads":["Сарайшық көшесі","Тұран даңғылы","Қайым Мұхамедханов көшесі"],"road_count":3,"importance_score":37,"source":"OpenStreetMap contributors","sourceId":"osm-major-roads","source_url":"https://www.openstreetmap.org/node/339057032"}},{"type":"Feature","id":"osm_node_3405054744","geometry":{"type":"Point","coordinates":[71.5244504,51.1398121]},"properties":{"osm_node_id":3405054744,"roads":["osm_way_1456300834","osm_way_165879642","Абылай Хан даңғылы"],"road_count":3,"importance_score":37,"source":"OpenStreetMap contributors","sourceId":"osm-major-roads","source_url":"https://www.openstreetmap.org/node/3405054744"}},{"type":"Feature","id":"osm_node_4903095219","geometry":{"type":"Point","coordinates":[71.4774181,51.19866]},"properties":{"osm_node_id":4903095219,"roads":["osm_way_1202676881","osm_way_498977349","Алаш тас жолы"],"road_count":3,"importance_score":37,"source":"OpenStreetMap contributors","sourceId":"osm-major-roads","source_url":"https://www.openstreetmap.org/node/4903095219"}},{"type":"Feature","id":"osm_node_5916180441","geometry":{"type":"Point","coordinates":[71.5239106,51.1400465]},"properties":{"osm_node_id":5916180441,"roads":["osm_way_626676096","osm_way_626676098","Абылай Хан даңғылы"],"road_count":3,"importance_score":37,"source":"OpenStreetMap contributors","sourceId":"osm-major-roads","source_url":"https://www.openstreetmap.org/node/5916180441"}},{"type":"Feature","id":"osm_node_1283054341","geometry":{"type":"Point","coordinates":[71.4742497,51.1989145]},"properties":{"osm_node_id":1283054341,"roads":["osm_way_1557376811","osm_way_1557376812","osm_way_622739643"],"road_count":3,"importance_score":36,"source":"OpenStreetMap contributors","sourceId":"osm-major-roads","source_url":"https://www.openstreetmap.org/node/1283054341"}},{"type":"Feature","id":"osm_node_14157984440","geometry":{"type":"Point","coordinates":[71.5143645,51.1338532]},"properties":{"osm_node_id":14157984440,"roads":["osm_way_1556608702","osm_way_1556608706","Өзбекәлі Жәнібек көшесі"],"road_count":3,"importance_score":36,"source":"OpenStreetMap contributors","sourceId":"osm-major-roads","source_url":"https://www.openstreetmap.org/node/14157984440"}},{"type":"Feature","id":"osm_node_14158080287","geometry":{"type":"Point","coordinates":[71.4874341,51.1426465]},"properties":{"osm_node_id":14158080287,"roads":["osm_way_1556619146","osm_way_1556619147","Мағжан Жұмабаев даңғылы"],"road_count":3,"importance_score":36,"source":"OpenStreetMap contributors","sourceId":"osm-major-roads","source_url":"https://www.openstreetmap.org/node/14158080287"}},{"type":"Feature","id":"osm_node_14158080288","geometry":{"type":"Point","coordinates":[71.487561,51.1426911]},"properties":{"osm_node_id":14158080288,"roads":["osm_way_1556619145","osm_way_1556619147","Мағжан Жұмабаев даңғылы"],"road_count":3,"importance_score":36,"source":"OpenStreetMap contributors","sourceId":"osm-major-roads","source_url":"https://www.openstreetmap.org/node/14158080288"}},{"type":"Feature","id":"osm_node_1547273459","geometry":{"type":"Point","coordinates":[71.4634293,51.1096961]},"properties":{"osm_node_id":1547273459,"roads":["Иван Панфилов көшесі","Тәуелсіздік даңғылы","проспект Аль-Фараби"],"road_count":3,"importance_score":36,"source":"OpenStreetMap contributors","sourceId":"osm-major-roads","source_url":"https://www.openstreetmap.org/node/1547273459"}},{"type":"Feature","id":"osm_node_1704269857","geometry":{"type":"Point","coordinates":[71.4630902,51.1097387]},"properties":{"osm_node_id":1704269857,"roads":["Иван Панфилов көшесі","Тәуелсіздік даңғылы","проспект Аль-Фараби"],"road_count":3,"importance_score":36,"source":"OpenStreetMap contributors","sourceId":"osm-major-roads","source_url":"https://www.openstreetmap.org/node/1704269857"}},{"type":"Feature","id":"osm_node_1771654832","geometry":{"type":"Point","coordinates":[71.4687405,51.1788851]},"properties":{"osm_node_id":1771654832,"roads":["osm_way_1557379692","Жаһанша Досмұхамедұлы көшесі","проспект Акжол"],"road_count":3,"importance_score":36,"source":"OpenStreetMap contributors","sourceId":"osm-major-roads","source_url":"https://www.openstreetmap.org/node/1771654832"}},{"type":"Feature","id":"osm_node_1773561510","geometry":{"type":"Point","coordinates":[71.486234,51.1766319]},"properties":{"osm_node_id":1773561510,"roads":["osm_way_165832525","osm_way_165835031","Пушкин көшесі"],"road_count":3,"importance_score":36,"source":"OpenStreetMap contributors","sourceId":"osm-major-roads","source_url":"https://www.openstreetmap.org/node/1773561510"}},{"type":"Feature","id":"osm_node_1774378910","geometry":{"type":"Point","coordinates":[71.4778213,51.1977156]},"properties":{"osm_node_id":1774378910,"roads":["osm_way_165931390","osm_way_165931680","osm_way_239795375"],"road_count":3,"importance_score":36,"source":"OpenStreetMap contributors","sourceId":"osm-major-roads","source_url":"https://www.openstreetmap.org/node/1774378910"}},{"type":"Feature","id":"osm_node_1774381756","geometry":{"type":"Point","coordinates":[71.4762332,51.1993285]},"properties":{"osm_node_id":1774381756,"roads":["osm_way_1557376805","osm_way_1557376806","osm_way_262347826"],"road_count":3,"importance_score":36,"source":"OpenStreetMap contributors","sourceId":"osm-major-roads","source_url":"https://www.openstreetmap.org/node/1774381756"}},{"type":"Feature","id":"osm_node_1774438046","geometry":{"type":"Point","coordinates":[71.4580941,51.1295628]},"properties":{"osm_node_id":1774438046,"roads":["Бауыржан Момышұлы даңғылы","Сарайшық көшесі","проспект Рахымжана Кошкарбаева"],"road_count":3,"importance_score":36,"source":"OpenStreetMap contributors","sourceId":"osm-major-roads","source_url":"https://www.openstreetmap.org/node/1774438046"}},{"type":"Feature","id":"osm_node_1774438084","geometry":{"type":"Point","coordinates":[71.4580272,51.1294079]},"properties":{"osm_node_id":1774438084,"roads":["Бауыржан Момышұлы даңғылы","Сарайшық көшесі","проспект Рахымжана Кошкарбаева"],"road_count":3,"importance_score":36,"source":"OpenStreetMap contributors","sourceId":"osm-major-roads","source_url":"https://www.openstreetmap.org/node/1774438084"}},{"type":"Feature","id":"osm_node_1780116527","geometry":{"type":"Point","coordinates":[71.5087858,51.152754]},"properties":{"osm_node_id":1780116527,"roads":["osm_way_1556621732","Шәкәрім Құдайбердіұлы даңғылы","Ғабиден Мұстафин көшесі"],"road_count":3,"importance_score":36,"source":"OpenStreetMap contributors","sourceId":"osm-major-roads","source_url":"https://www.openstreetmap.org/node/1780116527"}},{"type":"Feature","id":"osm_node_1780118783","geometry":{"type":"Point","coordinates":[71.5288869,51.1449525]},"properties":{"osm_node_id":1780118783,"roads":["osm_way_1556602799","Рақымжан Қошқарбаев даңғылы","Шәкәрім Құдайбердіұлы даңғылы"],"road_count":3,"importance_score":36,"source":"OpenStreetMap contributors","sourceId":"osm-major-roads","source_url":"https://www.openstreetmap.org/node/1780118783"}},{"type":"Feature","id":"osm_node_1788668597","geometry":{"type":"Point","coordinates":[71.5212172,51.1402686]},"properties":{"osm_node_id":1788668597,"roads":["osm_way_167475858","osm_way_167475862","Айнакөл көшесі"],"road_count":3,"importance_score":36,"source":"OpenStreetMap contributors","sourceId":"osm-major-roads","source_url":"https://www.openstreetmap.org/node/1788668597"}},{"type":"Feature","id":"osm_node_1789487820","geometry":{"type":"Point","coordinates":[71.4541982,51.1193664]},"properties":{"osm_node_id":1789487820,"roads":["osm_way_1503565076","Жұмекен Нәжімеденов көшесі","Шәмші Қалдаяқов көшесі"],"road_count":3,"importance_score":36,"source":"OpenStreetMap contributors","sourceId":"osm-major-roads","source_url":"https://www.openstreetmap.org/node/1789487820"}},{"type":"Feature","id":"osm_node_2633404118","geometry":{"type":"Point","coordinates":[71.3988734,51.1681777]},"properties":{"osm_node_id":2633404118,"roads":["Кенжебек Күмісбеков көшесі","Сәкен Сейфуллин көшесі","Шаймерден Қосшығұлұлы көшесі"],"road_count":3,"importance_score":36,"source":"OpenStreetMap contributors","sourceId":"osm-major-roads","source_url":"https://www.openstreetmap.org/node/2633404118"}},{"type":"Feature","id":"osm_node_2643327947","geometry":{"type":"Point","coordinates":[71.4182233,51.177187]},"properties":{"osm_node_id":2643327947,"roads":["osm_way_1557395911","osm_way_259015479","Бейбітшілік көшесі"],"road_count":3,"importance_score":36,"source":"OpenStreetMap contributors","sourceId":"osm-major-roads","source_url":"https://www.openstreetmap.org/node/2643327947"}},{"type":"Feature","id":"osm_node_2680240275","geometry":{"type":"Point","coordinates":[71.4150271,51.1887694]},"properties":{"osm_node_id":2680240275,"roads":["osm_way_1557395907","Ілияс Есенберлин көшесі","Бейбітшілік көшесі"],"road_count":3,"importance_score":36,"source":"OpenStreetMap contributors","sourceId":"osm-major-roads","source_url":"https://www.openstreetmap.org/node/2680240275"}},{"type":"Feature","id":"osm_node_2744156163","geometry":{"type":"Point","coordinates":[71.4582103,51.129381]},"properties":{"osm_node_id":2744156163,"roads":["Бауыржан Момышұлы даңғылы","Рақымжан Қошқарбаев даңғылы","проспект Рахымжана Кошкарбаева"],"road_count":3,"importance_score":36,"source":"OpenStreetMap contributors","sourceId":"osm-major-roads","source_url":"https://www.openstreetmap.org/node/2744156163"}},{"type":"Feature","id":"osm_node_2744156166","geometry":{"type":"Point","coordinates":[71.4582639,51.1295363]},"properties":{"osm_node_id":2744156166,"roads":["Бауыржан Момышұлы даңғылы","Рақымжан Қошқарбаев даңғылы","проспект Рахымжана Кошкарбаева"],"road_count":3,"importance_score":36,"source":"OpenStreetMap contributors","sourceId":"osm-major-roads","source_url":"https://www.openstreetmap.org/node/2744156166"}},{"type":"Feature","id":"osm_node_277328631","geometry":{"type":"Point","coordinates":[71.4736817,51.1990296]},"properties":{"osm_node_id":277328631,"roads":["191-ші көше","osm_way_1557376812","osm_way_25448298"],"road_count":3,"importance_score":36,"source":"OpenStreetMap contributors","sourceId":"osm-major-roads","source_url":"https://www.openstreetmap.org/node/277328631"}},{"type":"Feature","id":"osm_node_4903384438","geometry":{"type":"Point","coordinates":[71.4561165,51.1828155]},"properties":{"osm_node_id":4903384438,"roads":["osm_way_1557379683","проспект Акжол","Әл-Фараби даңғылы"],"road_count":3,"importance_score":36,"source":"OpenStreetMap contributors","sourceId":"osm-major-roads","source_url":"https://www.openstreetmap.org/node/4903384438"}},{"type":"Feature","id":"osm_node_4955087309","geometry":{"type":"Point","coordinates":[71.4991651,51.1199075]},"properties":{"osm_node_id":4955087309,"roads":["osm_way_1517541522","osm_way_515289210","Ахмет Байтұрсынов даңғылы"],"road_count":3,"importance_score":36,"source":"OpenStreetMap contributors","sourceId":"osm-major-roads","source_url":"https://www.openstreetmap.org/node/4955087309"}},{"type":"Feature","id":"osm_node_4955087310","geometry":{"type":"Point","coordinates":[71.499201,51.1199973]},"properties":{"osm_node_id":4955087310,"roads":["osm_way_515289210","Ахмет Байтұрсынов даңғылы","Мағжан Жұмабаев даңғылы"],"road_count":3,"importance_score":36,"source":"OpenStreetMap contributors","sourceId":"osm-major-roads","source_url":"https://www.openstreetmap.org/node/4955087310"}},{"type":"Feature","id":"osm_node_5032641320","geometry":{"type":"Point","coordinates":[71.4989829,51.1199356]},"properties":{"osm_node_id":5032641320,"roads":["osm_way_1517541521","osm_way_521199463","Ахмет Байтұрсынов даңғылы"],"road_count":3,"importance_score":36,"source":"OpenStreetMap contributors","sourceId":"osm-major-roads","source_url":"https://www.openstreetmap.org/node/5032641320"}},{"type":"Feature","id":"osm_node_5032642021","geometry":{"type":"Point","coordinates":[71.4990169,51.1200265]},"properties":{"osm_node_id":5032642021,"roads":["osm_way_521199463","Ахмет Байтұрсынов даңғылы","Мағжан Жұмабаев даңғылы"],"road_count":3,"importance_score":36,"source":"OpenStreetMap contributors","sourceId":"osm-major-roads","source_url":"https://www.openstreetmap.org/node/5032642021"}},{"type":"Feature","id":"osm_node_5843971370","geometry":{"type":"Point","coordinates":[71.3988453,51.1682652]},"properties":{"osm_node_id":5843971370,"roads":["Кенжебек Күмісбеков көшесі","Сәкен Сейфуллин көшесі","Шаймерден Қосшығұлұлы көшесі"],"road_count":3,"importance_score":36,"source":"OpenStreetMap contributors","sourceId":"osm-major-roads","source_url":"https://www.openstreetmap.org/node/5843971370"}},{"type":"Feature","id":"osm_node_697288685","geometry":{"type":"Point","coordinates":[71.3761549,51.2508266]},"properties":{"osm_node_id":697288685,"roads":["osm_way_243512125","osm_way_247907875","Өндіріс тас жолы"],"road_count":3,"importance_score":36,"source":"OpenStreetMap contributors","sourceId":"osm-major-roads","source_url":"https://www.openstreetmap.org/node/697288685"}},{"type":"Feature","id":"osm_node_849316725","geometry":{"type":"Point","coordinates":[71.454076,51.1193848]},"properties":{"osm_node_id":849316725,"roads":["osm_way_1503565077","Жұмекен Нәжімеденов көшесі","Шәмші Қалдаяқов көшесі"],"road_count":3,"importance_score":36,"source":"OpenStreetMap contributors","sourceId":"osm-major-roads","source_url":"https://www.openstreetmap.org/node/849316725"}},{"type":"Feature","id":"osm_node_9554952288","geometry":{"type":"Point","coordinates":[71.454774,51.1035008]},"properties":{"osm_node_id":9554952288,"roads":["Керей Және Жәнібек Хандар көшесі","проспект Аль-Фараби","Әл-Фараби даңғылы"],"road_count":3,"importance_score":36,"source":"OpenStreetMap contributors","sourceId":"osm-major-roads","source_url":"https://www.openstreetmap.org/node/9554952288"}},{"type":"Feature","id":"osm_node_9554952294","geometry":{"type":"Point","coordinates":[71.4545638,51.1036139]},"properties":{"osm_node_id":9554952294,"roads":["Керей Және Жәнібек Хандар көшесі","проспект Аль-Фараби","Әл-Фараби даңғылы"],"road_count":3,"importance_score":36,"source":"OpenStreetMap contributors","sourceId":"osm-major-roads","source_url":"https://www.openstreetmap.org/node/9554952294"}},{"type":"Feature","id":"osm_node_3203198629","geometry":{"type":"Point","coordinates":[71.369578,51.2656253]},"properties":{"osm_node_id":3203198629,"roads":["osm_way_466872745","Астана — Боровое"],"road_count":2,"importance_score":30,"source":"OpenStreetMap contributors","sourceId":"osm-major-roads","source_url":"https://www.openstreetmap.org/node/3203198629"}},{"type":"Feature","id":"osm_node_3237542728","geometry":{"type":"Point","coordinates":[71.3698546,51.2656971]},"properties":{"osm_node_id":3237542728,"roads":["osm_way_243512124","Астана-Боровое"],"road_count":2,"importance_score":30,"source":"OpenStreetMap contributors","sourceId":"osm-major-roads","source_url":"https://www.openstreetmap.org/node/3237542728"}},{"type":"Feature","id":"osm_node_697288708","geometry":{"type":"Point","coordinates":[71.3718921,51.260423]},"properties":{"osm_node_id":697288708,"roads":["osm_way_466872745","osm_way_55490480"],"road_count":2,"importance_score":30,"source":"OpenStreetMap contributors","sourceId":"osm-major-roads","source_url":"https://www.openstreetmap.org/node/697288708"}},{"type":"Feature","id":"osm_node_697292546","geometry":{"type":"Point","coordinates":[71.3721283,51.2604273]},"properties":{"osm_node_id":697292546,"roads":["osm_way_122102404","osm_way_243512124"],"road_count":2,"importance_score":30,"source":"OpenStreetMap contributors","sourceId":"osm-major-roads","source_url":"https://www.openstreetmap.org/node/697292546"}},{"type":"Feature","id":"osm_node_5900124124","geometry":{"type":"Point","coordinates":[71.3735327,51.2570196]},"properties":{"osm_node_id":5900124124,"roads":["osm_way_122102404","osm_way_624810643"],"road_count":2,"importance_score":29,"source":"OpenStreetMap contributors","sourceId":"osm-major-roads","source_url":"https://www.openstreetmap.org/node/5900124124"}},{"type":"Feature","id":"osm_node_5900124125","geometry":{"type":"Point","coordinates":[71.3734139,51.257007]},"properties":{"osm_node_id":5900124125,"roads":["osm_way_55490480","osm_way_624810644"],"road_count":2,"importance_score":29,"source":"OpenStreetMap contributors","sourceId":"osm-major-roads","source_url":"https://www.openstreetmap.org/node/5900124125"}},{"type":"Feature","id":"osm_node_6232505117","geometry":{"type":"Point","coordinates":[71.6219735,51.2839086]},"properties":{"osm_node_id":6232505117,"roads":["Астана — Ерментау","Астана — Павлодар"],"road_count":2,"importance_score":29,"source":"OpenStreetMap contributors","sourceId":"osm-major-roads","source_url":"https://www.openstreetmap.org/node/6232505117"}},{"type":"Feature","id":"osm_node_13235934785","geometry":{"type":"Point","coordinates":[71.2412063,51.2267645]},"properties":{"osm_node_id":13235934785,"roads":["osm_way_1442521650","osm_way_166127546"],"road_count":2,"importance_score":28,"source":"OpenStreetMap contributors","sourceId":"osm-major-roads","source_url":"https://www.openstreetmap.org/node/13235934785"}},{"type":"Feature","id":"osm_node_13235934786","geometry":{"type":"Point","coordinates":[71.2411059,51.2266502]},"properties":{"osm_node_id":13235934786,"roads":["osm_way_1442521651","osm_way_166127945"],"road_count":2,"importance_score":28,"source":"OpenStreetMap contributors","sourceId":"osm-major-roads","source_url":"https://www.openstreetmap.org/node/13235934786"}},{"type":"Feature","id":"osm_node_13249155083","geometry":{"type":"Point","coordinates":[71.7020982,51.107675]},"properties":{"osm_node_id":13249155083,"roads":["osm_way_1443860464","osm_way_258610081"],"road_count":2,"importance_score":28,"source":"OpenStreetMap contributors","sourceId":"osm-major-roads","source_url":"https://www.openstreetmap.org/node/13249155083"}},{"type":"Feature","id":"osm_node_13970715036","geometry":{"type":"Point","coordinates":[71.4854109,51.047109]},"properties":{"osm_node_id":13970715036,"roads":["osm_way_1533036126","Астана айналма жолы"],"road_count":2,"importance_score":28,"source":"OpenStreetMap contributors","sourceId":"osm-major-roads","source_url":"https://www.openstreetmap.org/node/13970715036"}},{"type":"Feature","id":"osm_node_1487047320","geometry":{"type":"Point","coordinates":[71.3002606,51.203996]},"properties":{"osm_node_id":1487047320,"roads":["osm_way_1442521650","osm_way_318837496"],"road_count":2,"importance_score":28,"source":"OpenStreetMap contributors","sourceId":"osm-major-roads","source_url":"https://www.openstreetmap.org/node/1487047320"}},{"type":"Feature","id":"osm_node_1771525386","geometry":{"type":"Point","coordinates":[71.5221198,51.0525614]},"properties":{"osm_node_id":1771525386,"roads":["osm_way_1533036123","Астана айналма жолы"],"road_count":2,"importance_score":28,"source":"OpenStreetMap contributors","sourceId":"osm-major-roads","source_url":"https://www.openstreetmap.org/node/1771525386"}},{"type":"Feature","id":"osm_node_1771525450","geometry":{"type":"Point","coordinates":[71.5126045,51.0515348]},"properties":{"osm_node_id":1771525450,"roads":["osm_way_1533036125","Астана айналма жолы"],"road_count":2,"importance_score":28,"source":"OpenStreetMap contributors","sourceId":"osm-major-roads","source_url":"https://www.openstreetmap.org/node/1771525450"}},{"type":"Feature","id":"osm_node_1784289659","geometry":{"type":"Point","coordinates":[71.6260429,51.1256766]},"properties":{"osm_node_id":1784289659,"roads":["osm_way_242323316","osm_way_24956606"],"road_count":2,"importance_score":28,"source":"OpenStreetMap contributors","sourceId":"osm-major-roads","source_url":"https://www.openstreetmap.org/node/1784289659"}},{"type":"Feature","id":"osm_node_1998767786","geometry":{"type":"Point","coordinates":[71.3428898,51.2500519]},"properties":{"osm_node_id":1998767786,"roads":["osm_way_1533051197","Астана айналма жолы"],"road_count":2,"importance_score":28,"source":"OpenStreetMap contributors","sourceId":"osm-major-roads","source_url":"https://www.openstreetmap.org/node/1998767786"}},{"type":"Feature","id":"osm_node_2515158867","geometry":{"type":"Point","coordinates":[71.6837009,51.1122488]},"properties":{"osm_node_id":2515158867,"roads":["osm_way_24956145","osm_way_608678294"],"road_count":2,"importance_score":28,"source":"OpenStreetMap contributors","sourceId":"osm-major-roads","source_url":"https://www.openstreetmap.org/node/2515158867"}},{"type":"Feature","id":"osm_node_259012731","geometry":{"type":"Point","coordinates":[71.3815508,51.0039076]},"properties":{"osm_node_id":259012731,"roads":["osm_way_165613707","Қарқаралы тас жолы"],"road_count":2,"importance_score":28,"source":"OpenStreetMap contributors","sourceId":"osm-major-roads","source_url":"https://www.openstreetmap.org/node/259012731"}},{"type":"Feature","id":"osm_node_2615970234","geometry":{"type":"Point","coordinates":[71.5970463,51.2598559]},"properties":{"osm_node_id":2615970234,"roads":["osm_way_548495052","Алаш тас жолы"],"road_count":2,"importance_score":28,"source":"OpenStreetMap contributors","sourceId":"osm-major-roads","source_url":"https://www.openstreetmap.org/node/2615970234"}},{"type":"Feature","id":"osm_node_2615970235","geometry":{"type":"Point","coordinates":[71.596908,51.2599561]},"properties":{"osm_node_id":2615970235,"roads":["osm_way_548495052","Алаш тас жолы"],"road_count":2,"importance_score":28,"source":"OpenStreetMap contributors","sourceId":"osm-major-roads","source_url":"https://www.openstreetmap.org/node/2615970235"}},{"type":"Feature","id":"osm_node_2639442872","geometry":{"type":"Point","coordinates":[71.7118176,51.1045698]},"properties":{"osm_node_id":2639442872,"roads":["osm_way_1443860464","osm_way_228228928"],"road_count":2,"importance_score":28,"source":"OpenStreetMap contributors","sourceId":"osm-major-roads","source_url":"https://www.openstreetmap.org/node/2639442872"}},{"type":"Feature","id":"osm_node_2639443171","geometry":{"type":"Point","coordinates":[71.6836679,51.1121692]},"properties":{"osm_node_id":2639443171,"roads":["osm_way_258610081","osm_way_608678308"],"road_count":2,"importance_score":28,"source":"OpenStreetMap contributors","sourceId":"osm-major-roads","source_url":"https://www.openstreetmap.org/node/2639443171"}},{"type":"Feature","id":"osm_node_2639443277","geometry":{"type":"Point","coordinates":[71.6584139,51.1185904]},"properties":{"osm_node_id":2639443277,"roads":["osm_way_242323314","osm_way_608678308"],"road_count":2,"importance_score":28,"source":"OpenStreetMap contributors","sourceId":"osm-major-roads","source_url":"https://www.openstreetmap.org/node/2639443277"}},{"type":"Feature","id":"osm_node_268168203","geometry":{"type":"Point","coordinates":[71.5125854,51.0516418]},"properties":{"osm_node_id":268168203,"roads":["osm_way_1533036125","Астана айналма жолы"],"road_count":2,"importance_score":28,"source":"OpenStreetMap contributors","sourceId":"osm-major-roads","source_url":"https://www.openstreetmap.org/node/268168203"}},{"type":"Feature","id":"osm_node_271188377","geometry":{"type":"Point","coordinates":[71.6584776,51.1186686]},"properties":{"osm_node_id":271188377,"roads":["osm_way_24956606","osm_way_608678294"],"road_count":2,"importance_score":28,"source":"OpenStreetMap contributors","sourceId":"osm-major-roads","source_url":"https://www.openstreetmap.org/node/271188377"}},{"type":"Feature","id":"osm_node_3252204292","geometry":{"type":"Point","coordinates":[71.3069794,51.200828]},"properties":{"osm_node_id":3252204292,"roads":["osm_way_318837496","Нұрғиса Тілендиев даңғылы"],"road_count":2,"importance_score":28,"source":"OpenStreetMap contributors","sourceId":"osm-major-roads","source_url":"https://www.openstreetmap.org/node/3252204292"}},{"type":"Feature","id":"osm_node_3252204293","geometry":{"type":"Point","coordinates":[71.3068436,51.2007032]},"properties":{"osm_node_id":3252204293,"roads":["osm_way_166127945","osm_way_318837493"],"road_count":2,"importance_score":28,"source":"OpenStreetMap contributors","sourceId":"osm-major-roads","source_url":"https://www.openstreetmap.org/node/3252204293"}},{"type":"Feature","id":"osm_node_6232505118","geometry":{"type":"Point","coordinates":[71.6044679,51.2660222]},"properties":{"osm_node_id":6232505118,"roads":["Алаш тас жолы","Астана — Ерментау"],"road_count":2,"importance_score":28,"source":"OpenStreetMap contributors","sourceId":"osm-major-roads","source_url":"https://www.openstreetmap.org/node/6232505118"}},{"type":"Feature","id":"osm_node_6232505119","geometry":{"type":"Point","coordinates":[71.6046304,51.2659376]},"properties":{"osm_node_id":6232505119,"roads":["Алаш тас жолы","Астана — Ерментау"],"road_count":2,"importance_score":28,"source":"OpenStreetMap contributors","sourceId":"osm-major-roads","source_url":"https://www.openstreetmap.org/node/6232505119"}},{"type":"Feature","id":"osm_node_6449383277","geometry":{"type":"Point","coordinates":[71.3429748,51.2499802]},"properties":{"osm_node_id":6449383277,"roads":["osm_way_1533051197","Астана айналма жолы"],"road_count":2,"importance_score":28,"source":"OpenStreetMap contributors","sourceId":"osm-major-roads","source_url":"https://www.openstreetmap.org/node/6449383277"}},{"type":"Feature","id":"osm_node_697282741","geometry":{"type":"Point","coordinates":[71.7118859,51.1046429]},"properties":{"osm_node_id":697282741,"roads":["osm_way_24956145","osm_way_436883388"],"road_count":2,"importance_score":28,"source":"OpenStreetMap contributors","sourceId":"osm-major-roads","source_url":"https://www.openstreetmap.org/node/697282741"}},{"type":"Feature","id":"osm_node_697288699","geometry":{"type":"Point","coordinates":[71.3742488,51.2554139]},"properties":{"osm_node_id":697288699,"roads":["osm_way_247907886","osm_way_55490478"],"road_count":2,"importance_score":28,"source":"OpenStreetMap contributors","sourceId":"osm-major-roads","source_url":"https://www.openstreetmap.org/node/697288699"}},{"type":"Feature","id":"osm_node_697288700","geometry":{"type":"Point","coordinates":[71.3738794,51.2562836]},"properties":{"osm_node_id":697288700,"roads":["osm_way_247907886","osm_way_624810643"],"road_count":2,"importance_score":28,"source":"OpenStreetMap contributors","sourceId":"osm-major-roads","source_url":"https://www.openstreetmap.org/node/697288700"}},{"type":"Feature","id":"osm_node_697288701","geometry":{"type":"Point","coordinates":[71.3741322,51.2553942]},"properties":{"osm_node_id":697288701,"roads":["osm_way_247907888","osm_way_247907890"],"road_count":2,"importance_score":28,"source":"OpenStreetMap contributors","sourceId":"osm-major-roads","source_url":"https://www.openstreetmap.org/node/697288701"}},{"type":"Feature","id":"osm_node_697291580","geometry":{"type":"Point","coordinates":[71.3737614,51.2562637]},"properties":{"osm_node_id":697291580,"roads":["osm_way_247907890","osm_way_624810644"],"road_count":2,"importance_score":28,"source":"OpenStreetMap contributors","sourceId":"osm-major-roads","source_url":"https://www.openstreetmap.org/node/697291580"}},{"type":"Feature","id":"osm_node_9880787778","geometry":{"type":"Point","coordinates":[71.4855109,51.0470205]},"properties":{"osm_node_id":9880787778,"roads":["osm_way_1533036126","Астана айналма жолы"],"road_count":2,"importance_score":28,"source":"OpenStreetMap contributors","sourceId":"osm-major-roads","source_url":"https://www.openstreetmap.org/node/9880787778"}},{"type":"Feature","id":"osm_node_1436376546","geometry":{"type":"Point","coordinates":[71.6202592,51.1266678]},"properties":{"osm_node_id":1436376546,"roads":["osm_way_242323316","Астана-Қарағанды тас жолы"],"road_count":2,"importance_score":27,"source":"OpenStreetMap contributors","sourceId":"osm-major-roads","source_url":"https://www.openstreetmap.org/node/1436376546"}},{"type":"Feature","id":"osm_node_1542291990","geometry":{"type":"Point","coordinates":[71.3079939,51.2001038]},"properties":{"osm_node_id":1542291990,"roads":["osm_way_318837493","Нұрғиса Тілендиев даңғылы"],"road_count":2,"importance_score":27,"source":"OpenStreetMap contributors","sourceId":"osm-major-roads","source_url":"https://www.openstreetmap.org/node/1542291990"}},{"type":"Feature","id":"osm_node_1784306004","geometry":{"type":"Point","coordinates":[71.6199977,51.1265988]},"properties":{"osm_node_id":1784306004,"roads":["osm_way_242323314","Астана-Қарағанды тас жолы"],"road_count":2,"importance_score":27,"source":"OpenStreetMap contributors","sourceId":"osm-major-roads","source_url":"https://www.openstreetmap.org/node/1784306004"}},{"type":"Feature","id":"osm_node_6096531136","geometry":{"type":"Point","coordinates":[71.3805272,51.022875]},"properties":{"osm_node_id":6096531136,"roads":["Қарқаралы тас жолы","Қарқаралы тас жолы көшесі"],"road_count":2,"importance_score":27,"source":"OpenStreetMap contributors","sourceId":"osm-major-roads","source_url":"https://www.openstreetmap.org/node/6096531136"}},{"type":"Feature","id":"osm_node_6612704826","geometry":{"type":"Point","coordinates":[71.3808364,51.0228409]},"properties":{"osm_node_id":6612704826,"roads":["osm_way_1441871072","osm_way_165608298"],"road_count":2,"importance_score":27,"source":"OpenStreetMap contributors","sourceId":"osm-major-roads","source_url":"https://www.openstreetmap.org/node/6612704826"}},{"type":"Feature","id":"osm_node_10700873809","geometry":{"type":"Point","coordinates":[71.4613095,51.0300932]},"properties":{"osm_node_id":10700873809,"roads":["osm_way_1150323593","Қабанбай Батыр даңғылы"],"road_count":2,"importance_score":26,"source":"OpenStreetMap contributors","sourceId":"osm-major-roads","source_url":"https://www.openstreetmap.org/node/10700873809"}},{"type":"Feature","id":"osm_node_10810571255","geometry":{"type":"Point","coordinates":[71.3923049,51.1481298]},"properties":{"osm_node_id":10810571255,"roads":["osm_way_1533000109","Қорғалжын тас жолы"],"road_count":2,"importance_score":26,"source":"OpenStreetMap contributors","sourceId":"osm-major-roads","source_url":"https://www.openstreetmap.org/node/10810571255"}},{"type":"Feature","id":"osm_node_11264570803","geometry":{"type":"Point","coordinates":[71.4060347,51.1306281]},"properties":{"osm_node_id":11264570803,"roads":["Сарыарқа даңғылы","Тұран даңғылы"],"road_count":2,"importance_score":26,"source":"OpenStreetMap contributors","sourceId":"osm-major-roads","source_url":"https://www.openstreetmap.org/node/11264570803"}},{"type":"Feature","id":"osm_node_1238541401","geometry":{"type":"Point","coordinates":[71.4387646,51.178905]},"properties":{"osm_node_id":1238541401,"roads":["Алаш тас жолы","Бөгенбай Батыр даңғылы"],"road_count":2,"importance_score":26,"source":"OpenStreetMap contributors","sourceId":"osm-major-roads","source_url":"https://www.openstreetmap.org/node/1238541401"}},{"type":"Feature","id":"osm_node_1238541518","geometry":{"type":"Point","coordinates":[71.4316661,51.1539419]},"properties":{"osm_node_id":1238541518,"roads":["osm_way_107829237","Жұмабек Тәшенов көшесі"],"road_count":2,"importance_score":26,"source":"OpenStreetMap contributors","sourceId":"osm-major-roads","source_url":"https://www.openstreetmap.org/node/1238541518"}},{"type":"Feature","id":"osm_node_1238541609","geometry":{"type":"Point","coordinates":[71.4311994,51.154204]},"properties":{"osm_node_id":1238541609,"roads":["osm_way_107829237","Республика даңғылы"],"road_count":2,"importance_score":26,"source":"OpenStreetMap contributors","sourceId":"osm-major-roads","source_url":"https://www.openstreetmap.org/node/1238541609"}},{"type":"Feature","id":"osm_node_1238541651","geometry":{"type":"Point","coordinates":[71.4183895,51.1765142]},"properties":{"osm_node_id":1238541651,"roads":["Бейбітшілік көшесі","Бөгенбай Батыр даңғылы"],"road_count":2,"importance_score":26,"source":"OpenStreetMap contributors","sourceId":"osm-major-roads","source_url":"https://www.openstreetmap.org/node/1238541651"}},{"type":"Feature","id":"osm_node_1238541687","geometry":{"type":"Point","coordinates":[71.4313339,51.1542887]},"properties":{"osm_node_id":1238541687,"roads":["osm_way_107829319","Республика даңғылы"],"road_count":2,"importance_score":26,"source":"OpenStreetMap contributors","sourceId":"osm-major-roads","source_url":"https://www.openstreetmap.org/node/1238541687"}},{"type":"Feature","id":"osm_node_1238541753","geometry":{"type":"Point","coordinates":[71.4241532,51.1771481]},"properties":{"osm_node_id":1238541753,"roads":["Бөгенбай Батыр даңғылы","Республика даңғылы"],"road_count":2,"importance_score":26,"source":"OpenStreetMap contributors","sourceId":"osm-major-roads","source_url":"https://www.openstreetmap.org/node/1238541753"}},{"type":"Feature","id":"osm_node_12747309499","geometry":{"type":"Point","coordinates":[71.4366885,51.1785367]},"properties":{"osm_node_id":12747309499,"roads":["Бөгенбай Батыр даңғылы","Шоқан Уәлиханов көшесі"],"road_count":2,"importance_score":26,"source":"OpenStreetMap contributors","sourceId":"osm-major-roads","source_url":"https://www.openstreetmap.org/node/12747309499"}},{"type":"Feature","id":"osm_node_12752188207","geometry":{"type":"Point","coordinates":[71.4064013,51.1752292]},"properties":{"osm_node_id":12752188207,"roads":["Бөгенбай Батыр даңғылы","Сарыарқа даңғылы"],"road_count":2,"importance_score":26,"source":"OpenStreetMap contributors","sourceId":"osm-major-roads","source_url":"https://www.openstreetmap.org/node/12752188207"}},{"type":"Feature","id":"osm_node_1275709160","geometry":{"type":"Point","coordinates":[71.4584409,51.1906247]},"properties":{"osm_node_id":1275709160,"roads":["osm_way_262346414","Алаш тас жолы"],"road_count":2,"importance_score":26,"source":"OpenStreetMap contributors","sourceId":"osm-major-roads","source_url":"https://www.openstreetmap.org/node/1275709160"}},{"type":"Feature","id":"osm_node_1279984943","geometry":{"type":"Point","coordinates":[71.4065554,51.1458564]},"properties":{"osm_node_id":1279984943,"roads":["Аягөз көшесі","Қорғалжын тас жолы"],"road_count":2,"importance_score":26,"source":"OpenStreetMap contributors","sourceId":"osm-major-roads","source_url":"https://www.openstreetmap.org/node/1279984943"}},{"type":"Feature","id":"osm_node_12954326459","geometry":{"type":"Point","coordinates":[71.3968438,51.1472941]},"properties":{"osm_node_id":12954326459,"roads":["osm_way_1409787467","Қорғалжын тас жолы"],"road_count":2,"importance_score":26,"source":"OpenStreetMap contributors","sourceId":"osm-major-roads","source_url":"https://www.openstreetmap.org/node/12954326459"}},{"type":"Feature","id":"osm_node_1315841851","geometry":{"type":"Point","coordinates":[71.2532798,51.1098781]},"properties":{"osm_node_id":1315841851,"roads":["Исатай Батыр көшесі","Қорғалжын тас жолы"],"road_count":2,"importance_score":26,"source":"OpenStreetMap contributors","sourceId":"osm-major-roads","source_url":"https://www.openstreetmap.org/node/1315841851"}},{"type":"Feature","id":"osm_node_1315841914","geometry":{"type":"Point","coordinates":[71.2920977,51.1236502]},"properties":{"osm_node_id":1315841914,"roads":["Шота Руставели көшесі","Қорғалжын тас жолы"],"road_count":2,"importance_score":26,"source":"OpenStreetMap contributors","sourceId":"osm-major-roads","source_url":"https://www.openstreetmap.org/node/1315841914"}},{"type":"Feature","id":"osm_node_1342872468","geometry":{"type":"Point","coordinates":[71.3964579,51.1760886]},"properties":{"osm_node_id":1342872468,"roads":["Бекетай көшесі","Бөгенбай Батыр даңғылы"],"road_count":2,"importance_score":26,"source":"OpenStreetMap contributors","sourceId":"osm-major-roads","source_url":"https://www.openstreetmap.org/node/1342872468"}},{"type":"Feature","id":"osm_node_1348918366","geometry":{"type":"Point","coordinates":[71.4630214,51.192513]},"properties":{"osm_node_id":1348918366,"roads":["Алаш тас жолы","Михаил Шолохов көшесі"],"road_count":2,"importance_score":26,"source":"OpenStreetMap contributors","sourceId":"osm-major-roads","source_url":"https://www.openstreetmap.org/node/1348918366"}},{"type":"Feature","id":"osm_node_13685178400","geometry":{"type":"Point","coordinates":[71.406058,51.1306863]},"properties":{"osm_node_id":13685178400,"roads":["Сарыарқа даңғылы","Тұран даңғылы"],"road_count":2,"importance_score":26,"source":"OpenStreetMap contributors","sourceId":"osm-major-roads","source_url":"https://www.openstreetmap.org/node/13685178400"}},{"type":"Feature","id":"osm_node_14162863838","geometry":{"type":"Point","coordinates":[71.4120353,51.1460459]},"properties":{"osm_node_id":14162863838,"roads":["Тұран даңғылы","Қорғалжын тас жолы"],"road_count":2,"importance_score":26,"source":"OpenStreetMap contributors","sourceId":"osm-major-roads","source_url":"https://www.openstreetmap.org/node/14162863838"}},{"type":"Feature","id":"osm_node_14163000285","geometry":{"type":"Point","coordinates":[71.4240153,51.1771365]},"properties":{"osm_node_id":14163000285,"roads":["Бөгенбай Батыр даңғылы","Республика даңғылы"],"road_count":2,"importance_score":26,"source":"OpenStreetMap contributors","sourceId":"osm-major-roads","source_url":"https://www.openstreetmap.org/node/14163000285"}},{"type":"Feature","id":"osm_node_1460692808","geometry":{"type":"Point","coordinates":[71.4065797,51.1459734]},"properties":{"osm_node_id":1460692808,"roads":["Аягөз көшесі","Қорғалжын тас жолы"],"road_count":2,"importance_score":26,"source":"OpenStreetMap contributors","sourceId":"osm-major-roads","source_url":"https://www.openstreetmap.org/node/1460692808"}},{"type":"Feature","id":"osm_node_1771507962","geometry":{"type":"Point","coordinates":[71.3955509,51.0707706]},"properties":{"osm_node_id":1771507962,"roads":["osm_way_180687139","Тұран даңғылы"],"road_count":2,"importance_score":26,"source":"OpenStreetMap contributors","sourceId":"osm-major-roads","source_url":"https://www.openstreetmap.org/node/1771507962"}},{"type":"Feature","id":"osm_node_1771507966","geometry":{"type":"Point","coordinates":[71.3963803,51.0705415]},"properties":{"osm_node_id":1771507966,"roads":["osm_way_180687139","Қабанбай Батыр даңғылы"],"road_count":2,"importance_score":26,"source":"OpenStreetMap contributors","sourceId":"osm-major-roads","source_url":"https://www.openstreetmap.org/node/1771507966"}},{"type":"Feature","id":"osm_node_1771508100","geometry":{"type":"Point","coordinates":[71.3954044,51.0703707]},"properties":{"osm_node_id":1771508100,"roads":["osm_way_180687139","Қарқаралы тас жолы көшесі"],"road_count":2,"importance_score":26,"source":"OpenStreetMap contributors","sourceId":"osm-major-roads","source_url":"https://www.openstreetmap.org/node/1771508100"}},{"type":"Feature","id":"osm_node_1771533597","geometry":{"type":"Point","coordinates":[71.3816409,51.0032263]},"properties":{"osm_node_id":1771533597,"roads":["osm_way_165613707","Республика көшесі"],"road_count":2,"importance_score":26,"source":"OpenStreetMap contributors","sourceId":"osm-major-roads","source_url":"https://www.openstreetmap.org/node/1771533597"}},{"type":"Feature","id":"osm_node_1774356817","geometry":{"type":"Point","coordinates":[71.4683205,51.1611077]},"properties":{"osm_node_id":1774356817,"roads":["Абылай Хан даңғылы","Пушкин көшесі"],"road_count":2,"importance_score":26,"source":"OpenStreetMap contributors","sourceId":"osm-major-roads","source_url":"https://www.openstreetmap.org/node/1774356817"}},{"type":"Feature","id":"osm_node_1774384918","geometry":{"type":"Point","coordinates":[71.4902415,51.204445]},"properties":{"osm_node_id":1774384918,"roads":["69-шы көше","Алаш тас жолы"],"road_count":2,"importance_score":26,"source":"OpenStreetMap contributors","sourceId":"osm-major-roads","source_url":"https://www.openstreetmap.org/node/1774384918"}},{"type":"Feature","id":"osm_node_1911357173","geometry":{"type":"Point","coordinates":[71.3953522,51.0705374]},"properties":{"osm_node_id":1911357173,"roads":["osm_way_180687139","Тұран даңғылы"],"road_count":2,"importance_score":26,"source":"OpenStreetMap contributors","sourceId":"osm-major-roads","source_url":"https://www.openstreetmap.org/node/1911357173"}},{"type":"Feature","id":"osm_node_2445563643","geometry":{"type":"Point","coordinates":[71.3935684,51.1766433]},"properties":{"osm_node_id":2445563643,"roads":["Бөгенбай Батыр даңғылы","Сарыбұлақ көшесі"],"road_count":2,"importance_score":26,"source":"OpenStreetMap contributors","sourceId":"osm-major-roads","source_url":"https://www.openstreetmap.org/node/2445563643"}},{"type":"Feature","id":"osm_node_2475660738","geometry":{"type":"Point","coordinates":[71.2533783,51.1097803]},"properties":{"osm_node_id":2475660738,"roads":["Исатай Батыр көшесі","Қорғалжын тас жолы"],"road_count":2,"importance_score":26,"source":"OpenStreetMap contributors","sourceId":"osm-major-roads","source_url":"https://www.openstreetmap.org/node/2475660738"}},{"type":"Feature","id":"osm_node_2475660739","geometry":{"type":"Point","coordinates":[71.2223231,51.0987195]},"properties":{"osm_node_id":2475660739,"roads":["osm_way_624042311","Қорғалжын тас жолы"],"road_count":2,"importance_score":26,"source":"OpenStreetMap contributors","sourceId":"osm-major-roads","source_url":"https://www.openstreetmap.org/node/2475660739"}},{"type":"Feature","id":"osm_node_2506349991","geometry":{"type":"Point","coordinates":[71.38184,51.0032311]},"properties":{"osm_node_id":2506349991,"roads":["osm_way_1441871072","Республика көшесі"],"road_count":2,"importance_score":26,"source":"OpenStreetMap contributors","sourceId":"osm-major-roads","source_url":"https://www.openstreetmap.org/node/2506349991"}},{"type":"Feature","id":"osm_node_2516210964","geometry":{"type":"Point","coordinates":[71.5285571,51.138262]},"properties":{"osm_node_id":2516210964,"roads":["Абылай Хан даңғылы","Астана-Қарағанды тас жолы"],"road_count":2,"importance_score":26,"source":"OpenStreetMap contributors","sourceId":"osm-major-roads","source_url":"https://www.openstreetmap.org/node/2516210964"}},{"type":"Feature","id":"osm_node_259993125","geometry":{"type":"Point","coordinates":[71.4901081,51.2045533]},"properties":{"osm_node_id":259993125,"roads":["69-шы көше","Алаш тас жолы"],"road_count":2,"importance_score":26,"source":"OpenStreetMap contributors","sourceId":"osm-major-roads","source_url":"https://www.openstreetmap.org/node/259993125"}},{"type":"Feature","id":"osm_node_259996531","geometry":{"type":"Point","coordinates":[71.4317983,51.1540273]},"properties":{"osm_node_id":259996531,"roads":["osm_way_107829319","Жұмабек Тәшенов көшесі"],"road_count":2,"importance_score":26,"source":"OpenStreetMap contributors","sourceId":"osm-major-roads","source_url":"https://www.openstreetmap.org/node/259996531"}},{"type":"Feature","id":"osm_node_259997015","geometry":{"type":"Point","coordinates":[71.4240065,51.1773094]},"properties":{"osm_node_id":259997015,"roads":["Бөгенбай Батыр даңғылы","Республика даңғылы"],"road_count":2,"importance_score":26,"source":"OpenStreetMap contributors","sourceId":"osm-major-roads","source_url":"https://www.openstreetmap.org/node/259997015"}},{"type":"Feature","id":"osm_node_259997934","geometry":{"type":"Point","coordinates":[71.4582967,51.1907199]},"properties":{"osm_node_id":259997934,"roads":["osm_way_262346414","Алаш тас жолы"],"road_count":2,"importance_score":26,"source":"OpenStreetMap contributors","sourceId":"osm-major-roads","source_url":"https://www.openstreetmap.org/node/259997934"}},{"type":"Feature","id":"osm_node_259997938","geometry":{"type":"Point","coordinates":[71.4628562,51.1926308]},"properties":{"osm_node_id":259997938,"roads":["Алаш тас жолы","Михаил Шолохов көшесі"],"road_count":2,"importance_score":26,"source":"OpenStreetMap contributors","sourceId":"osm-major-roads","source_url":"https://www.openstreetmap.org/node/259997938"}},{"type":"Feature","id":"osm_node_260034988","geometry":{"type":"Point","coordinates":[71.4117099,51.1566813]},"properties":{"osm_node_id":260034988,"roads":["Тұран даңғылы","Тұран көпірі"],"road_count":2,"importance_score":26,"source":"OpenStreetMap contributors","sourceId":"osm-major-roads","source_url":"https://www.openstreetmap.org/node/260034988"}},{"type":"Feature","id":"osm_node_260035336","geometry":{"type":"Point","coordinates":[71.4183418,51.1766731]},"properties":{"osm_node_id":260035336,"roads":["Бейбітшілік көшесі","Бөгенбай Батыр даңғылы"],"road_count":2,"importance_score":26,"source":"OpenStreetMap contributors","sourceId":"osm-major-roads","source_url":"https://www.openstreetmap.org/node/260035336"}},{"type":"Feature","id":"osm_node_260183763","geometry":{"type":"Point","coordinates":[71.4386684,51.1790696]},"properties":{"osm_node_id":260183763,"roads":["Алаш тас жолы","Бөгенбай Батыр даңғылы"],"road_count":2,"importance_score":26,"source":"OpenStreetMap contributors","sourceId":"osm-major-roads","source_url":"https://www.openstreetmap.org/node/260183763"}},{"type":"Feature","id":"osm_node_262453802","geometry":{"type":"Point","coordinates":[71.4120627,51.1461634]},"properties":{"osm_node_id":262453802,"roads":["Тұран даңғылы","Қорғалжын тас жолы"],"road_count":2,"importance_score":26,"source":"OpenStreetMap contributors","sourceId":"osm-major-roads","source_url":"https://www.openstreetmap.org/node/262453802"}},{"type":"Feature","id":"osm_node_2633375311","geometry":{"type":"Point","coordinates":[71.3964935,51.1759015]},"properties":{"osm_node_id":2633375311,"roads":["Бекетай көшесі","Бөгенбай Батыр даңғылы"],"road_count":2,"importance_score":26,"source":"OpenStreetMap contributors","sourceId":"osm-major-roads","source_url":"https://www.openstreetmap.org/node/2633375311"}},{"type":"Feature","id":"osm_node_2633375312","geometry":{"type":"Point","coordinates":[71.3934892,51.176492]},"properties":{"osm_node_id":2633375312,"roads":["Бөгенбай Батыр даңғылы","Сарыбұлақ көшесі"],"road_count":2,"importance_score":26,"source":"OpenStreetMap contributors","sourceId":"osm-major-roads","source_url":"https://www.openstreetmap.org/node/2633375312"}},{"type":"Feature","id":"osm_node_3276172186","geometry":{"type":"Point","coordinates":[71.2813024,51.1197754]},"properties":{"osm_node_id":3276172186,"roads":["osm_way_499644354","Қорғалжын тас жолы"],"road_count":2,"importance_score":26,"source":"OpenStreetMap contributors","sourceId":"osm-major-roads","source_url":"https://www.openstreetmap.org/node/3276172186"}},{"type":"Feature","id":"osm_node_3276172195","geometry":{"type":"Point","coordinates":[71.2922008,51.1235287]},"properties":{"osm_node_id":3276172195,"roads":["Шота Руставели көшесі","Қорғалжын тас жолы"],"road_count":2,"importance_score":26,"source":"OpenStreetMap contributors","sourceId":"osm-major-roads","source_url":"https://www.openstreetmap.org/node/3276172195"}},{"type":"Feature","id":"osm_node_471605843","geometry":{"type":"Point","coordinates":[71.4111403,51.1586886]},"properties":{"osm_node_id":471605843,"roads":["Сарыарқа даңғылы","Тұран көпірі"],"road_count":2,"importance_score":26,"source":"OpenStreetMap contributors","sourceId":"osm-major-roads","source_url":"https://www.openstreetmap.org/node/471605843"}},{"type":"Feature","id":"osm_node_4908933032","geometry":{"type":"Point","coordinates":[71.2814048,51.1196675]},"properties":{"osm_node_id":4908933032,"roads":["osm_way_499644354","Қорғалжын тас жолы"],"road_count":2,"importance_score":26,"source":"OpenStreetMap contributors","sourceId":"osm-major-roads","source_url":"https://www.openstreetmap.org/node/4908933032"}},{"type":"Feature","id":"osm_node_4914133836","geometry":{"type":"Point","coordinates":[71.4184823,51.1766905]},"properties":{"osm_node_id":4914133836,"roads":["Бейбітшілік көшесі","Бөгенбай Батыр даңғылы"],"road_count":2,"importance_score":26,"source":"OpenStreetMap contributors","sourceId":"osm-major-roads","source_url":"https://www.openstreetmap.org/node/4914133836"}},{"type":"Feature","id":"osm_node_4914133837","geometry":{"type":"Point","coordinates":[71.4185267,51.1765324]},"properties":{"osm_node_id":4914133837,"roads":["Бейбітшілік көшесі","Бөгенбай Батыр даңғылы"],"road_count":2,"importance_score":26,"source":"OpenStreetMap contributors","sourceId":"osm-major-roads","source_url":"https://www.openstreetmap.org/node/4914133837"}},{"type":"Feature","id":"osm_node_4922159712","geometry":{"type":"Point","coordinates":[71.4066887,51.1322667]},"properties":{"osm_node_id":4922159712,"roads":["Сарыарқа даңғылы","Тұран даңғылы"],"road_count":2,"importance_score":26,"source":"OpenStreetMap contributors","sourceId":"osm-major-roads","source_url":"https://www.openstreetmap.org/node/4922159712"}},{"type":"Feature","id":"osm_node_4974018921","geometry":{"type":"Point","coordinates":[71.3922596,51.1480075]},"properties":{"osm_node_id":4974018921,"roads":["osm_way_1533000109","Қорғалжын тас жолы"],"road_count":2,"importance_score":26,"source":"OpenStreetMap contributors","sourceId":"osm-major-roads","source_url":"https://www.openstreetmap.org/node/4974018921"}}]}
